gmid,event_id,event_time,event_longitude,event_latitude,event_depth,magnitude,strike,dip,rake,rupture_width,depth_top_of_rupture,depth_bottom_of_rupture,azimuth,repi,rhypo,rjb,rrup,rx,ry0,rvolc,gc2t,gc2u,receiver,station_longitude,station_latitude,network,station_code,station_id,station_elevation,vs30,fpeak,vs30measured,slope,geology,xvf,region,z1,z2pt5,PGA,PGV,SA(0.010),SA(0.020),SA(0.022),SA(0.025),SA(0.029),SA(0.030),SA(0.032),SA(0.035),SA(0.036),SA(0.040),SA(0.042),SA(0.044),SA(0.045),SA(0.046),SA(0.048),SA(0.050),SA(0.055),SA(0.060),SA(0.065),SA(0.067),SA(0.070),SA(0.075),SA(0.080),SA(0.085),SA(0.090),SA(0.095),SA(0.100),SA(0.110),SA(0.120),SA(0.130),SA(0.133),SA(0.140),SA(0.150),SA(0.160),SA(0.170),SA(0.180),SA(0.190),SA(0.200),SA(0.220),SA(0.240),SA(0.250),SA(0.260),SA(0.280),SA(0.290),SA(0.300),SA(0.320),SA(0.340),SA(0.350),SA(0.360),SA(0.380),SA(0.400),SA(0.420),SA(0.440),SA(0.450),SA(0.460),SA(0.480),SA(0.500),SA(0.550),SA(0.600),SA(0.650),SA(0.667),SA(0.700),SA(0.750),SA(0.800),SA(0.850),SA(0.900),SA(0.950),SA(1.000),SA(1.100),SA(1.200),SA(1.300),SA(1.400),SA(1.500),SA(1.600),SA(1.700),SA(1.800),SA(1.900),SA(2.000),SA(2.200),SA(2.400),SA(2.500),SA(2.600),SA(2.800),SA(3.000),SA(3.200),SA(3.400),SA(3.500),SA(3.600),SA(3.800),SA(4.000),SA(4.200),SA(4.400),SA(4.600),SA(4.800),SA(5.000),SA(5.500),SA(6.000),SA(6.500),SA(7.000),SA(7.500),SA(8.000),SA(8.500),SA(9.000),SA(9.500),SA(10.000)
INT-20230206_0000008|UNK-00026-03378,INT-20230206_0000008,2023-02-06T01:17:36.000000Z,37.042,37.166,17.9,7.83,41.56393847190536,80.96893034637156,-1.0,37.334600782057684,1.6088008578412403,38.354447044592916,265.3877578317819,349.9823127378366,350.439765479497,321.4416681706257,321.5113373747319,-310.7193816068741,0.0,0.0,-310.7193816068741,142.1026213668503,00026-03378,33.916800000000286,39.132900000000106,UNK,00026-03378,UNK-00026-03378,,460.40985,0.0,False,0.04513719,CENOZOIC,-150.0,4,278.56024,1.0766537,0.0014507546596539817,1.8839665693797274,0.0014507134910672903,0.0014503489946946502,0.001452850759960711,0.0014514393405988812,0.0014509669272229075,0.0014509132597595453,0.0014508399181067944,0.0014507828745990992,0.0014507732121273875,0.0014507630839943886,0.0014507706509903073,0.001450784387998283,0.0014507932355627418,0.0014508032472804189,0.0014508262975141406,0.0014508533058688045,0.001450934330932796,0.001451032469049096,0.0014511451590806246,0.001451194053515792,0.0014512711204588413,0.0014514094218611717,0.0014515598304569721,0.0014517216477543116,0.0014518949901685119,0.0014520795084536076,0.0014522750861942768,0.0014526995364576578,0.0014531700871884823,0.0014536946546286345,0.0014538726536557078,0.0014543223660439253,0.0014548832550644875,0.0014556820970028639,0.0014561539283022285,0.001456649973988533,0.0014574124943464994,0.0014581274008378386,0.0014598274137824774,0.0014617572305724025,0.0014628253411501646,0.0014641364105045795,0.0014643529430031776,0.0014646914787590504,0.0014652975369244814,0.001468050410039723,0.0014726427616551518,0.0014729422982782125,0.0014743009814992547,0.0014784734230488539,0.0014823003439232707,0.001485323766246438,0.0014853531029075384,0.0014943175483494997,0.0015071688685566187,0.0015154180582612753,0.001522423466667533,0.0015357976080849767,0.0016121708322316408,0.001593457069247961,0.0016165042761713266,0.0016770989168435335,0.001762560335919261,0.0016638007946312428,0.0020194619428366423,0.0022113260347396135,0.002176725771278143,0.0020334653090685606,0.0022826979402452707,0.0027846498414874077,0.0033495596144348383,0.003352370345965028,0.0034122548531740904,0.003700301982462406,0.003832422662526369,0.003421519882977009,0.0030872253701090813,0.0031531702261418104,0.0032200401183217764,0.002996147843077779,0.002702336758375168,0.002889663213863969,0.0029835349414497614,0.0030416781082749367,0.0030398848466575146,0.0026551419869065285,0.0027255346067249775,0.0028253470081835985,0.0032244639005512,0.003443458816036582,0.0035933363251388073,0.0036457304377108812,0.003521255450323224,0.0034608966670930386,0.003658781060948968,0.0037667963188141584,0.002818232635036111,0.002279636450111866,0.002005839953199029,0.0021435057278722525,0.002309369621798396,0.0024809865280985832,0.002665008185431361,0.002849399810656905,0.0030057765543460846
INT-20230206_0000008|UNK-00027-00796,INT-20230206_0000008,2023-02-06T01:17:36.000000Z,37.042,37.166,17.9,7.83,41.56393847190536,80.96893034637156,-1.0,37.334600782057684,1.6088008578412403,38.354447044592916,273.60493504474357,210.19283345588687,210.95363764631838,181.09578466105603,181.2051400351691,-175.31344637112463,0.0,0.0,-175.31344637112463,177.04303963108885,00027-00796,35.46697199999957,38.590073000000146,UNK,00027-00796,UNK-00027-00796,,871.05426,0.0,False,0.20903671,PLEISTOCENE,-80.0693370205578,4,18.866394,0.5191606,0.0031733778810255292,3.4675350535965785,0.0031732062343508005,0.003173384116962552,0.0031737228855490685,0.0031737128738313913,0.0031738642137497663,0.003173910081386566,0.0031740088015794754,0.0031741722486913204,0.003174230922013521,0.0031744842417538166,0.0031746220774948597,0.0031747675966471434,0.0031748428009450436,0.003174919867888093,0.003175080055370927,0.0031752476934343576,0.003175699384883046,0.003176199272274971,0.0031767485197633505,0.003176982281729579,0.00317734875716269,0.0031780018471181393,0.003178711049258709,0.0031794789247214794,0.0031803096644580364,0.003181208623573184,0.003182182786986232,0.0031844216864556074,0.0031872675754129887,0.0031912336125969887,0.0031923004426062107,0.0031943737994879484,0.0032011934090405703,0.003205403219908476,0.0032217013649642467,0.0032293659169226885,0.0032088931184262037,0.00320369191467762,0.003227545879781246,0.0032314511481672525,0.003237001830711961,0.0032334760762751102,0.0031868182122707367,0.003170108888298273,0.0031981482170522213,0.0032217109110206366,0.0031937744934111834,0.0031721326522529125,0.003199349157512188,0.0033895308151841164,0.003538255114108324,0.0034874253906309605,0.003606674959883094,0.003739827312529087,0.0037989825941622257,0.0038387812674045563,0.0038268135394901037,0.0037604602985084057,0.003650601487606764,0.004322053398936987,0.004308980889618397,0.004381672479212284,0.004033203702419996,0.004603622946888208,0.004551722668111324,0.0050856731832027435,0.005178936291486025,0.005012805573642254,0.006495563313364983,0.008235052227973938,0.00703723868355155,0.004844648763537407,0.004676592070609331,0.0045553529635071754,0.004244946874678135,0.004589352291077375,0.004524854943156242,0.004021462518721819,0.004415207542479038,0.004953509662300348,0.005086809396743774,0.005212608724832535,0.005528829526156187,0.005914115812629461,0.005204374436289072,0.005181106738746166,0.005464199464768171,0.006004227325320244,0.0074447207152843475,0.00746929319575429,0.007247853558510542,0.007141670677810907,0.007228086236864328,0.0071322075091302395,0.007933977991342545,0.006648298352956772,0.006256482098251581,0.007041592616587877,0.0052015953697264194,0.004905561916530132,0.005066678859293461,0.005156670697033405,0.005254349205642939,0.0053980243392288685,0.005373428110033274
INT-20230206_0000008|UNK-00028-13751,INT-20230206_0000008,2023-02-06T01:17:36.000000Z,37.042,37.166,17.9,7.83,41.56393847190536,80.96893034637156,-1.0,37.334600782057684,1.6088008578412403,38.354447044592916,347.33508748552015,265.9696966896042,266.57135922142885,116.74426131032116,116.92217338944265,-75.57083570558275,47.35038764987297,0.0,-75.57083570558275,389.6391165031487,00028-13751,38.49319999999951,39.26880000000016,UNK,00028-13751,UNK-00028-13751,,774.84607,0.0,False,0.15225103,PALEOZOIC,150.0,4,37.157166,0.5935416,0.012781713948483975,12.192037100726349,0.012781033292412758,0.012781305238604546,0.012780994176864624,0.012781839817762375,0.012782614678144455,0.012782800942659378,0.012783183716237545,0.012783781625330448,0.012783989310264587,0.012784871272742748,0.012785343453288078,0.01278583612293005,0.012786091305315495,0.012786351144313812,0.01278688758611679,0.01278744637966156,0.012788942083716393,0.012790579348802567,0.012792359106242657,0.012793110683560371,0.012794281356036663,0.012796347960829735,0.012798577547073364,0.012800957076251507,0.012803594581782818,0.012806416489183903,0.012809389270842075,0.01281579490751028,0.012822819873690605,0.012830536812543869,0.012833007611334324,0.012838883325457573,0.012847084552049637,0.01285595539957285,0.012868124060332775,0.012881722301244736,0.012893926352262497,0.01290665939450264,0.012918734923005104,0.012939004227519035,0.012958054430782795,0.012982802465558052,0.013046972453594208,0.013098896481096745,0.013155152089893818,0.013279158622026443,0.013329959474503994,0.013416208326816559,0.013540338724851608,0.013484316878020763,0.013468179851770401,0.013666010461747646,0.01410121750086546,0.014366865158081055,0.014390102587640285,0.014533521607518196,0.014531721360981464,0.015776708722114563,0.01583431288599968,0.015061491169035435,0.01525158528238535,0.017048943787813187,0.018091674894094467,0.020057393237948418,0.02200634963810444,0.022205499932169914,0.02465851604938507,0.023870766162872314,0.02477332577109337,0.027557354420423508,0.03152742609381676,0.026678765192627907,0.028073500841856003,0.030197277665138245,0.035940978676080704,0.04145893082022667,0.04566099867224693,0.04452710598707199,0.03532407432794571,0.03069566749036312,0.029003724455833435,0.027342811226844788,0.025009222328662872,0.026644498109817505,0.022672006860375404,0.021434936672449112,0.022751914337277412,0.024472206830978394,0.02593238279223442,0.024454494938254356,0.023239463567733765,0.024802327156066895,0.027482395991683006,0.03003019094467163,0.03274480998516083,0.03740420937538147,0.03795130178332329,0.03569508343935013,0.032867297530174255,0.030193788930773735,0.028114723041653633,0.025335321202874184,0.022366603836417198,0.021159378811717033,0.01995573751628399
INT-20230206_0000008|UNK-00029-04137,INT-20230206_0000008,2023-02-06T01:17:36.000000Z,37.042,37.166,17.9,7.83,41.56393847190536,80.96893034637156,-1.0,37.334600782057684,1.6088008578412403,38.354447044592916,159.1054531119962,108.1633953546893,109.63452966403797,24.400380788894054,33.38936396410233,38.03788093889395,0.0,0.0,38.03788093889395,39.960457281531205,00029-04137,36.60219999999996,36.25940000000001,UNK,00029-04137,UNK-00029-04137,,403.83762,0.0,False,0.032646228,CENOZOIC,149.6635420839904,2,350.96277,1.2508724,0.05930886222665362,23.201244817601875,0.0592961460351944,0.059298884123563766,0.059316281229257584,0.0593121163547039,0.059326428920030594,0.0593310184776783,0.059340476989746094,0.05935538560152054,0.059360571205616,0.05938250198960304,0.0593942329287529,0.059406496584415436,0.05941283330321312,0.05941930413246155,0.05943267419934273,0.059446610510349274,0.05948401242494583,0.05952517315745354,0.05957026034593582,0.0595894493162632,0.05962121859192848,0.0596814826130867,0.05975078418850899,0.05982672795653343,0.05990689620375633,0.05998973920941353,0.06003129109740257,0.06013044714927673,0.06028817594051361,0.06044333800673485,0.0605241134762764,0.06076209992170334,0.061078574508428574,0.06145060062408447,0.061838503926992416,0.06216733157634735,0.06254484504461288,0.06292121112346649,0.06410333514213562,0.06547567993402481,0.06643383949995041,0.06695505231618881,0.06700466573238373,0.06798714399337769,0.06951864808797836,0.07257239520549774,0.07745061069726944,0.08214583247900009,0.08617471903562546,0.0834537148475647,0.07854034751653671,0.08148834854364395,0.08487064391374588,0.0851067304611206,0.08671429008245468,0.09576433897018433,0.10332486033439636,0.12432567030191422,0.12844495475292206,0.12385449558496475,0.11571954935789108,0.10939627140760422,0.10694198310375214,0.10131892561912537,0.11005766689777374,0.12600116431713104,0.10961341112852097,0.09321290254592896,0.09695571660995483,0.10980439931154251,0.124225914478302,0.11149496585130692,0.12405304610729218,0.10946221649646759,0.10662703961133957,0.12556026875972748,0.11809321492910385,0.10803499072790146,0.13810710608959198,0.1099395900964737,0.10041532665491104,0.09284865111112595,0.07430872321128845,0.06417600065469742,0.06088181212544441,0.061479292809963226,0.06146806851029396,0.06196662783622742,0.06745001673698425,0.0746510922908783,0.07830478996038437,0.07841058075428009,0.07735566794872284,0.07436788827180862,0.07013296335935593,0.06065550819039345,0.04913778975605965,0.04011208191514015,0.03510618209838867,0.03244931250810623,0.02969074435532093,0.027016347274184227,0.02429390698671341,0.022546904161572456,0.01999739557504654
INT-20230206_0000008|UNK-00030-12205,INT-20230206_0000008,2023-02-06T01:17:36.000000Z,37.042,37.166,17.9,7.83,41.56393847190536,80.96893034637156,-1.0,37.334600782057684,1.6088008578412403,38.354447044592916,24.732834654915578,171.343856453202,172.27631045577766,32.57413150290101,35.790142730977905,43.137078713982525,0.0,0.0,43.137078713982525,322.9415910987628,00030-12205,38.76119999999995,37.883999999999986,UNK,00030-12205,UNK-00030-12205,,503.4107,0.0,False,0.044246573,CENOZOIC,150.0,2,224.76797,0.97210705,0.03316829173761961,13.213707107803362,0.033160023391246796,0.03316829353570938,0.03317403793334961,0.03318066895008087,0.033188264816999435,0.033190421760082245,0.03319501504302025,0.03320253640413284,0.03320520371198654,0.033216625452041626,0.03322279080748558,0.03322926163673401,0.03323260694742203,0.033236026763916016,0.0332430936396122,0.03325045853853226,0.03327016532421112,0.033291690051555634,0.03331495448946953,0.033324722200632095,0.03333980217576027,0.03336631879210472,0.03339172899723053,0.03341130539774895,0.033437203615903854,0.03353165462613106,0.033633869141340256,0.03375500068068504,0.03381132706999779,0.033854931592941284,0.03386678919196129,0.03385303169488907,0.034051865339279175,0.03405330330133438,0.03429799899458885,0.03439836949110031,0.034522779285907745,0.0348094180226326,0.036201391369104385,0.03705226257443428,0.037136200815439224,0.037096619606018066,0.036783915013074875,0.036664679646492004,0.03583456948399544,0.03766915574669838,0.03913617134094238,0.040394239127635956,0.04136897251009941,0.0412127785384655,0.04163937270641327,0.04318412020802498,0.04427060857415199,0.044204626232385635,0.04392310976982117,0.0478699766099453,0.049905069172382355,0.05776067450642586,0.07248810678720474,0.07365137338638306,0.07699035853147507,0.08385022729635239,0.0774179995059967,0.06697207689285278,0.06663442403078079,0.07050282508134842,0.07102449238300323,0.06919428706169128,0.06706386804580688,0.08189895004034042,0.0923139899969101,0.0935787558555603,0.08472975343465805,0.06972845643758774,0.0671042948961258,0.057797107845544815,0.06858846545219421,0.0630505308508873,0.05572226643562317,0.05527748540043831,0.04933027923107147,0.045438140630722046,0.03873465955257416,0.03885512053966522,0.044275347143411636,0.0483836829662323,0.05102401226758957,0.04960359260439873,0.04168635234236717,0.03407138213515282,0.029947644099593163,0.02711481787264347,0.026350727304816246,0.025174923241138458,0.024281587451696396,0.021586891263723373,0.01675780490040779,0.014165518805384636,0.013257256709039211,0.013342853635549545,0.014110890217125416,0.014954385347664356,0.01575322262942791,0.016084475442767143,0.015815377235412598
INT-20230206_0000008|UNK-00031-04647,INT-20230206_0000008,2023-02-06T01:17:36.000000Z,37.042,37.166,17.9,7.83,41.56393847190536,80.96893034637156,-1.0,37.334600782057684,1.6088008578412403,38.354447044592916,207.3166209913183,33.2375075081718,37.751051711916276,4.578441644533817,4.833202762876864,-5.035477030748708,0.0,0.0,-5.035477030748708,132.79106452631817,00031-04647,36.66769999999998,37.18609999999998,UNK,00031-04647,UNK-00031-04647,,739.50745,0.0,False,0.070854485,JURASSIC-TRIASSIC,95.88418956115908,2,47.810337,0.62609947,0.17834858459300776,92.1735019094354,0.17830497026443481,0.17818468809127808,0.18240171670913696,0.17920082807540894,0.1785556524991989,0.17848432064056396,0.17838828265666962,0.17831210792064667,0.17829857766628265,0.17827601730823517,0.17827630043029785,0.17828379571437836,0.17828933894634247,0.17829780280590057,0.17831774055957794,0.17834272980690002,0.17842739820480347,0.17853498458862305,0.17864932119846344,0.1786958873271942,0.17873339354991913,0.17899838089942932,0.1790320724248886,0.1791745126247406,0.17962293326854706,0.1806076467037201,0.18107753992080688,0.1811746209859848,0.18085770308971405,0.18090558052062988,0.17992326617240906,0.18092122673988342,0.18111537396907806,0.1784387081861496,0.17850470542907715,0.1842057704925537,0.1932925581932068,0.20133352279663086,0.2136208713054657,0.2274622619152069,0.23440465331077576,0.24168848991394043,0.25760504603385925,0.2589223086833954,0.2650407552719116,0.2873117923736572,0.28334173560142517,0.27560532093048096,0.2647472023963928,0.24815019965171814,0.2794032692909241,0.3059846758842468,0.3073459565639496,0.3066728711128235,0.3089997470378876,0.32633107900619507,0.34567204117774963,0.32066553831100464,0.2648763060569763,0.2237776517868042,0.2378067970275879,0.24792467057704926,0.28127068281173706,0.34585437178611755,0.3663439154624939,0.34063151478767395,0.2906392514705658,0.26058679819107056,0.20472556352615356,0.17620845139026642,0.1654239147901535,0.15869805216789246,0.15426009893417358,0.1560439169406891,0.16305512189865112,0.1688651144504547,0.17707523703575134,0.18714183568954468,0.20425069332122803,0.21805080771446228,0.22406476736068726,0.22930248081684113,0.23832665383815765,0.24783162772655487,0.25568220019340515,0.259395956993103,0.26039981842041016,0.2624841332435608,0.2640456259250641,0.26185858249664307,0.2573671042919159,0.2505689263343811,0.24125418066978455,0.23038338124752045,0.21894586086273193,0.1924850046634674,0.16757649183273315,0.14432604610919952,0.12515713274478912,0.11027760803699493,0.09798678010702133,0.08662323653697968,0.07647714018821716,0.06782055646181107,0.060577671974897385
