gmid,event_id,event_time,event_longitude,event_latitude,event_depth,magnitude,strike,dip,rake,rupture_width,depth_top_of_rupture,depth_bottom_of_rupture,azimuth,repi,rhypo,rjb,rrup,rx,ry0,rvolc,gc2t,gc2u,receiver,station_longitude,station_latitude,network,station_code,station_id,station_elevation,vs30,fpeak,vs30measured,slope,geology,xvf,region,z1,z2pt5,PGA,PGV,SA(0.010),SA(0.020),SA(0.022),SA(0.025),SA(0.029),SA(0.030),SA(0.032),SA(0.035),SA(0.036),SA(0.040),SA(0.042),SA(0.044),SA(0.045),SA(0.046),SA(0.048),SA(0.050),SA(0.055),SA(0.060),SA(0.065),SA(0.067),SA(0.070),SA(0.075),SA(0.080),SA(0.085),SA(0.090),SA(0.095),SA(0.100),SA(0.110),SA(0.120),SA(0.130),SA(0.133),SA(0.140),SA(0.150),SA(0.160),SA(0.170),SA(0.180),SA(0.190),SA(0.200),SA(0.220),SA(0.240),SA(0.250),SA(0.260),SA(0.280),SA(0.290),SA(0.300),SA(0.320),SA(0.340),SA(0.350),SA(0.360),SA(0.380),SA(0.400),SA(0.420),SA(0.440),SA(0.450),SA(0.460),SA(0.480),SA(0.500),SA(0.550),SA(0.600),SA(0.650),SA(0.667),SA(0.700),SA(0.750),SA(0.800),SA(0.850),SA(0.900),SA(0.950),SA(1.000),SA(1.100),SA(1.200),SA(1.300),SA(1.400),SA(1.500),SA(1.600),SA(1.700),SA(1.800),SA(1.900),SA(2.000),SA(2.200),SA(2.400),SA(2.500),SA(2.600),SA(2.800),SA(3.000),SA(3.200),SA(3.400),SA(3.500),SA(3.600),SA(3.800),SA(4.000),SA(4.200),SA(4.400),SA(4.600),SA(4.800),SA(5.000),SA(5.500),SA(6.000),SA(6.500),SA(7.000),SA(7.500),SA(8.000),SA(8.500),SA(9.000),SA(9.500),SA(10.000)
INT-20230206_0000008|UNK-00038-00416,INT-20230206_0000008,2023-02-06T01:17:36.000000Z,37.042,37.166,17.9,7.83,41.56393847190536,80.96893034637156,-1.0,37.334600782057684,1.6088008578412403,38.354447044592916,310.4839782370077,234.8783005678488,235.55938970382974,184.95589150576464,184.93092537067338,-154.92883400917498,0.0,0.0,-154.92883400917498,287.53695551019877,00038-00416,36.74630000000001,39.265500000000166,UNK,00038-00416,UNK-00038-00416,,407.13675,0.0,False,0.023742063,CENOZOIC,-32.73108695003492,4,346.84744,1.2392834,0.005630134481612873,4.964403025247808,0.005629173945635557,0.005630324129015207,0.005631739739328623,0.005632057785987854,0.005632924381643534,0.005633185617625713,0.00563374487683177,0.005634666420519352,0.005634994246065617,0.005636401474475861,0.0056371623650193214,0.0056379614397883415,0.005638374947011471,0.0056387982331216335,0.0056396727450191975,0.005640584975481033,0.005643031094223261,0.005645715165883303,0.005648639053106308,0.005649876780807972,0.005651805549860001,0.00565521651878953,0.005658875685185194,0.005662788171321154,0.005666957702487707,0.005671391263604164,0.005676095373928547,0.005686413496732712,0.005698309745639563,0.00571091752499342,0.005714823491871357,0.005725269205868244,0.005741490051150322,0.005764075554907322,0.005790635012090206,0.005823738407343626,0.0058647459372878075,0.005903181619942188,0.005989014636725187,0.006094916723668575,0.006153547670692205,0.006245029158890247,0.006537922192364931,0.006659538019448519,0.006624593865126371,0.006628313567489386,0.00690494105219841,0.007090828847140074,0.00724195409566164,0.0075052035972476006,0.007799430284649134,0.008547794073820114,0.009272472001612186,0.009459895081818104,0.009453273378312588,0.009188101626932621,0.008951465599238873,0.008502556011080742,0.008677961304783821,0.008459207601845264,0.00859126914292574,0.009579450823366642,0.010280536487698555,0.011741425842046738,0.013414790853857994,0.016302600502967834,0.019437680020928383,0.02265269309282303,0.02478078007698059,0.01930919475853443,0.012499740347266197,0.009019817225635052,0.011282376013696194,0.014643077738583088,0.016115793958306313,0.016232792288064957,0.01446373201906681,0.011791571043431759,0.011682052165269852,0.009691025130450726,0.010096164420247078,0.01017673034220934,0.008076055906713009,0.008064177818596363,0.007760407403111458,0.009632944129407406,0.010190223343670368,0.010108044371008873,0.008924377150833607,0.008990202099084854,0.010023552924394608,0.011129114776849747,0.011289931833744049,0.011595289222896099,0.011451498605310917,0.012851608917117119,0.013989252969622612,0.013506628572940826,0.012343188747763634,0.011329465545713902,0.010371583513915539,0.009182619862258434,0.008609042502939701,0.007856355980038643,0.0069692498072981834
INT-20230206_0000008|TU-NAR,INT-20230206_0000008,2023-02-06T01:17:36.000000Z,37.042,37.166,17.9,7.83,41.56393847190536,80.96893034637156,-1.0,37.334600782057684,1.6088008578412403,38.354447044592916,351.61824403092083,27.114764227160318,32.4903130039477,0.0,4.237171251647493,4.52978230532827,0.0,0.0,4.52978230532827,173.3369221586842,00039-12512,37.15740000000005,37.39190000000005,TU,NAR,TU-NAR,650.0,270.38974,0.0,False,0.016336363,CENOZOIC,117.78586446680146,2,479.20966,1.9793233,0.19795205421319542,66.7526883656107,0.1977819800376892,0.19819442927837372,0.1989801526069641,0.19979165494441986,0.2021835297346115,0.20124830305576324,0.20135006308555603,0.2061678171157837,0.20481932163238525,0.20458638668060303,0.20720237493515015,0.20634450018405914,0.20606325566768646,0.2061719447374344,0.2074914425611496,0.21078889071941376,0.21412312984466553,0.21880868077278137,0.22223210334777832,0.22472228109836578,0.23148144781589508,0.23146724700927734,0.22822919487953186,0.24562105536460876,0.25528573989868164,0.24354325234889984,0.2549373209476471,0.31746920943260193,0.32100799679756165,0.3163531720638275,0.30974748730659485,0.3007327616214752,0.30317091941833496,0.3017016649246216,0.2882242500782013,0.27344033122062683,0.2583746910095215,0.25122442841529846,0.24269087612628937,0.2324885129928589,0.22659680247306824,0.21871067583560944,0.19289560616016388,0.2015501707792282,0.2131872922182083,0.22819189727306366,0.24341072142124176,0.24854515492916107,0.249765083193779,0.25656038522720337,0.26007381081581116,0.25832051038742065,0.26642563939094543,0.27314502000808716,0.2806030809879303,0.2856098711490631,0.28111904859542847,0.2741422951221466,0.26203784346580505,0.26217782497406006,0.26514413952827454,0.27147358655929565,0.27752506732940674,0.28264370560646057,0.28785771131515503,0.2907774746417999,0.2916484773159027,0.2930436432361603,0.30034759640693665,0.3086189925670624,0.3100447356700897,0.3044208586215973,0.2965271472930908,0.28875643014907837,0.282010555267334,0.27554208040237427,0.26880529522895813,0.26143836975097656,0.24449564516544342,0.22550182044506073,0.21554256975650787,0.20552460849285126,0.18572090566158295,0.16698794066905975,0.1498907208442688,0.13465265929698944,0.12774553894996643,0.12130171805620193,0.10975015163421631,0.09976702928543091,0.09124403446912766,0.08410456031560898,0.07880277931690216,0.07527082413434982,0.07101418077945709,0.0624348483979702,0.055183637887239456,0.04907015711069107,0.04432947561144829,0.040350254625082016,0.036945659667253494,0.03408709168434143,0.03485771641135216,0.03441200032830238,0.03187553957104683
INT-20230206_0000008|TU-NAR,INT-20230206_0000008,2023-02-06T01:17:36.000000Z,37.042,37.166,17.9,7.83,41.56393847190536,80.96893034637156,-1.0,37.334600782057684,1.6088008578412403,38.354447044592916,351.61824403092083,27.114764227160318,32.4903130039477,0.0,4.237171251647493,4.52978230532827,0.0,0.0,4.52978230532827,173.3369221586842,00040-12512,37.15740000000005,37.39190000000005,TU,NAR,TU-NAR,650.0,270.38974,0.0,False,0.016336363,CENOZOIC,117.78586446680146,2,479.20966,1.9793233,0.19795205421319542,66.7526883656107,0.1977819800376892,0.19819442927837372,0.1989801526069641,0.19979165494441986,0.2021835297346115,0.20124830305576324,0.20135006308555603,0.2061678171157837,0.20481932163238525,0.20458638668060303,0.20720237493515015,0.20634450018405914,0.20606325566768646,0.2061719447374344,0.2074914425611496,0.21078889071941376,0.21412312984466553,0.21880868077278137,0.22223210334777832,0.22472228109836578,0.23148144781589508,0.23146724700927734,0.22822919487953186,0.24562105536460876,0.25528573989868164,0.24354325234889984,0.2549373209476471,0.31746920943260193,0.32100799679756165,0.3163531720638275,0.30974748730659485,0.3007327616214752,0.30317091941833496,0.3017016649246216,0.2882242500782013,0.27344033122062683,0.2583746910095215,0.25122442841529846,0.24269087612628937,0.2324885129928589,0.22659680247306824,0.21871067583560944,0.19289560616016388,0.2015501707792282,0.2131872922182083,0.22819189727306366,0.24341072142124176,0.24854515492916107,0.249765083193779,0.25656038522720337,0.26007381081581116,0.25832051038742065,0.26642563939094543,0.27314502000808716,0.2806030809879303,0.2856098711490631,0.28111904859542847,0.2741422951221466,0.26203784346580505,0.26217782497406006,0.26514413952827454,0.27147358655929565,0.27752506732940674,0.28264370560646057,0.28785771131515503,0.2907774746417999,0.2916484773159027,0.2930436432361603,0.30034759640693665,0.3086189925670624,0.3100447356700897,0.3044208586215973,0.2965271472930908,0.28875643014907837,0.282010555267334,0.27554208040237427,0.26880529522895813,0.26143836975097656,0.24449564516544342,0.22550182044506073,0.21554256975650787,0.20552460849285126,0.18572090566158295,0.16698794066905975,0.1498907208442688,0.13465265929698944,0.12774553894996643,0.12130171805620193,0.10975015163421631,0.09976702928543091,0.09124403446912766,0.08410456031560898,0.07880277931690216,0.07527082413434982,0.07101418077945709,0.0624348483979702,0.055183637887239456,0.04907015711069107,0.04432947561144829,0.040350254625082016,0.036945659667253494,0.03408709168434143,0.03485771641135216,0.03441200032830238,0.03187553957104683
INT-20230206_0000008|TU-GAZI,INT-20230206_0000008,2023-02-06T01:17:36.000000Z,37.042,37.166,17.9,7.83,41.56393847190536,80.96893034637156,-1.0,37.334600782057684,1.6088008578412403,38.354447044592916,214.06831157299706,433.84882094334597,434.2179285035701,338.34858099681736,338.31671134015704,-244.89663620140476,169.37117330949394,0.0,-244.89663620140476,-169.37117330949394,00041-01061,32.315700000000405,36.234699999999975,TU,GAZI,TU-GAZI,394.0,640.70435,0.0,False,0.068310045,UNKNOWN,19.405612194640735,4,95.77993,0.7377294,0.0005194581906647674,0.7572226896555987,0.000519436551257968,0.0005186694907024503,0.0005212951800785959,0.0005198188591748476,0.0005192094831727445,0.0005191326490603387,0.0005190198426134884,0.0005189135554246604,0.000518888933584094,0.0005188231007196009,0.0005188039503991604,0.0005187910865060985,0.0005187866045162082,0.0005187832284718752,0.000518779328558594,0.0005187787464819849,0.0005187886999920011,0.0005188109935261309,0.0005188426584936678,0.0005188575014472008,0.0005188818904571235,0.0005189277580939233,0.0005189793882891536,0.0005190363735891879,0.000519102846737951,0.0005191743839532137,0.0005192498210817575,0.0005194126279093325,0.0005195913254283369,0.0005197862628847361,0.0005198479047976434,0.0005199977895244956,0.0005202321335673332,0.0005204831250011921,0.000520750938449055,0.0005210359813645482,0.0005213384865783155,0.0005216588033363223,0.0005223542684689164,0.0005231248796917498,0.0005235394346527755,0.0005239739548414946,0.0005249047535471618,0.0005254020215943456,0.000525921059306711,0.0005270274705253541,0.0005282455240376294,0.0005289019900374115,0.0005295952432788908,0.0005310660926625133,0.0005326867685653269,0.0005340581410564482,0.0005351888830773532,0.000535265076905489,0.0005358570488169789,0.0005384144023992121,0.0005398288485594094,0.0005445890710689127,0.000553057761862874,0.0005665277130901814,0.0005663762567564845,0.0005567141924984753,0.00058210693532601,0.0006255260086618364,0.0006883448804728687,0.0007091842708177865,0.0006732820183970034,0.0006922924658283591,0.0007204590947367251,0.0007709478377364576,0.0007894076989032328,0.000797622837126255,0.0007975310436449945,0.0007443858776241541,0.0007764879846945405,0.0007370111416094005,0.0007992575992830098,0.0008745011873543262,0.0010107584530487657,0.0010955092730000615,0.0010735387913882732,0.0011038001393899322,0.0012129693059250712,0.0012314565246924758,0.0011612664675340056,0.0012033804086968303,0.0012114262208342552,0.001204039785079658,0.0011099816765636206,0.0010017268359661102,0.0008736976305954158,0.0007516753394156694,0.0006792776403017342,0.0006731001776643097,0.0007169188465923071,0.0007797791622579098,0.0006712193717248738,0.0005202718893997371,0.0004147116851527244,0.00038442458026111126,0.00038878683699294925,0.0003995997831225395,0.0004022648499812931,0.0003985837975051254,0.00038531969767063856
INT-20230206_0000008|TU-GAZI,INT-20230206_0000008,2023-02-06T01:17:36.000000Z,37.042,37.166,17.9,7.83,41.56393847190536,80.96893034637156,-1.0,37.334600782057684,1.6088008578412403,38.354447044592916,214.06831157299706,433.84882094334597,434.2179285035701,338.34858099681736,338.31671134015704,-244.89663620140476,169.37117330949394,0.0,-244.89663620140476,-169.37117330949394,00042-01061,32.315700000000405,36.234699999999975,TU,GAZI,TU-GAZI,394.0,640.70435,0.0,False,0.068310045,UNKNOWN,19.405612194640735,4,95.77993,0.7377294,0.0005194581906647674,0.7572226896555987,0.000519436551257968,0.0005186694907024503,0.0005212951800785959,0.0005198188591748476,0.0005192094831727445,0.0005191326490603387,0.0005190198426134884,0.0005189135554246604,0.000518888933584094,0.0005188231007196009,0.0005188039503991604,0.0005187910865060985,0.0005187866045162082,0.0005187832284718752,0.000518779328558594,0.0005187787464819849,0.0005187886999920011,0.0005188109935261309,0.0005188426584936678,0.0005188575014472008,0.0005188818904571235,0.0005189277580939233,0.0005189793882891536,0.0005190363735891879,0.000519102846737951,0.0005191743839532137,0.0005192498210817575,0.0005194126279093325,0.0005195913254283369,0.0005197862628847361,0.0005198479047976434,0.0005199977895244956,0.0005202321335673332,0.0005204831250011921,0.000520750938449055,0.0005210359813645482,0.0005213384865783155,0.0005216588033363223,0.0005223542684689164,0.0005231248796917498,0.0005235394346527755,0.0005239739548414946,0.0005249047535471618,0.0005254020215943456,0.000525921059306711,0.0005270274705253541,0.0005282455240376294,0.0005289019900374115,0.0005295952432788908,0.0005310660926625133,0.0005326867685653269,0.0005340581410564482,0.0005351888830773532,0.000535265076905489,0.0005358570488169789,0.0005384144023992121,0.0005398288485594094,0.0005445890710689127,0.000553057761862874,0.0005665277130901814,0.0005663762567564845,0.0005567141924984753,0.00058210693532601,0.0006255260086618364,0.0006883448804728687,0.0007091842708177865,0.0006732820183970034,0.0006922924658283591,0.0007204590947367251,0.0007709478377364576,0.0007894076989032328,0.000797622837126255,0.0007975310436449945,0.0007443858776241541,0.0007764879846945405,0.0007370111416094005,0.0007992575992830098,0.0008745011873543262,0.0010107584530487657,0.0010955092730000615,0.0010735387913882732,0.0011038001393899322,0.0012129693059250712,0.0012314565246924758,0.0011612664675340056,0.0012033804086968303,0.0012114262208342552,0.001204039785079658,0.0011099816765636206,0.0010017268359661102,0.0008736976305954158,0.0007516753394156694,0.0006792776403017342,0.0006731001776643097,0.0007169188465923071,0.0007797791622579098,0.0006712193717248738,0.0005202718893997371,0.0004147116851527244,0.00038442458026111126,0.00038878683699294925,0.0003995997831225395,0.0004022648499812931,0.0003985837975051254,0.00038531969767063856
INT-20230206_0000008|UNK-00043-10168,INT-20230206_0000008,2023-02-06T01:17:36.000000Z,37.042,37.166,17.9,7.83,41.56393847190536,80.96893034637156,-1.0,37.334600782057684,1.6088008578412403,38.354447044592916,53.473660075578735,172.5333243829858,173.45938436027208,111.48322606884228,114.33938602641712,132.42307413827618,0.0,0.0,132.42307413827618,280.1182621178476,00043-10168,38.989199999999634,37.171200000000006,UNK,00043-10168,UNK-00043-10168,,358.36,0.0,False,0.01933194,CENOZOIC,150.0,0,404.24854,1.4340755,0.009071809106432429,5.525437071306834,0.009071528911590576,0.009071898646652699,0.009072087705135345,0.009072468616068363,0.009072935208678246,0.009073060937225819,0.009073324501514435,0.00907374918460846,0.009073899127542973,0.009074535220861435,0.009074877947568893,0.00907523650676012,0.009075422771275043,0.00907561182975769,0.009076004847884178,0.009076413698494434,0.009077510796487331,0.00907871499657631,0.009080030955374241,0.009080588817596436,0.009081459604203701,0.009083005599677563,0.00908467173576355,0.00908646173775196,0.009088381193578243,0.009090431034564972,0.009092612192034721,0.009099369868636131,0.009108636528253555,0.009125334210693836,0.009126962162554264,0.009125560522079468,0.00911826640367508,0.009143354371190071,0.009157939814031124,0.009171390905976295,0.009200459346175194,0.009234899654984474,0.009281118400394917,0.010108652524650097,0.010210797190666199,0.009727945551276207,0.009505340829491615,0.009369932115077972,0.009411394596099854,0.00964435376226902,0.010139449499547482,0.010339997708797455,0.010442516766488552,0.010902040638029575,0.011076840572059155,0.011064584366977215,0.011107034981250763,0.011013302020728588,0.010832026600837708,0.010886838659644127,0.011416488327085972,0.011379878036677837,0.011042346246540546,0.012198020704090595,0.012528200633823872,0.012712010182440281,0.013887102715671062,0.016407381743192673,0.018670961260795593,0.021552100777626038,0.023817801848053932,0.024794241413474083,0.022399211302399635,0.022539058700203896,0.020905857905745506,0.023782946169376373,0.024219132959842682,0.026681775227189064,0.022492902353405952,0.020914001390337944,0.018771803006529808,0.017177872359752655,0.01617204211652279,0.020731555297970772,0.0196653101593256,0.01795402355492115,0.015322805382311344,0.015698116272687912,0.01807788759469986,0.01883433200418949,0.018688570708036423,0.01921503059566021,0.019939186051487923,0.019504105672240257,0.018652673810720444,0.019527357071638107,0.015194754116237164,0.012374836951494217,0.012217508628964424,0.01208940427750349,0.011536253616213799,0.013687546364963055,0.012589040212333202,0.010999747551977634,0.010820900090038776,0.011112225241959095,0.010911489836871624,0.009049875661730766,0.007651324849575758
