gmid,event_id,event_time,event_longitude,event_latitude,event_depth,magnitude,strike,dip,rake,rupture_width,depth_top_of_rupture,depth_bottom_of_rupture,azimuth,repi,rhypo,rjb,rrup,rx,ry0,rvolc,gc2t,gc2u,receiver,station_longitude,station_latitude,network,station_code,station_id,station_elevation,vs30,fpeak,vs30measured,slope,geology,xvf,region,z1,z2pt5,PGA,PGV,SA(0.010),SA(0.020),SA(0.022),SA(0.025),SA(0.029),SA(0.030),SA(0.032),SA(0.035),SA(0.036),SA(0.040),SA(0.042),SA(0.044),SA(0.045),SA(0.046),SA(0.048),SA(0.050),SA(0.055),SA(0.060),SA(0.065),SA(0.067),SA(0.070),SA(0.075),SA(0.080),SA(0.085),SA(0.090),SA(0.095),SA(0.100),SA(0.110),SA(0.120),SA(0.130),SA(0.133),SA(0.140),SA(0.150),SA(0.160),SA(0.170),SA(0.180),SA(0.190),SA(0.200),SA(0.220),SA(0.240),SA(0.250),SA(0.260),SA(0.280),SA(0.290),SA(0.300),SA(0.320),SA(0.340),SA(0.350),SA(0.360),SA(0.380),SA(0.400),SA(0.420),SA(0.440),SA(0.450),SA(0.460),SA(0.480),SA(0.500),SA(0.550),SA(0.600),SA(0.650),SA(0.667),SA(0.700),SA(0.750),SA(0.800),SA(0.850),SA(0.900),SA(0.950),SA(1.000),SA(1.100),SA(1.200),SA(1.300),SA(1.400),SA(1.500),SA(1.600),SA(1.700),SA(1.800),SA(1.900),SA(2.000),SA(2.200),SA(2.400),SA(2.500),SA(2.600),SA(2.800),SA(3.000),SA(3.200),SA(3.400),SA(3.500),SA(3.600),SA(3.800),SA(4.000),SA(4.200),SA(4.400),SA(4.600),SA(4.800),SA(5.000),SA(5.500),SA(6.000),SA(6.500),SA(7.000),SA(7.500),SA(8.000),SA(8.500),SA(9.000),SA(9.500),SA(10.000)
INT-20230206_0000008|UNK-00044-12167,INT-20230206_0000008,2023-02-06T01:17:36.000000Z,37.042,37.166,17.9,7.83,41.56393847190536,80.96893034637156,-1.0,37.334600782057684,1.6088008578412403,38.354447044592916,19.79301166388275,128.3680838878169,129.61008819158175,17.423832961481132,20.745959041657546,24.26231383076338,0.0,0.0,24.26231383076338,281.97701949018233,00044-12167,38.249099999999785,37.810499999999955,UNK,00044-12167,UNK-00044-12167,,553.006,0.0,False,0.061905697,PLEISTOCENE,150.0,2,169.2947,0.87303317,0.0320716416278943,21.11647566074626,0.03206126391887665,0.03207261115312576,0.03209849074482918,0.03209512308239937,0.03210483491420746,0.03210699185729027,0.03211185708642006,0.03212032839655876,0.03212342411279678,0.03213702142238617,0.03214450925588608,0.0321524403989315,0.0321565717458725,0.03216081112623215,0.03216961771249771,0.032179564237594604,0.03221198916435242,0.032248254865407944,0.03228868916630745,0.03230614215135574,0.03233407810330391,0.032385505735874176,0.03244418650865555,0.03250434622168541,0.032595083117485046,0.03273552656173706,0.032792072743177414,0.03265207260847092,0.03291746601462364,0.033438652753829956,0.03352903947234154,0.03369070217013359,0.03349455073475838,0.033204447478055954,0.033963240683078766,0.034698236733675,0.03514264523983002,0.0353974848985672,0.035454161465168,0.03797031193971634,0.039671946316957474,0.04108047857880592,0.042883019894361496,0.04348574951291084,0.044144995510578156,0.04547319933772087,0.04462350159883499,0.043575141578912735,0.042610470205545425,0.042906805872917175,0.04864409938454628,0.051601435989141464,0.05568128824234009,0.057422250509262085,0.05896621197462082,0.0626625120639801,0.06541015952825546,0.06627052277326584,0.06044447049498558,0.06386174261569977,0.06867609918117523,0.06975308060646057,0.06749279052019119,0.06813081353902817,0.07156705111265182,0.0766853466629982,0.07911310344934464,0.07075705379247665,0.06688105314970016,0.07329533994197845,0.06364515423774719,0.07394613325595856,0.07832146435976028,0.059918325394392014,0.058153122663497925,0.047855474054813385,0.04811888933181763,0.04932199418544769,0.04837179183959961,0.0479104109108448,0.045859843492507935,0.04010292887687683,0.04045359417796135,0.04239552095532417,0.0513286292552948,0.05198417231440544,0.04945104941725731,0.04787817969918251,0.04189715161919594,0.03650764375925064,0.032370276749134064,0.03032660484313965,0.029383450746536255,0.028547553345561028,0.027672117576003075,0.02618659846484661,0.023715611547231674,0.020080560818314552,0.01810852438211441,0.01791817881166935,0.018450740724802017,0.018580250442028046,0.01857120729982853,0.017982227727770805,0.01849074475467205
INT-20230206_0000008|UNK-00045-01054,INT-20230206_0000008,2023-02-06T01:17:36.000000Z,37.042,37.166,17.9,7.83,41.56393847190536,80.96893034637156,-1.0,37.334600782057684,1.6088008578412403,38.354447044592916,236.70700236907788,417.8643333518951,418.2475476169869,377.47316171786105,377.3727181602059,-329.20645312668535,39.5322736009646,0.0,-329.20645312668535,-39.5322736009646,00045-01054,32.36799999999955,37.76849999999995,UNK,00045-01054,UNK-00045-01054,,468.9198,0.0,False,0.046218976,CRETACEOUS,-123.9874844092542,4,267.65958,1.0543306,0.0014899895387866075,0.9160102947956562,0.001489829970523715,0.0014612646773457527,0.001562611199915409,0.001503227511420846,0.001480886247009039,0.0014780331403017044,0.0014737647725269198,0.0014695930294692516,0.0014685795176774263,0.0014657069696113467,0.0014646602794528008,0.0014638067223131657,0.0014634376857429743,0.0014631010126322508,0.0014625111361965537,0.0014620132278651,0.0014610652578994632,0.0014604112366214395,0.0014599509304389358,0.001459806808270514,0.0014596248511224985,0.001459395745769143,0.0014592396328225732,0.0014591396320611238,0.001459084334783256,0.0014590653590857983,0.0014590765349566936,0.0014591723447665572,0.0014593462692573667,0.0014595830580219626,0.0014596647815778852,0.0014598729321733117,0.001460209139622748,0.0014605873730033636,0.0014610046055167913,0.0014614586252719164,0.0014619478024542332,0.0014624710893258452,0.0014636169653385878,0.0014648922951892018,0.0014655782142654061,0.001466296031139791,0.0014678280567750335,0.0014686427311971784,0.0014694902347400784,0.0014712895499542356,0.0014732407871633768,0.001474258373491466,0.0014753015711903572,0.0014774460578337312,0.0014794996241107583,0.0014824975514784455,0.001486720982939005,0.0014880346134305,0.0014894300838932395,0.001493327785283327,0.0014968382893130183,0.0015105035854503512,0.001516948570497334,0.0015287246787920594,0.0015350255416706204,0.0015471229562535882,0.0015622935025021434,0.00156792055349797,0.001671050675213337,0.0017444443656131625,0.001813138136640191,0.0018340771785005927,0.0019319005077704787,0.0017425882397219539,0.001884211553260684,0.002067442052066326,0.0022526767570525408,0.002321269828826189,0.0024087633937597275,0.0027084413450211287,0.0030375889036804438,0.0033310509752482176,0.004114581272006035,0.004118850454688072,0.004089619964361191,0.004093653988093138,0.003871355438604951,0.003958431538194418,0.003727270755916834,0.0032665343023836613,0.003044270211830735,0.002805201103910804,0.0023028540890663862,0.0018127954099327326,0.0014929589815437794,0.0015302695101127028,0.0016802205936983228,0.0017139570554718375,0.001584789715707302,0.0010882025817409158,0.0010042607318609953,0.001049657235853374,0.0009295252966694534,0.0007914698217064142,0.0006779210525564849,0.0005705071962438524,0.00046907796058803797,0.0004437806492205709,0.00043806471512652934
INT-20230206_0000008|UNK-00046-07357,INT-20230206_0000008,2023-02-06T01:17:36.000000Z,37.042,37.166,17.9,7.83,41.56393847190536,80.96893034637156,-1.0,37.334600782057684,1.6088008578412403,38.354447044592916,218.08241273133547,200.28564955048347,201.08394121823625,144.64725400733846,144.6348298044432,-123.53578591712171,0.0,0.0,-123.53578591712171,22.933489907831945,00046-07357,34.7993000000005,36.9614,UNK,00046-07357,UNK-00046-07357,,562.2132,0.0,False,0.0322852,CENOZOIC,-21.61881130833307,4,160.03816,0.856696,0.011792138279962719,6.759709794524522,0.011791822500526905,0.011790976859629154,0.011795630678534508,0.01179263461381197,0.01179173681885004,0.011791672557592392,0.011791683733463287,0.011791990138590336,0.011792097240686417,0.01179254800081253,0.011792789213359356,0.011793041601777077,0.011793170124292374,0.011793303303420544,0.01179357711225748,0.011793862096965313,0.011794622987508774,0.01179545558989048,0.011796358041465282,0.011796739883720875,0.01179733220487833,0.011798377148807049,0.011799492873251438,0.011800751090049744,0.01180213876068592,0.01180360745638609,0.0118051553145051,0.011808483861386776,0.011812112294137478,0.011817296035587788,0.011819340288639069,0.011823436245322227,0.011824936605989933,0.011828401125967503,0.011830108240246773,0.01183745451271534,0.011842455714941025,0.01185200922191143,0.011862816289067268,0.01187731884419918,0.011879649013280869,0.011881096288561821,0.011896113865077496,0.011928582563996315,0.011955647729337215,0.01195627823472023,0.01201588660478592,0.012061442248523235,0.012105073779821396,0.012129181995987892,0.012395055964589119,0.012740074656903744,0.012968051247298717,0.013004220090806484,0.013024350628256798,0.013050341978669167,0.013142464682459831,0.014417321421205997,0.016873173415660858,0.01705823466181755,0.01648671366274357,0.015415085479617119,0.014335823245346546,0.018011342734098434,0.01844136044383049,0.018359482288360596,0.021103164181113243,0.021924717351794243,0.025539454072713852,0.026546305045485497,0.022784076631069183,0.023344846442341805,0.027640366926789284,0.02417818084359169,0.0234814640134573,0.022876473143696785,0.026089394465088844,0.030290799215435982,0.029431495815515518,0.022619646042585373,0.02210615947842598,0.02490934543311596,0.032783620059490204,0.040451038628816605,0.04329673573374748,0.04026653245091438,0.04104054719209671,0.043153755366802216,0.046820636838674545,0.043559346348047256,0.03564935922622681,0.029077932238578796,0.025165090337395668,0.02214960940182209,0.019968407228589058,0.01786274090409279,0.01950306072831154,0.01990381069481373,0.01655763015151024,0.01546072494238615,0.01388064119964838,0.01240493729710579,0.01108995545655489,0.009800790809094906,0.009394735097885132
INT-20230206_0000008|TK-99003,INT-20230206_0000008,2023-02-06T01:17:36.000000Z,37.042,37.166,17.9,7.83,41.56393847190536,80.96893034637156,-1.0,37.334600782057684,1.6088008578412403,38.354447044592916,197.46094478869878,418.8795821128828,419.26186842004046,291.5091288491818,291.482410381721,-140.68737164056475,219.186841684804,0.0,-140.68737164056475,-219.186841684804,00047-01218,33.021199999999794,35.250400000000226,TK,99003,TK-99003,132.0,323.72693,0.0,False,0.0025593175,PLEISTOCENE,101.83450677114384,2,438.81705,1.6109012,0.002119168640965433,2.6784796178001877,0.0021190415136516094,0.0021220105700194836,0.002136237220838666,0.0021217952016741037,0.0021186971571296453,0.002118369098752737,0.002117911819368601,0.00211751158349216,0.002117424737662077,0.0021173551212996244,0.0021173651330173016,0.002117391210049391,0.0021174089051783085,0.0021174296271055937,0.002117478521540761,0.0021175367292016745,0.002117714611813426,0.0021179313771426678,0.002118180738762021,0.0021182887721806765,0.002118459204211831,0.0021187644451856613,0.0021190957631915808,0.0021194517612457275,0.002119832206517458,0.002120236400514841,0.0021206641104072332,0.002121590543538332,0.0021226098760962486,0.002123722806572914,0.0021240748465061188,0.002124929567798972,0.0021262308582663536,0.0021276273764669895,0.002129120286554098,0.002130711218342185,0.002132401103153825,0.0021341913379728794,0.00213808030821383,0.0021423932630568743,0.0021447145845741034,0.002147148596122861,0.0021523742470890284,0.0021551745012402534,0.002158096758648753,0.0021643589716404676,0.0021711846347898245,0.0021748573053628206,0.0021786962170153856,0.002186938188970089,0.002195127075538039,0.0022049143444746733,0.002217488829046488,0.0022254218347370625,0.0022330039646476507,0.002246490679681301,0.002260142005980015,0.002305777743458748,0.002356259385123849,0.0024861230049282312,0.0025087918620556593,0.0025301524437963963,0.0025291438214480877,0.0027522011660039425,0.0026354328729212284,0.002637546043843031,0.0028318732511252165,0.0029549510218203068,0.0034989078994840384,0.003636430948972702,0.003397134132683277,0.003003213554620743,0.0026405483949929476,0.0023019607178866863,0.0027208514511585236,0.003134075552225113,0.00340854749083519,0.003559158882126212,0.0034713621716946363,0.0034607413690537214,0.003161701373755932,0.002789098070934415,0.002374405972659588,0.00262642209418118,0.0026006808038800955,0.0023129312321543694,0.001991698984056711,0.0016902487259358168,0.0015705673722550273,0.0018998865270987153,0.002102958271279931,0.0021341771353036165,0.00205922476015985,0.0018656306201592088,0.001578907249495387,0.001155364909209311,0.0013127414276823401,0.0013584295520558953,0.0013203633716329932,0.0013139835791662335,0.0012719808146357536,0.0011578262783586979,0.001005672849714756,0.0008579449495300651,0.000737674068659544
INT-20230206_0000008|UNK-00048-06167,INT-20230206_0000008,2023-02-06T01:17:36.000000Z,37.042,37.166,17.9,7.83,41.56393847190536,80.96893034637156,-1.0,37.334600782057684,1.6088008578412403,38.354447044592916,320.0099756213816,129.0437217638337,130.2792851018984,77.83453333237341,77.8483707436091,-64.28159810880594,0.0,0.0,-64.28159810880594,238.98761701285545,00048-06167,37.132699999999986,38.32429999999974,UNK,00048-06167,UNK-00048-06167,,599.8697,0.0,False,0.08623908,CRETACEOUS,55.452014081026995,4,125.94142,0.79545665,0.028095038173219976,15.965645138706126,0.028080467134714127,0.028094111010432243,0.028093749657273293,0.028113139793276787,0.02813001163303852,0.028132863342761993,0.028138717636466026,0.028148841112852097,0.0281523484736681,0.028168287128210068,0.028176965191960335,0.02818622812628746,0.0281909741461277,0.02819572575390339,0.028205450624227524,0.02821558713912964,0.028242919594049454,0.02827288582921028,0.02830541878938675,0.028319261968135834,0.0283409021794796,0.02837935835123062,0.028420640155673027,0.028465263545513153,0.02851300686597824,0.028563980013132095,0.028618548065423965,0.028739742934703827,0.028902599588036537,0.02907433919608593,0.0291257556527853,0.029241250827908516,0.02945222333073616,0.02965235896408558,0.029875580221414566,0.030197711661458015,0.030582701787352562,0.03098512999713421,0.03210306540131569,0.03327573835849762,0.03503233566880226,0.035865992307662964,0.037839483469724655,0.04016906023025513,0.042525265365839005,0.041954249143600464,0.04255010932683945,0.04540352523326874,0.045981068164110184,0.04548458382487297,0.046285469084978104,0.044616565108299255,0.05127498507499695,0.05510172247886658,0.056944578886032104,0.062447644770145416,0.06930363178253174,0.09131409227848053,0.09542112052440643,0.09201271086931229,0.08706530928611755,0.07365338504314423,0.06792134791612625,0.06925767660140991,0.05801117792725563,0.04729672521352768,0.04444658011198044,0.05162001773715019,0.05615238845348358,0.05496927350759506,0.04681309685111046,0.0478011779487133,0.05116690322756767,0.053721532225608826,0.057263728231191635,0.055056896060705185,0.04895468428730965,0.04191124066710472,0.039581507444381714,0.038723815232515335,0.03586626797914505,0.03265221044421196,0.030437633395195007,0.029179023578763008,0.0333162322640419,0.03659830614924431,0.03514382615685463,0.032246120274066925,0.030193446204066277,0.03167760372161865,0.03540530800819397,0.03951704129576683,0.042772289365530014,0.044476620852947235,0.044228147715330124,0.039003629237413406,0.03490159288048744,0.031443800777196884,0.02830345742404461,0.025326186791062355,0.022231262177228928,0.0211555864661932,0.02003265544772148,0.018783504143357277,0.017475226894021034
INT-20230206_0000008|UNK-00049-01061,INT-20230206_0000008,2023-02-06T01:17:36.000000Z,37.042,37.166,17.9,7.83,41.56393847190536,80.96893034637156,-1.0,37.334600782057684,1.6088008578412403,38.354447044592916,218.24385739864903,371.8592942753195,372.28986655419277,290.4111786327446,290.38458244945366,-229.32141850132734,103.2249744825229,0.0,-229.32141850132734,-103.2249744825229,00049-01061,32.91129999999994,36.64139999999995,UNK,00049-01061,UNK-00049-01061,,819.9129,0.0,False,0.25821725,CENOZOIC,-48.051014189855714,4,26.985245,0.5563694,0.00374140833267079,3.54286541530648,0.003741231979802251,0.003742620348930359,0.0037490578833967447,0.0037444811314344406,0.0037431635428220034,0.0037430182565003633,0.003742821281775832,0.003742668777704239,0.0037426427006721497,0.003742615459486842,0.0037426352500915527,0.0037426715716719627,0.0037426946219056845,0.003742721164599061,0.0037427821662276983,0.0037428534124046564,0.003743068315088749,0.0037433283869177103,0.003743627807125449,0.0037437574937939644,0.0037439626175910234,0.0037443304900079966,0.0037447302602231503,0.0037451607640832663,0.003745621768757701,0.0037461123429238796,0.0037466322537511587,0.003747759386897087,0.003749002004042268,0.00375035940669477,0.003750789212062955,0.0037518320605158806,0.0037534197326749563,0.003755122423171997,0.0037569410633295774,0.0037588756531476974,0.0037609273567795753,0.003763096407055855,0.003767790272831917,0.003772963536903262,0.0037757318932563066,0.0037786229513585567,0.0037848122883588076,0.0037881440948694944,0.003791603958234191,0.003798920661211014,0.003806691849604249,0.0038107128348201513,0.0038148437160998583,0.00382364634424448,0.0038339050952345133,0.0038447075057774782,0.003855072194710374,0.0038597609382122755,0.003864626633003354,0.0038754036650061607,0.0038903681561350822,0.003934620879590511,0.0039800056256353855,0.0040022931061685085,0.004008987452834845,0.004057231359183788,0.004549047909677029,0.004848791286349297,0.005212887190282345,0.005520888604223728,0.0057021924294531345,0.005859609693288803,0.0063369725830852985,0.0067451284267008305,0.006606674287468195,0.006610403303056955,0.00657609011977911,0.006707561202347279,0.0070757134817540646,0.007416201289743185,0.0077131628058850765,0.009032866917550564,0.011447606608271599,0.013599957339465618,0.014149032533168793,0.013924711383879185,0.012538738548755646,0.010033580474555492,0.007597564719617367,0.006015323102474213,0.00636776490136981,0.006660782266408205,0.006503005977720022,0.005653457250446081,0.004709811415523291,0.004261826165020466,0.0042641847394406796,0.004501323215663433,0.004779770504683256,0.005191852804273367,0.0046986849047243595,0.003799101337790489,0.002883676439523697,0.0025442959740757942,0.0023962357081472874,0.00252285017631948,0.0028619945514947176,0.003060335526242852,0.003155548358336091
