gmid,event_id,event_time,event_longitude,event_latitude,event_depth,magnitude,strike,dip,rake,rupture_width,depth_top_of_rupture,depth_bottom_of_rupture,azimuth,repi,rhypo,rjb,rrup,rx,ry0,rvolc,gc2t,gc2u,receiver,station_longitude,station_latitude,network,station_code,station_id,station_elevation,vs30,fpeak,vs30measured,slope,geology,xvf,region,z1,z2pt5,PGA,PGV,SA(0.010),SA(0.020),SA(0.022),SA(0.025),SA(0.029),SA(0.030),SA(0.032),SA(0.035),SA(0.036),SA(0.040),SA(0.042),SA(0.044),SA(0.045),SA(0.046),SA(0.048),SA(0.050),SA(0.055),SA(0.060),SA(0.065),SA(0.067),SA(0.070),SA(0.075),SA(0.080),SA(0.085),SA(0.090),SA(0.095),SA(0.100),SA(0.110),SA(0.120),SA(0.130),SA(0.133),SA(0.140),SA(0.150),SA(0.160),SA(0.170),SA(0.180),SA(0.190),SA(0.200),SA(0.220),SA(0.240),SA(0.250),SA(0.260),SA(0.280),SA(0.290),SA(0.300),SA(0.320),SA(0.340),SA(0.350),SA(0.360),SA(0.380),SA(0.400),SA(0.420),SA(0.440),SA(0.450),SA(0.460),SA(0.480),SA(0.500),SA(0.550),SA(0.600),SA(0.650),SA(0.667),SA(0.700),SA(0.750),SA(0.800),SA(0.850),SA(0.900),SA(0.950),SA(1.000),SA(1.100),SA(1.200),SA(1.300),SA(1.400),SA(1.500),SA(1.600),SA(1.700),SA(1.800),SA(1.900),SA(2.000),SA(2.200),SA(2.400),SA(2.500),SA(2.600),SA(2.800),SA(3.000),SA(3.200),SA(3.400),SA(3.500),SA(3.600),SA(3.800),SA(4.000),SA(4.200),SA(4.400),SA(4.600),SA(4.800),SA(5.000),SA(5.500),SA(6.000),SA(6.500),SA(7.000),SA(7.500),SA(8.000),SA(8.500),SA(9.000),SA(9.500),SA(10.000)
INT-20230206_0000008|UNK-00007-00793,INT-20230206_0000008,2023-02-06T01:17:36.000000Z,37.042,37.166,17.9,7.83,41.56393847190536,80.96893034637156,-1.0,37.334600782057684,1.6088008578412403,38.354447044592916,282.6942764922797,229.52511925626857,230.22204579406446,200.40061936685487,200.38371991789998,-188.1394247973418,0.0,0.0,-188.1394247973418,206.67529985041188,00007-00793,35.625000000000256,38.9024999999998,UNK,00007-00793,UNK-00007-00793,,572.11365,0.0,False,0.08155217,PLEISTOCENE,-88.61710435593389,4,150.48323,0.8397575,0.0027778469341353932,3.503229435225765,0.0027777357026934624,0.0027780327945947647,0.0027787426952272654,0.0027783315163105726,0.0027784372214227915,0.0027784716803580523,0.0027785473503172398,0.0027786775026470423,0.002778724767267704,0.0027789303567260504,0.002779043046757579,0.002779161324724555,0.0027792227920144796,0.00277928588911891,0.0027794160414487123,0.0027795524802058935,0.0027799182571470737,0.0027803198900073767,0.0027807573787868023,0.0027809427119791508,0.002781231189146638,0.0027817413210868835,0.002782288007438183,0.0027828726451843977,0.0027834950014948845,0.002784156706184149,0.002784858690574765,0.0027863853611052036,0.002788155572488904,0.002790636382997036,0.0027914538513869047,0.002793658757582307,0.002793248975649476,0.0027925882022827864,0.00279394444078207,0.0028002827893942595,0.002801547758281231,0.0027956501580774784,0.0028108851984143257,0.002795830834656954,0.0027980683371424675,0.00280153495259583,0.0028115177992731333,0.0028340404387563467,0.002847168128937483,0.0028488291427493095,0.0028706167358905077,0.002872407902032137,0.002862113993614912,0.0028503756038844585,0.0028077131137251854,0.0028169823344796896,0.0027754802722483873,0.002826839219778776,0.0029280870221555233,0.0030832591000944376,0.003223962849006057,0.0034621383529156446,0.003546452848240733,0.003134216647595167,0.003029170911759138,0.003470391733571887,0.0038602857384830713,0.0037988608237355947,0.003426741575822234,0.0036663266364485025,0.0037929576355963945,0.004130926448851824,0.0039785271510481834,0.0037955273874104023,0.0037810334470123053,0.004794081673026085,0.005190675146877766,0.005102633498609066,0.0050596753135323524,0.004827225115150213,0.004492583218961954,0.004560351837426424,0.004927669186145067,0.005828898400068283,0.005835798569023609,0.005226916633546352,0.005174038000404835,0.004820362664759159,0.004846864379942417,0.006342125590890646,0.0067739179357886314,0.00724978419020772,0.0073171802796423435,0.005951517727226019,0.0047487965784966946,0.004947365261614323,0.005164141301065683,0.005234042648226023,0.005433117039501667,0.0061653912998735905,0.0072008175775408745,0.006626146379858255,0.005662950687110424,0.0053338115103542805,0.0051145427860319614,0.004818822722882032,0.004489184357225895,0.004162528086453676,0.004054351709783077
INT-20230206_0000008|UNK-00008-04608,INT-20230206_0000008,2023-02-06T01:17:36.000000Z,37.042,37.166,17.9,7.83,41.56393847190536,80.96893034637156,-1.0,37.334600782057684,1.6088008578412403,38.354447044592916,294.51857621209484,39.2980116016654,43.182678423699336,6.982008011789623,7.164928626653215,-8.016513692668637,0.0,0.0,-8.016513692668637,173.0082495946515,00008-04608,36.986999999999995,37.516700000000014,UNK,00008-04608,UNK-00008-04608,,383.2519,0.0,False,0.021071158,UNKNOWN,97.47393031456339,2,375.9814,1.3280288,0.055675284748005226,33.501929826684616,0.055646952241659164,0.055668894201517105,0.05567638576030731,0.05570187419652939,0.055736370384693146,0.05574537813663483,0.05576416477560997,0.055794425308704376,0.05580510199069977,0.05585090070962906,0.05587572231888771,0.055901866406202316,0.05591544508934021,0.055929362773895264,0.05595824494957924,0.05598855018615723,0.05607075244188309,0.056162603199481964,0.05620186775922775,0.05621939152479172,0.05624857917428017,0.056397467851638794,0.05661993473768234,0.056951165199279785,0.057281769812107086,0.05761342495679855,0.057952962815761566,0.05879206210374832,0.059636231511831284,0.06009716913104057,0.06036289036273956,0.06154190003871918,0.06356022506952286,0.06464618444442749,0.06613977253437042,0.069532111287117,0.07356983423233032,0.07736298441886902,0.0879053920507431,0.11207447201013565,0.12295523285865784,0.13363441824913025,0.1462404727935791,0.14815601706504822,0.14730985462665558,0.14390158653259277,0.14058762788772583,0.13713261485099792,0.13360758125782013,0.12474461644887924,0.11395525187253952,0.10340582579374313,0.09616340696811676,0.09145265817642212,0.08504842966794968,0.07246667146682739,0.06743118911981583,0.07237963378429413,0.07303238660097122,0.06989925354719162,0.06963245570659637,0.06952017545700073,0.07508827745914459,0.08551392704248428,0.10567621886730194,0.11198845505714417,0.11460526287555695,0.12345446646213531,0.12058394402265549,0.08816143870353699,0.11898136883974075,0.13969123363494873,0.1251780390739441,0.10000535845756531,0.10125865787267685,0.11696074903011322,0.11902327835559845,0.11659278720617294,0.11573581397533417,0.09250058978796005,0.07732760906219482,0.06721808761358261,0.06975746899843216,0.08274508267641068,0.09256742149591446,0.09495054930448532,0.09413062036037445,0.09239298850297928,0.08686600625514984,0.08007948100566864,0.07383853197097778,0.068899966776371,0.06498108059167862,0.060649190098047256,0.055382151156663895,0.04378547519445419,0.03481050208210945,0.03222205862402916,0.030434543266892433,0.033021312206983566,0.032810404896736145,0.0312315933406353,0.029227038845419884,0.02693416364490986,0.02449766732752323
INT-20230206_0000008|UNK-00009-00190,INT-20230206_0000008,2023-02-06T01:17:36.000000Z,37.042,37.166,17.9,7.83,41.56393847190536,80.96893034637156,-1.0,37.334600782057684,1.6088008578412403,38.354447044592916,326.5747315105092,241.9612312877249,242.62243805194916,158.33843810440592,158.32224392461103,-125.19166727729247,0.0,0.0,-125.19166727729247,330.11772652123756,00009-00190,37.46670000000006,39.316300000000304,UNK,00009-00190,UNK-00009-00190,,343.4992,0.0,False,0.011801151,CENOZOIC,150.0,4,419.82574,1.5052707,0.009937283397083734,5.411390754799797,0.009935629554092884,0.009937155991792679,0.00993773341178894,0.009938918985426426,0.009940479882061481,0.00994090735912323,0.009941761381924152,0.00994318537414074,0.009943705052137375,0.009945858269929886,0.009946996346116066,0.00994821172207594,0.00994885340332985,0.009949504397809505,0.009950817562639713,0.009952173568308353,0.00995582528412342,0.009959873743355274,0.00996430404484272,0.009966173209249973,0.009969091042876244,0.009974239394068718,0.009979751892387867,0.009985671378672123,0.009991992264986038,0.00999869592487812,0.010005783289670944,0.010021128691732883,0.010038312524557114,0.010057136416435242,0.01006331667304039,0.010078460909426212,0.010104670189321041,0.010135517455637455,0.010155207477509975,0.01018237043172121,0.010214620269834995,0.010245413519442081,0.010319916531443596,0.01040878240019083,0.010448521003127098,0.010496801696717739,0.010688976384699345,0.010833763517439365,0.011025534011423588,0.011366697028279305,0.01150711439549923,0.011295842006802559,0.011317859403789043,0.010985463857650757,0.011063509620726109,0.012041382491588593,0.012633970938622952,0.013005660846829414,0.013368870131671429,0.013812464661896229,0.013924186117947102,0.014037653803825378,0.01604102924466133,0.01747337356209755,0.018340591341257095,0.02015489712357521,0.020880471915006638,0.019206002354621887,0.017236411571502686,0.015836425125598907,0.01370721310377121,0.013128479942679405,0.013899821788072586,0.01625720039010048,0.0162099227309227,0.018535949289798737,0.02319100685417652,0.02639121375977993,0.029155157506465912,0.027951853349804878,0.026250101625919342,0.021269502118229866,0.02333769015967846,0.025431403890252113,0.025637436658143997,0.025448456406593323,0.024211104959249496,0.022065071389079094,0.021159963682293892,0.017483949661254883,0.015983806923031807,0.015390532091259956,0.01612468995153904,0.016123907640576363,0.018323464319109917,0.021910909563302994,0.02267763577401638,0.022145571187138557,0.020977938547730446,0.019111337140202522,0.019953038543462753,0.01882331073284149,0.01707649976015091,0.015602187253534794,0.013542951084673405,0.012601499445736408,0.011528314091265202,0.010139216668903828,0.010073036886751652
INT-20230206_0000008|TU-YAYL,INT-20230206_0000008,2023-02-06T01:17:36.000000Z,37.042,37.166,17.9,7.83,41.56393847190536,80.96893034637156,-1.0,37.334600782057684,1.6088008578412403,38.354447044592916,170.46101566838558,151.00179061493594,152.05903711689402,4.132554253780467,6.271305971864115,6.096575869401806,3.6857596057258384,0.0,6.096575869401806,-3.6857596057258384,00010-04462,36.10699999999995,36.03429999999978,TU,YAYL,TU-YAYL,1225.0,1011.0,0.0,True,0.20258185,CENOZOIC,133.65069952300752,2,7.40224,0.4378023,0.09121579189585177,42.39117984462018,0.09120608866214752,0.0912180095911026,0.09122300893068314,0.09122887998819351,0.09124027192592621,0.09124323725700378,0.09124938398599625,0.0912591814994812,0.09126260876655579,0.09127713739871979,0.09128490835428238,0.09129300713539124,0.0912971943616867,0.09130145609378815,0.09131023287773132,0.09131935238838196,0.09134359657764435,0.09136992692947388,0.09139826893806458,0.09141016006469727,0.09142858535051346,0.09146081656217575,0.09149491041898727,0.09153076261281967,0.09156832844018936,0.0916074737906456,0.09164829552173615,0.09173271059989929,0.09182195365428925,0.09190971404314041,0.09193781763315201,0.09200537949800491,0.09209118783473969,0.09215937554836273,0.09223394840955734,0.0923285111784935,0.09253223240375519,0.09303740411996841,0.09394311159849167,0.09601417183876038,0.09703068435192108,0.0981396734714508,0.09866929054260254,0.10111451894044876,0.10322925448417664,0.10556288063526154,0.10700482875108719,0.1062241867184639,0.10644301027059555,0.10676456242799759,0.10907454043626785,0.11885843425989151,0.13640230894088745,0.14032405614852905,0.14145591855049133,0.13976381719112396,0.14717775583267212,0.1601603478193283,0.1428251564502716,0.12680190801620483,0.11870528012514114,0.10856125503778458,0.10692623257637024,0.10717852413654327,0.10462836176156998,0.10201894491910934,0.10901906341314316,0.11446521431207657,0.11955424398183823,0.11271655559539795,0.12278123944997787,0.12389208376407623,0.12001187354326248,0.13994012773036957,0.15776340663433075,0.16852274537086487,0.1841188371181488,0.18420863151550293,0.18285851180553436,0.21282505989074707,0.22780758142471313,0.23564672470092773,0.2354578822851181,0.2670142650604248,0.2759292423725128,0.26036983728408813,0.2503734230995178,0.24319106340408325,0.23110565543174744,0.2149602621793747,0.19448786973953247,0.1706285923719406,0.14486026763916016,0.12336249649524689,0.10658957809209824,0.07279857248067856,0.04835066571831703,0.03846995159983635,0.03215579688549042,0.028509195894002914,0.02884744666516781,0.0293094702064991,0.029071344062685966,0.0279235877096653,0.026197295635938644
INT-20230206_0000008|TU-YAYL,INT-20230206_0000008,2023-02-06T01:17:36.000000Z,37.042,37.166,17.9,7.83,41.56393847190536,80.96893034637156,-1.0,37.334600782057684,1.6088008578412403,38.354447044592916,170.46101566838558,151.00179061493594,152.05903711689402,4.132554253780467,6.271305971864115,6.096575869401806,3.6857596057258384,0.0,6.096575869401806,-3.6857596057258384,00011-04462,36.10699999999995,36.03429999999978,TU,YAYL,TU-YAYL,1225.0,1011.0,0.0,True,0.20258185,CENOZOIC,133.65069952300752,2,7.40224,0.4378023,0.09121579189585177,42.39117984462018,0.09120608866214752,0.0912180095911026,0.09122300893068314,0.09122887998819351,0.09124027192592621,0.09124323725700378,0.09124938398599625,0.0912591814994812,0.09126260876655579,0.09127713739871979,0.09128490835428238,0.09129300713539124,0.0912971943616867,0.09130145609378815,0.09131023287773132,0.09131935238838196,0.09134359657764435,0.09136992692947388,0.09139826893806458,0.09141016006469727,0.09142858535051346,0.09146081656217575,0.09149491041898727,0.09153076261281967,0.09156832844018936,0.0916074737906456,0.09164829552173615,0.09173271059989929,0.09182195365428925,0.09190971404314041,0.09193781763315201,0.09200537949800491,0.09209118783473969,0.09215937554836273,0.09223394840955734,0.0923285111784935,0.09253223240375519,0.09303740411996841,0.09394311159849167,0.09601417183876038,0.09703068435192108,0.0981396734714508,0.09866929054260254,0.10111451894044876,0.10322925448417664,0.10556288063526154,0.10700482875108719,0.1062241867184639,0.10644301027059555,0.10676456242799759,0.10907454043626785,0.11885843425989151,0.13640230894088745,0.14032405614852905,0.14145591855049133,0.13976381719112396,0.14717775583267212,0.1601603478193283,0.1428251564502716,0.12680190801620483,0.11870528012514114,0.10856125503778458,0.10692623257637024,0.10717852413654327,0.10462836176156998,0.10201894491910934,0.10901906341314316,0.11446521431207657,0.11955424398183823,0.11271655559539795,0.12278123944997787,0.12389208376407623,0.12001187354326248,0.13994012773036957,0.15776340663433075,0.16852274537086487,0.1841188371181488,0.18420863151550293,0.18285851180553436,0.21282505989074707,0.22780758142471313,0.23564672470092773,0.2354578822851181,0.2670142650604248,0.2759292423725128,0.26036983728408813,0.2503734230995178,0.24319106340408325,0.23110565543174744,0.2149602621793747,0.19448786973953247,0.1706285923719406,0.14486026763916016,0.12336249649524689,0.10658957809209824,0.07279857248067856,0.04835066571831703,0.03846995159983635,0.03215579688549042,0.028509195894002914,0.02884744666516781,0.0293094702064991,0.029071344062685966,0.0279235877096653,0.026197295635938644
INT-20230206_0000008|UNK-00012-01060,INT-20230206_0000008,2023-02-06T01:17:36.000000Z,37.042,37.166,17.9,7.83,41.56393847190536,80.96893034637156,-1.0,37.334600782057684,1.6088008578412403,38.354447044592916,227.972494507401,363.33420621562277,363.7748691242108,307.2010161436684,307.1425179251133,-259.86260102096236,53.671078297491356,0.0,-259.86260102096236,-53.671078297491356,00012-01060,32.94039999999982,37.219599999999964,UNK,00012-01060,UNK-00012-01060,,579.4935,0.0,False,0.08399731,CRETACEOUS,-102.3708163315461,4,143.63353,0.8275342,0.002485368039134715,2.493381659171906,0.002485268982127309,0.002476281486451626,0.00250663491897285,0.002489458303898573,0.0024821471888571978,0.0024812149349600077,0.0024798198137432337,0.0024784463457763195,0.0024781106039881706,0.0024771373718976974,0.002476802794262767,0.002476536436006427,0.0024764237459748983,0.0024763226974755526,0.002476150169968605,0.0024760109372437,0.002475772053003311,0.0024756439961493015,0.0024755916092544794,0.0024756425991654396,0.0024757261853665113,0.002475874498486519,0.0024760339874774218,0.0024762044195085764,0.0024763853289186954,0.00247657741419971,0.0024767799768596888,0.0024772172328084707,0.0024776961654424667,0.002478216774761677,0.00247838138602674,0.002478779526427388,0.00247938372194767,0.002480029594153166,0.002480716910213232,0.002481445437297225,0.002482215641066432,0.002483027521520853,0.002484774449840188,0.0024866859894245863,0.0024877311661839485,0.0024888773914426565,0.0024913097731769085,0.0024925891775637865,0.002493910025805235,0.002496660454198718,0.00249957712367177,0.0025012411642819643,0.002503025345504284,0.0025070763658732176,0.0025117050390690565,0.0025169868022203445,0.002518915105611086,0.0025186382699757814,0.002518546301871538,0.0025196608621627092,0.002524961018934846,0.0025367869529873133,0.002544327871873975,0.0025447546504437923,0.002553254133090377,0.0025854120030999184,0.002625706372782588,0.002773567568510771,0.0030755356419831514,0.0032755101565271616,0.003366118995472789,0.0033990631345659494,0.0034607776906341314,0.0035652059596031904,0.004078694619238377,0.0047259945422410965,0.004616297781467438,0.0048888614401221275,0.004375286865979433,0.0044765532948076725,0.00456377025693655,0.004190515261143446,0.0037983746733516455,0.004805611912161112,0.005262029357254505,0.005397584289312363,0.005279237870126963,0.005618548020720482,0.0058523183688521385,0.00560022983700037,0.005590750370174646,0.005311997607350349,0.00447996286675334,0.0037415134720504284,0.003282059682533145,0.0032199500128626823,0.0032091764733195305,0.003495523240417242,0.003829103894531727,0.0047831423580646515,0.004931306932121515,0.004705113358795643,0.00405209232121706,0.0032948011066764593,0.00315519655123353,0.003645528806373477,0.004195467568933964,0.004523361101746559,0.004618427250534296
