gmid,event_id,event_time,event_longitude,event_latitude,event_depth,magnitude,strike,dip,rake,rupture_width,depth_top_of_rupture,depth_bottom_of_rupture,azimuth,repi,rhypo,rjb,rrup,rx,ry0,rvolc,gc2t,gc2u,receiver,station_longitude,station_latitude,network,station_code,station_id,station_elevation,vs30,fpeak,vs30measured,slope,geology,xvf,region,z1,z2pt5,PGA,PGV,SA(0.010),SA(0.020),SA(0.022),SA(0.025),SA(0.029),SA(0.030),SA(0.032),SA(0.035),SA(0.036),SA(0.040),SA(0.042),SA(0.044),SA(0.045),SA(0.046),SA(0.048),SA(0.050),SA(0.055),SA(0.060),SA(0.065),SA(0.067),SA(0.070),SA(0.075),SA(0.080),SA(0.085),SA(0.090),SA(0.095),SA(0.100),SA(0.110),SA(0.120),SA(0.130),SA(0.133),SA(0.140),SA(0.150),SA(0.160),SA(0.170),SA(0.180),SA(0.190),SA(0.200),SA(0.220),SA(0.240),SA(0.250),SA(0.260),SA(0.280),SA(0.290),SA(0.300),SA(0.320),SA(0.340),SA(0.350),SA(0.360),SA(0.380),SA(0.400),SA(0.420),SA(0.440),SA(0.450),SA(0.460),SA(0.480),SA(0.500),SA(0.550),SA(0.600),SA(0.650),SA(0.667),SA(0.700),SA(0.750),SA(0.800),SA(0.850),SA(0.900),SA(0.950),SA(1.000),SA(1.100),SA(1.200),SA(1.300),SA(1.400),SA(1.500),SA(1.600),SA(1.700),SA(1.800),SA(1.900),SA(2.000),SA(2.200),SA(2.400),SA(2.500),SA(2.600),SA(2.800),SA(3.000),SA(3.200),SA(3.400),SA(3.500),SA(3.600),SA(3.800),SA(4.000),SA(4.200),SA(4.400),SA(4.600),SA(4.800),SA(5.000),SA(5.500),SA(6.000),SA(6.500),SA(7.000),SA(7.500),SA(8.000),SA(8.500),SA(9.000),SA(9.500),SA(10.000)
INT-20230206_0000008|UNK-00019-12060,INT-20230206_0000008,2023-02-06T01:17:36.000000Z,37.042,37.166,17.9,7.83,41.56393847190536,80.96893034637156,-1.0,37.334600782057684,1.6088008578412403,38.354447044592916,42.695512306717276,50.55650583444949,53.63180289892113,30.91693924605964,34.194970518543414,37.75717913747127,0.0,0.0,37.75717913747127,197.82112610872073,00019-12060,37.56140000000004,37.355299999999986,UNK,00019-12060,UNK-00019-12060,,527.32074,0.0,False,0.06253239,CENOZOIC,147.83676053920527,2,196.91742,0.92184913,0.036217811384808375,13.541744198071354,0.03619537502527237,0.03613973408937454,0.03689626231789589,0.036714743822813034,0.036452919244766235,0.03644103184342384,0.036434948444366455,0.036450035870075226,0.03645899519324303,0.03650742396712303,0.03653743863105774,0.036570560187101364,0.03658818081021309,0.03660647198557854,0.03664495795965195,0.03668588399887085,0.03679827228188515,0.03692447021603584,0.03706807270646095,0.03713756427168846,0.037246279418468475,0.037439312785863876,0.037647757679224014,0.037875495851039886,0.03811796382069588,0.03838769346475601,0.03868015855550766,0.03921845182776451,0.039924319833517075,0.04093243181705475,0.041290346533060074,0.041924189776182175,0.04428989440202713,0.04780604690313339,0.0528547428548336,0.05793685093522072,0.06340400129556656,0.06508583575487137,0.06322607398033142,0.0582859180867672,0.05481397733092308,0.05335379019379616,0.06092183291912079,0.06530892103910446,0.06882403045892715,0.0767778605222702,0.08892293274402618,0.09494049102067947,0.10000123828649521,0.10668521374464035,0.11514847725629807,0.1186249703168869,0.12011843919754028,0.12008368223905563,0.11934037506580353,0.1152314841747284,0.1100183054804802,0.0916069820523262,0.07053598761558533,0.06263842433691025,0.061091918498277664,0.05026952922344208,0.04407719150185585,0.045776888728141785,0.04809940978884697,0.0442684143781662,0.04931852966547012,0.05184989795088768,0.04998314380645752,0.040181223303079605,0.041552405804395676,0.047208260744810104,0.049361277371644974,0.05319036915898323,0.057572148740291595,0.05006495490670204,0.04210565984249115,0.03872837498784065,0.04020640254020691,0.044549036771059036,0.04235740378499031,0.038846954703330994,0.033189013600349426,0.029187628999352455,0.02638961188495159,0.024940183386206627,0.024778444319963455,0.024771546944975853,0.024820661172270775,0.024838203564286232,0.025256512686610222,0.02761213295161724,0.03002810664474964,0.031518951058387756,0.03174009919166565,0.029472731053829193,0.027182936668395996,0.025605300441384315,0.024575993418693542,0.023592466488480568,0.02178519032895565,0.019550247117877007,0.017434874549508095,0.015769224613904953,0.014028502628207207
INT-20230206_0000008|UNK-00021-04957,INT-20230206_0000008,2023-02-06T01:17:36.000000Z,37.042,37.166,17.9,7.83,41.56393847190536,80.96893034637156,-1.0,37.334600782057684,1.6088008578412403,38.354447044592916,179.19850869370975,67.59119417398843,69.92123804585991,0.0,2.3883142141792386,1.7223352349654182,0.0,0.0,1.7223352349654182,82.4185690780456,00021-04957,36.48709999999998,36.750200000000014,UNK,00021-04957,UNK-00021-04957,,568.02844,0.0,False,0.09059662,PLEISTOCENE,111.82250544346421,2,154.37532,0.84667,0.45443055671554494,184.83167808516833,0.45376232266426086,0.4543420970439911,0.4545506238937378,0.4564531147480011,0.45569556951522827,0.4561863839626312,0.45862826704978943,0.46014732122421265,0.4599567949771881,0.4582902193069458,0.4633781909942627,0.46763473749160767,0.4682543873786926,0.46764716506004333,0.46903276443481445,0.472952663898468,0.4793052673339844,0.5011699795722961,0.5625936388969421,0.5863634347915649,0.6036367416381836,0.6187025308609009,0.6172337532043457,0.604253888130188,0.6058326363563538,0.6080173254013062,0.6085720062255859,0.5966968536376953,0.6122581362724304,0.6345829963684082,0.638283371925354,0.6639304161071777,0.7455745339393616,0.8244292736053467,0.8955357670783997,0.9335983395576477,0.9570543169975281,0.9900193214416504,0.9644843935966492,0.8312183618545532,0.7713651657104492,0.7246004343032837,0.6911577582359314,0.6972630620002747,0.6960490942001343,0.584731936454773,0.5364233255386353,0.5353700518608093,0.530672013759613,0.5484837889671326,0.5824575424194336,0.6596032381057739,0.7099037766456604,0.713613748550415,0.6989215016365051,0.6310287714004517,0.5655440092086792,0.5537979602813721,0.5417911410331726,0.5103043913841248,0.49351298809051514,0.4705909192562103,0.5011299252510071,0.5489597916603088,0.5673775672912598,0.5455954670906067,0.507645845413208,0.4701817035675049,0.46652543544769287,0.5828151702880859,0.7186335325241089,0.7725269794464111,0.7543753981590271,0.7256754636764526,0.7058351039886475,0.6893600225448608,0.6699365377426147,0.6471325755119324,0.6005072593688965,0.558857262134552,0.539628803730011,0.5217483639717102,0.49010059237480164,0.46489250659942627,0.44324037432670593,0.42306822538375854,0.4132702946662903,0.40600383281707764,0.3965202569961548,0.3867743909358978,0.3757242262363434,0.3631584644317627,0.34971901774406433,0.3350439667701721,0.31886330246925354,0.27961868047714233,0.244208425283432,0.2135559320449829,0.18654081225395203,0.16369986534118652,0.1441502571105957,0.12953737378120422,0.11661024391651154,0.10525801032781601,0.0955357477068901
INT-20230206_0000008|UNK-00022-13047,INT-20230206_0000008,2023-02-06T01:17:36.000000Z,37.042,37.166,17.9,7.83,41.56393847190536,80.96893034637156,-1.0,37.334600782057684,1.6088008578412403,38.354447044592916,9.230592820681537,193.21131568128231,194.0387139394923,10.349463345401384,10.574413626369633,-7.007771148994958,1.810600181404027,0.0,-7.007771148994958,344.0993290346798,00022-13047,38.6819299999995,38.32263299999994,UNK,00022-13047,UNK-00022-13047,,757.9007,0.0,False,0.08180212,CENOZOIC,150.0,2,41.930016,0.6087475,0.06105536795569767,33.298159830666435,0.06105099990963936,0.061055220663547516,0.06105536222457886,0.06105702370405197,0.061061348766088486,0.06106237694621086,0.0610644668340683,0.06106773391366005,0.06106887012720108,0.0610736720263958,0.061076246201992035,0.06107892468571663,0.061080291867256165,0.061081696301698685,0.06108469143509865,0.061087675392627716,0.0610957071185112,0.06110542640089989,0.061113711446523666,0.061117805540561676,0.06112579256296158,0.06113724038004875,0.061146944761276245,0.06116895377635956,0.0611838735640049,0.06118383631110191,0.06121015548706055,0.061227891594171524,0.06127718836069107,0.0613580159842968,0.06135561317205429,0.0613788366317749,0.06133519485592842,0.061545610427856445,0.06158623844385147,0.061759304255247116,0.061719246208667755,0.06177849695086479,0.062279753386974335,0.06250995397567749,0.06268258392810822,0.06301742047071457,0.06336775422096252,0.06409600377082825,0.06489069759845734,0.06579603254795074,0.0676131471991539,0.06986833363771439,0.07250986248254776,0.0774281844496727,0.08039870858192444,0.0825774073600769,0.082426518201828,0.08080374449491501,0.08091294765472412,0.081822469830513,0.08228049427270889,0.09095428884029388,0.10687106847763062,0.12982942163944244,0.1370343267917633,0.14902418851852417,0.15398865938186646,0.15496903657913208,0.15953435003757477,0.1538948118686676,0.15500663220882416,0.15096132457256317,0.14089810848236084,0.1423218697309494,0.11625451594591141,0.0927901342511177,0.09444591403007507,0.09473227709531784,0.10523895919322968,0.13319426774978638,0.1527434140443802,0.16025884449481964,0.14651016891002655,0.0982251688838005,0.07641768455505371,0.06636393815279007,0.07753963768482208,0.08571502566337585,0.08104878664016724,0.072513148188591,0.06948181986808777,0.0678827315568924,0.07431264221668243,0.08085380494594574,0.08438713103532791,0.08492623269557953,0.08309278637170792,0.08062105625867844,0.07948566228151321,0.07379675656557083,0.07397816330194473,0.07351511716842651,0.07097861915826797,0.06713704764842987,0.06169866770505905,0.05542025715112686,0.050467804074287415,0.04719816893339157,0.04383326694369316
INT-20230206_0000008|UNK-00023-03195,INT-20230206_0000008,2023-02-06T01:17:36.000000Z,37.042,37.166,17.9,7.83,41.56393847190536,80.96893034637156,-1.0,37.334600782057684,1.6088008578412403,38.354447044592916,256.2918367366398,331.7684044274188,332.2509355537096,304.5410664570729,304.5392842009693,-289.5370056670757,0.0,0.0,-289.5370056670757,98.85659207211997,00023-03195,33.760700000000135,38.64969999999962,UNK,00023-03195,UNK-00023-03195,,561.6267,0.0,False,0.094407044,CENOZOIC,-150.0,4,160.61726,0.8577195,0.0025086434303543716,1.9312088899800106,0.002508486621081829,0.0025070179253816605,0.00251209014095366,0.0025093010626733303,0.0025082069914788008,0.002508084988221526,0.0025079227052628994,0.0025078074540942907,0.0025077913887798786,0.002507798606529832,0.0025078339967876673,0.00250788452103734,0.0025079145561903715,0.002507947850972414,0.002508022589609027,0.0025081068743020296,0.0025083546061068773,0.0025087068788707256,0.00250909011811018,0.0025092510040849447,0.0025095005985349417,0.0025099394842982292,0.0025104067754000425,0.0025109031703323126,0.0025114286690950394,0.0025119835045188665,0.0025125679094344378,0.002513825660571456,0.0025152049493044615,0.002516698557883501,0.002517166081815958,0.0025183067191392183,0.002520090900361538,0.0025219223462045193,0.0025239496026188135,0.002525988267734647,0.002528156852349639,0.0025305652525275946,0.002535679377615452,0.002541090128943324,0.0025439783930778503,0.0025471567641943693,0.0025546413380652666,0.002559203887358308,0.002563634654507041,0.0025714102666825056,0.002581109991297126,0.0025839193258434534,0.002582993358373642,0.0025786508340388536,0.002584602450951934,0.002591617638245225,0.002577879000455141,0.002574578393250704,0.0025912197306752205,0.0026731793768703938,0.002759304828941822,0.0028240918181836605,0.002892490243539214,0.0030652089044451714,0.003087644698098302,0.0030904863961040974,0.003010869026184082,0.0031527457758784294,0.003195494879037142,0.003538896096870303,0.004012155346572399,0.004365394823253155,0.004257147200405598,0.004313501995056868,0.004165950696915388,0.004604876972734928,0.005998189095407724,0.006033515557646751,0.0063209752552211285,0.0068350303918123245,0.007246209774166346,0.007494006305932999,0.007112202700227499,0.006751418113708496,0.006298334337770939,0.00590683426707983,0.005103777162730694,0.005084871780127287,0.0055831847712397575,0.004981295205652714,0.004941122606396675,0.005311278160661459,0.005941151175647974,0.0051271021366119385,0.005285531282424927,0.006801122799515724,0.007051951717585325,0.006673847325146198,0.006292644888162613,0.0037807966582477093,0.003228431800380349,0.002569380449131131,0.002595872152596712,0.002421257784590125,0.0020029107108712196,0.0016334149986505508,0.0017003949033096433,0.001962534850463271,0.0021987331565469503
INT-20230206_0000008|UNK-00024-03701,INT-20230206_0000008,2023-02-06T01:17:36.000000Z,37.042,37.166,17.9,7.83,41.56393847190536,80.96893034637156,-1.0,37.334600782057684,1.6088008578412403,38.354447044592916,259.1488171884438,423.88908496728965,424.26685747817504,396.20779738009963,396.2170423907096,-378.029080155203,0.0,0.0,-378.029080155203,96.31808203509907,00024-03701,32.91730000000047,39.171300000000166,UNK,00024-03701,UNK-00024-03701,,526.66095,0.0,False,0.06298477,PLEISTOCENE,-150.0,4,197.65996,0.9231701,0.0008895750518114184,1.6913501402934332,0.0008895358187146485,0.0008888651500456035,0.000892925076186657,0.0008900758111849427,0.0008891288307495415,0.0008890145109035075,0.0008888488519005477,0.0008886957657523453,0.0008886608993634582,0.0008885706192813814,0.0008885578135959804,0.0008885550196282566,0.0008885557181201875,0.0008885576971806586,0.0008885649149306118,0.0008885759743861854,0.0008886173600330949,0.000888674461748451,0.0008887443109415472,0.000888775335624814,0.0008888250449672341,0.0008889156742952764,0.0008890155586414039,0.0008891292964108288,0.0008892607875168324,0.000889398215804249,0.0008895418723113835,0.0008898488595150411,0.0008901828550733626,0.0008905449067242444,0.0008906590519472957,0.0008909355383366346,0.0008913553901948035,0.0008918048697523773,0.0008922844426706433,0.0008927946328185499,0.0008933358476497233,0.0008939084364101291,0.0008951494237408042,0.0008965218439698219,0.0008972582290880382,0.0008980288403108716,0.0008996729156933725,0.0009005466126836836,0.0009013914386741817,0.0009028614731505513,0.0009048818610608578,0.0009059939766302705,0.0009071789681911469,0.0009095137938857079,0.0009114979766309261,0.0009144929936155677,0.0009192442521452904,0.0009219838539138436,0.000924768450204283,0.0009287542197853327,0.0009333312627859414,0.000942586048040539,0.0009606619132682681,0.0009765326976776123,0.0009835948003455997,0.0010025535011664033,0.0010091998847201467,0.001057398971170187,0.001124648959375918,0.0011954669607803226,0.001319232163950801,0.001314156805165112,0.001409236341714859,0.0016067724209278822,0.0019487200770527124,0.002110946923494339,0.002202893840149045,0.0023686604108661413,0.002541114343330264,0.002656463999301195,0.002326647052541375,0.0018825280712917447,0.0019176338100805879,0.0026500632520765066,0.0027079645078629255,0.002539321081712842,0.0024037666153162718,0.002628152258694172,0.0025524278171360493,0.0021102954633533955,0.002037767553701997,0.0020298417657613754,0.0023376771714538336,0.002841783221811056,0.003242364153265953,0.0032841006759554148,0.002967416774481535,0.0025150012224912643,0.0022187295835465193,0.0014455207856371999,0.0013061922509223223,0.00122592702973634,0.0011202311143279076,0.0011069719912484288,0.0012171692214906216,0.0012701490195468068,0.0012364472495391965,0.0011210484663024545,0.0009561951155774295
INT-20230206_0000008|UNK-00025-06355,INT-20230206_0000008,2023-02-06T01:17:36.000000Z,37.042,37.166,17.9,7.83,41.56393847190536,80.96893034637156,-1.0,37.334600782057684,1.6088008578412403,38.354447044592916,258.4386736418847,180.34368442591241,181.2298389126721,152.46348798383588,152.50779848036467,-148.5199661769872,0.0,0.0,-148.5199661769872,137.29170681720484,00025-06355,35.36299999999963,38.094699999999854,UNK,00025-06355,UNK-00025-06355,,700.2107,0.0,False,0.14246033,JURASSIC-TRIASSIC,-56.18153463076998,4,63.227932,0.6664566,0.0034744486975144817,3.5148905546412132,0.0034742539282888174,0.0034742546267807484,0.0034736418165266514,0.003474549623206258,0.0034749347250908613,0.0034750355407595634,0.0034752434585243464,0.0034755715169012547,0.0034756858367472887,0.003476169425994158,0.0034764285665005445,0.0034766991157084703,0.0034768388140946627,0.003476981772109866,0.0034772767685353756,0.0034775843378156424,0.003478407859802246,0.0034793124068528414,0.00348029937595129,0.003480717772617936,0.0034813706297427416,0.0034825277980417013,0.003483772510662675,0.0034851061645895243,0.0034865429624915123,0.0034881476312875748,0.003489862196147442,0.0034938452299684286,0.003496496006846428,0.003500815248116851,0.00350365974009037,0.0035191711504012346,0.0035501609090715647,0.0035637072287499905,0.0035816822201013565,0.003615709487348795,0.0036336141638457775,0.0037639630027115345,0.003820705460384488,0.0037807554472237825,0.003790297545492649,0.0038022492080926895,0.003891127184033394,0.004007806535810232,0.004069988615810871,0.004103475250303745,0.004182797856628895,0.004208146594464779,0.004199539311230183,0.004414441529661417,0.004891787655651569,0.005130560602992773,0.0052682156674563885,0.005379514768719673,0.005454800091683865,0.005420182831585407,0.0049160560593008995,0.004601065535098314,0.004619891289621592,0.005693722050637007,0.006022544112056494,0.006189234089106321,0.006842012982815504,0.00856225099414587,0.008558866567909718,0.007975377142429352,0.008115456439554691,0.008375328034162521,0.008324939757585526,0.007414229679852724,0.007395167835056782,0.008437532000243664,0.007769147399812937,0.006725308019667864,0.00589076429605484,0.006469534710049629,0.00641635013744235,0.005463780369609594,0.005950894206762314,0.006625659763813019,0.006517860107123852,0.006539475172758102,0.007041069213300943,0.008038345724344254,0.008432751521468163,0.007938741706311703,0.007600993383675814,0.007425415795296431,0.008165283128619194,0.008376161567866802,0.008783270604908466,0.008804215118288994,0.009323245845735073,0.01041398011147976,0.010714485310018063,0.008360538631677628,0.006200565490871668,0.004945721011608839,0.004685977008193731,0.005100805778056383,0.004740748554468155,0.0040863631293177605,0.0036404693964868784,0.003523040097206831,0.003824123414233327
