gmid,event_id,event_time,event_longitude,event_latitude,event_depth,magnitude,strike,dip,rake,rupture_width,depth_top_of_rupture,depth_bottom_of_rupture,azimuth,repi,rhypo,rjb,rrup,rx,ry0,rvolc,gc2t,gc2u,receiver,station_longitude,station_latitude,network,station_code,station_id,station_elevation,vs30,fpeak,vs30measured,slope,geology,xvf,region,z1,z2pt5,PGA,PGV,SA(0.010),SA(0.020),SA(0.022),SA(0.025),SA(0.029),SA(0.030),SA(0.032),SA(0.035),SA(0.036),SA(0.040),SA(0.042),SA(0.044),SA(0.045),SA(0.046),SA(0.048),SA(0.050),SA(0.055),SA(0.060),SA(0.065),SA(0.067),SA(0.070),SA(0.075),SA(0.080),SA(0.085),SA(0.090),SA(0.095),SA(0.100),SA(0.110),SA(0.120),SA(0.130),SA(0.133),SA(0.140),SA(0.150),SA(0.160),SA(0.170),SA(0.180),SA(0.190),SA(0.200),SA(0.220),SA(0.240),SA(0.250),SA(0.260),SA(0.280),SA(0.290),SA(0.300),SA(0.320),SA(0.340),SA(0.350),SA(0.360),SA(0.380),SA(0.400),SA(0.420),SA(0.440),SA(0.450),SA(0.460),SA(0.480),SA(0.500),SA(0.550),SA(0.600),SA(0.650),SA(0.667),SA(0.700),SA(0.750),SA(0.800),SA(0.850),SA(0.900),SA(0.950),SA(1.000),SA(1.100),SA(1.200),SA(1.300),SA(1.400),SA(1.500),SA(1.600),SA(1.700),SA(1.800),SA(1.900),SA(2.000),SA(2.200),SA(2.400),SA(2.500),SA(2.600),SA(2.800),SA(3.000),SA(3.200),SA(3.400),SA(3.500),SA(3.600),SA(3.800),SA(4.000),SA(4.200),SA(4.400),SA(4.600),SA(4.800),SA(5.000),SA(5.500),SA(6.000),SA(6.500),SA(7.000),SA(7.500),SA(8.000),SA(8.500),SA(9.000),SA(9.500),SA(10.000)
INT-20230206_0000008|UNK-00032-07319,INT-20230206_0000008,2023-02-06T01:17:36.000000Z,37.042,37.166,17.9,7.83,41.56393847190536,80.96893034637156,-1.0,37.334600782057684,1.6088008578412403,38.354447044592916,228.0399900279059,201.01108905508204,201.80651110187236,161.17382744002012,161.1568468918044,-141.51628972202883,0.0,0.0,-141.51628972202883,47.868725321517886,00032-07319,34.77650000000041,37.28370000000003,UNK,00032-07319,UNK-00032-07319,,779.3729,0.0,False,0.24083495,CRETACEOUS,-45.12531294317243,4,35.97796,0.58959925,0.007589244038702076,6.181740713346837,0.007588811684399843,0.00758943660184741,0.007590316701680422,0.007590337656438351,0.0075906976126134396,0.007590813562273979,0.007591065019369125,0.00759148458018899,0.007591634523123503,0.0075922803953289986,0.007592630572617054,0.007592998445034027,0.007593188434839249,0.007593383546918631,0.007593785412609577,0.0075942049734294415,0.007595328614115715,0.007596559822559357,0.007597897667437792,0.007598462514579296,0.007599341683089733,0.007600892800837755,0.007602550555020571,0.007604314014315605,0.007606633007526398,0.007609084714204073,0.007611664477735758,0.007617225404828787,0.007623372133821249,0.00763014517724514,0.007632253225892782,0.0076371897011995316,0.007645479403436184,0.007653322536498308,0.007661022245883942,0.007668948732316494,0.007672433275729418,0.0076837725937366486,0.007698770146816969,0.007728915195912123,0.007746601011604071,0.007786417845636606,0.007837872952222824,0.007860497571527958,0.007910454645752907,0.007904830388724804,0.007903466932475567,0.007908790372312069,0.007930784486234188,0.008262436836957932,0.00894575472921133,0.00903470627963543,0.00883200392127037,0.008882214315235615,0.008973145857453346,0.009196258150041103,0.009366580285131931,0.00941834133118391,0.009658340364694595,0.00987701304256916,0.009858000092208385,0.010960268788039684,0.011761559173464775,0.011777863837778568,0.01147510576993227,0.012070718221366405,0.01243604812771082,0.01313016563653946,0.013258821330964565,0.012859700247645378,0.01156215276569128,0.0122614661231637,0.011202778667211533,0.011353271082043648,0.012612233869731426,0.014496305957436562,0.016205962747335434,0.01814444549381733,0.017780104652047157,0.021196208894252777,0.022551514208316803,0.025950338691473007,0.027875307947397232,0.028149399906396866,0.02820190042257309,0.029322292655706406,0.031208114698529243,0.03216591849923134,0.029593683779239655,0.02587161958217621,0.025717979297041893,0.02488340251147747,0.023447811603546143,0.021329138427972794,0.02008296735584736,0.021417703479528427,0.017535021528601646,0.014935044571757317,0.013390840962529182,0.011495279148221016,0.010028595104813576,0.009323555044829845,0.00820474699139595,0.007461921311914921,0.00683155981823802
INT-20230206_0000008|UNK-00033-07928,INT-20230206_0000008,2023-02-06T01:17:36.000000Z,37.042,37.166,17.9,7.83,41.56393847190536,80.96893034637156,-1.0,37.334600782057684,1.6088008578412403,38.354447044592916,207.8288839747126,330.3985305847522,330.88305942215214,228.09833447618504,228.07884949864197,-162.92914184915875,109.1226690912599,0.0,-162.92914184915875,-109.1226690912599,00033-07928,33.54359999999963,36.18730000000003,UNK,00033-07928,UNK-00033-07928,,718.45856,0.0,False,0.13216183,PALEOZOIC,-4.930705171980311,2,55.546288,0.6471277,0.0061024457473363635,5.310153399554842,0.006102291867136955,0.006095347926020622,0.00611670408397913,0.006104715168476105,0.006099820137023926,0.0060992054641246796,0.006098303012549877,0.006097454112023115,0.006097257602959871,0.0060967328026890755,0.006096580997109413,0.00609647948294878,0.006096444092690945,0.006096417549997568,0.006096388213336468,0.006096384488046169,0.006096468307077885,0.006096650380641222,0.006096908822655678,0.006097063422203064,0.006097360979765654,0.006097877398133278,0.006098420824855566,0.00609899265691638,0.006099593825638294,0.006100224331021309,0.006100884638726711,0.006102296989411116,0.006103830877691507,0.006105487234890461,0.006106007378548384,0.006107254885137081,0.006109165493398905,0.006111184135079384,0.006113358307629824,0.0061158351600170135,0.00611854437738657,0.006121187005192041,0.0061265029944479465,0.006133357062935829,0.006136620882898569,0.006139546632766724,0.006150125991553068,0.006152663379907608,0.006152299698442221,0.006157536990940571,0.0061736926436424255,0.006186428479850292,0.006200440227985382,0.006228987593203783,0.006213902961462736,0.006257717963308096,0.006336917169392109,0.0064113931730389595,0.006457664538174868,0.006459870841354132,0.006380867678672075,0.006443175952881575,0.007003177423030138,0.007328001316636801,0.007471248973160982,0.007907322607934475,0.007906967774033546,0.00975673459470272,0.009461919777095318,0.008868991397321224,0.008263823576271534,0.009068493731319904,0.00926891714334488,0.009345428086817265,0.009909508749842644,0.011203262023627758,0.012161188758909702,0.013432550244033337,0.014824350364506245,0.015106034465134144,0.01440705731511116,0.013828062452375889,0.014020906761288643,0.015428770333528519,0.016368284821510315,0.017072081565856934,0.01770870015025139,0.01651383563876152,0.016392985358834267,0.018998384475708008,0.021597478538751602,0.02259746938943863,0.020217083394527435,0.01681666262447834,0.015104291960597038,0.014659181237220764,0.016109228134155273,0.017377136275172234,0.017076807096600533,0.01305176131427288,0.011286829598248005,0.012293719686567783,0.012557380832731724,0.010277833789587021,0.007399175316095352,0.005921397358179092,0.005672508385032415,0.0056642345152795315,0.005669060628861189
INT-20230206_0000008|UNK-00034-14938,INT-20230206_0000008,2023-02-06T01:17:36.000000Z,37.042,37.166,17.9,7.83,41.56393847190536,80.96893034637156,-1.0,37.334600782057684,1.6088008578412403,38.354447044592916,14.654942886897928,297.2148171832786,297.7533501965842,109.02959788338569,109.5839394070186,38.57249594281907,98.66483012878524,0.0,38.57249594281907,440.953558982061,00034-14938,39.812599999999584,38.70570000000034,UNK,00034-14938,UNK-00034-14938,,534.6222,0.0,False,0.06657239,CENOZOIC,150.0,2,188.80632,0.9074607,0.019429602772778762,18.861810855018113,0.019428346306085587,0.019427938386797905,0.019427616149187088,0.019428199157118797,0.01942971907556057,0.019430071115493774,0.019430754706263542,0.01943177916109562,0.019432127475738525,0.019433563575148582,0.01943432167172432,0.019435107707977295,0.019435511901974678,0.019435927271842957,0.019436774775385857,0.019437657669186592,0.01944001391530037,0.019442588090896606,0.01944538578391075,0.019446568563580513,0.019448408856987953,0.01945166476070881,0.01945515349507332,0.01945887692272663,0.019462838768959045,0.01946704275906086,0.019471488893032074,0.019481122493743896,0.019491758197546005,0.01950342394411564,0.019507132470607758,0.019516149535775185,0.01952997036278248,0.019544875249266624,0.019560804590582848,0.019578082486987114,0.019596900790929794,0.019616900011897087,0.019659174606204033,0.019700689241290092,0.019721701741218567,0.01974763721227646,0.01982707343995571,0.019849693402647972,0.019889364019036293,0.019924432039260864,0.020043132826685905,0.020118284970521927,0.020246781408786774,0.020480765029788017,0.021030345931649208,0.021250367164611816,0.021191002801060677,0.021339908242225647,0.02146797627210617,0.023000702261924744,0.02350117266178131,0.02832914888858795,0.03552217036485672,0.036257632076740265,0.034741804003715515,0.03299644961953163,0.036574382334947586,0.03681665286421776,0.0338469035923481,0.03227023035287857,0.030718624591827393,0.02944524586200714,0.032300371676683426,0.03841415420174599,0.04256203770637512,0.045180678367614746,0.04737357422709465,0.04991218447685242,0.05156559497117996,0.053977999836206436,0.056499771773815155,0.05864759162068367,0.05804051458835602,0.05458376556634903,0.0533185675740242,0.05235959216952324,0.048654504120349884,0.04367157444357872,0.036901477724313736,0.032761238515377045,0.031495317816734314,0.030616525560617447,0.02916250191628933,0.02757377363741398,0.027435557916760445,0.02896641008555889,0.030654439702630043,0.03449603170156479,0.03656218573451042,0.03619592636823654,0.03273022174835205,0.033236321061849594,0.03474896401166916,0.03577582538127899,0.036033086478710175,0.034730877727270126,0.032262738794088364,0.02963251620531082,0.028220290318131447
INT-20230206_0000008|UNK-00035-00913,INT-20230206_0000008,2023-02-06T01:17:36.000000Z,37.042,37.166,17.9,7.83,41.56393847190536,80.96893034637156,-1.0,37.334600782057684,1.6088008578412403,38.354447044592916,252.47595603864823,271.3108158490513,271.90065979448786,244.78385542681335,244.74701525744305,-230.65327276561095,0.0,0.0,-230.65327276561095,97.16705871911762,00035-00913,34.29050000000052,38.26909999999988,UNK,00035-00913,UNK-00035-00913,,376.3343,0.0,False,0.0071481145,CENOZOIC,-144.31476798684338,4,384.08243,1.3559923,0.0031627229727876124,2.6930866722254754,0.003162604523822665,0.00316015281714499,0.0031685750000178814,0.003163872752338648,0.0031620424706488848,0.003161817090585828,0.0031614904291927814,0.0031611917074769735,0.003161124885082245,0.003160957247018814,0.0031609160359948874,0.0031608943827450275,0.003160901367664337,0.0031609146390110254,0.0031609463039785624,0.00316098565235734,0.00316110928542912,0.0031612638849765062,0.003161444328725338,0.003161523025482893,0.0031616478227078915,0.003161872737109661,0.0031621174421161413,0.0031623817048966885,0.0031626648269593716,0.0031629663426429033,0.0031632857862859964,0.0031639793887734413,0.0031647454015910625,0.003165582660585642,0.0031658532097935677,0.003166514215990901,0.003167486749589443,0.0031684909481555223,0.003169537056237459,0.003170748008415103,0.0031721999403089285,0.0031735545489937067,0.0031764337327331305,0.003179980209097266,0.003182307817041874,0.0031849052757024765,0.0031888452358543873,0.003191134426742792,0.0031953700818121433,0.0032014790922403336,0.0032172559294849634,0.0032230380456894636,0.0032222000882029533,0.0032226426992565393,0.0032222107984125614,0.003282328601926565,0.0033192341215908527,0.003318669041618705,0.0033103632740676403,0.00327637093141675,0.0033498434349894524,0.0034547201357781887,0.0037219307851046324,0.0044412994757294655,0.004496923182159662,0.004404852632433176,0.004018330480903387,0.0037029876839369535,0.0036671534180641174,0.0040025063790380955,0.003908921964466572,0.004082127939909697,0.0041554211638867855,0.004596501588821411,0.00506369024515152,0.006807828322052956,0.008417737670242786,0.009174296632409096,0.008788557723164558,0.00675186375156045,0.0062101795338094234,0.007920670323073864,0.00651988061144948,0.007764913607388735,0.00765866506844759,0.006135361269116402,0.006707471329718828,0.008294224739074707,0.00900069996714592,0.00851026177406311,0.00840071216225624,0.008357536047697067,0.009312539361417294,0.008995147421956062,0.008791093714535236,0.008961417712271214,0.008584453724324703,0.007498307153582573,0.0062430608086287975,0.006000688765197992,0.006678195670247078,0.005585642531514168,0.005274517461657524,0.004451161716133356,0.0033683674409985542,0.002780247712507844,0.0026513575576245785,0.0026746527291834354,0.002879182808101177
INT-20230206_0000008|UNK-00036-12065,INT-20230206_0000008,2023-02-06T01:17:36.000000Z,37.042,37.166,17.9,7.83,41.56393847190536,80.96893034637156,-1.0,37.334600782057684,1.6088008578412403,38.354447044592916,79.22616402657668,57.746525153922356,60.45718458010253,57.93361348268953,61.226764538657804,70.60641724158887,0.0,0.0,70.60641724158887,177.07568190658725,00036-12065,37.67470000000003,37.0432,UNK,00036-12065,UNK-00036-12065,,517.9989,0.0,False,0.0419344,CENOZOIC,150.0,0,207.55142,0.94085205,0.008222825081715101,6.459726062353747,0.008218497037887573,0.008222401142120361,0.008222143165767193,0.008219782263040543,0.008229023776948452,0.008230927400290966,0.008234684355556965,0.008240405470132828,0.008242362178862095,0.008250566199421883,0.008254910819232464,0.008259441703557968,0.008261770009994507,0.008264151401817799,0.008269053883850574,0.00827415194362402,0.008287756703794003,0.008302626200020313,0.008318765088915825,0.008325573056936264,0.008336157537996769,0.008354821242392063,0.00837469007819891,0.008395683020353317,0.00841755885630846,0.008444086648523808,0.008474104106426239,0.009612261317670345,0.010868394747376442,0.011318359524011612,0.011403065174818039,0.011730662547051907,0.011764254420995712,0.010869285091757774,0.0104577811434865,0.011491176672279835,0.012696818448603153,0.013304919935762882,0.013930748216807842,0.014923990704119205,0.014670256525278091,0.013718548230826855,0.014655480161309242,0.015242505818605423,0.015611027367413044,0.016305861994624138,0.0186763983219862,0.020266294479370117,0.021329978480935097,0.022063594311475754,0.02431580424308777,0.025619693100452423,0.02607630006968975,0.026196323335170746,0.026219064369797707,0.025619009509682655,0.02439032308757305,0.021817777305841446,0.01769750937819481,0.017234405502676964,0.017887108027935028,0.01633588783442974,0.018293485045433044,0.017857294529676437,0.01626352220773697,0.019453635439276695,0.021550366654992104,0.022662412375211716,0.02234555035829544,0.022728582844138145,0.02121976763010025,0.018411140888929367,0.017189089208841324,0.015828613191843033,0.015601325780153275,0.017516769468784332,0.01856818050146103,0.018985945731401443,0.012198852375149727,0.010134942829608917,0.009216632694005966,0.009983859956264496,0.009570118971168995,0.011894077062606812,0.012691129930317402,0.014030441641807556,0.013402684591710567,0.012602674774825573,0.01145555917173624,0.011144944466650486,0.011210931465029716,0.011709833517670631,0.01217869482934475,0.011933233588933945,0.010618696920573711,0.009825605899095535,0.010835880413651466,0.014028215780854225,0.015740815550088882,0.01324540376663208,0.011761397123336792,0.010192873887717724,0.008634550496935844,0.007575420197099447,0.0069908262230455875
INT-20230206_0000008|UNK-00037-07146,INT-20230206_0000008,2023-02-06T01:17:36.000000Z,37.042,37.166,17.9,7.83,41.56393847190536,80.96893034637156,-1.0,37.334600782057684,1.6088008578412403,38.354447044592916,231.65186391859078,259.488823401198,260.1054775858019,219.68375088499124,219.64956885676966,-192.12332297828425,0.0,0.0,-192.12332297828425,24.273084738037788,00037-07146,34.12529999999993,37.414600000000036,UNK,00037-07146,UNK-00037-07146,,744.6935,0.0,False,0.12690279,PALEOZOIC,-98.67675249012977,4,46.073772,0.6211137,0.005240406814118655,5.164142364669717,0.005240000784397125,0.0052148206159472466,0.0052942815236747265,0.005250696558505297,0.005232693161815405,0.005230411421507597,0.005227046087384224,0.005223902408033609,0.005223188549280167,0.005221253726631403,0.005220670253038406,0.0052202604711055756,0.005220108665525913,0.005219987593591213,0.0052198246121406555,0.005219752434641123,0.005219878628849983,0.005220335442572832,0.005221039988100529,0.005221379455178976,0.005221942905336618,0.005223013460636139,0.005224232561886311,0.0052255867049098015,0.005227065645158291,0.005228663794696331,0.005230374168604612,0.005234100855886936,0.005237640347331762,0.005242159590125084,0.00524423411116004,0.0052494085393846035,0.0052561634220182896,0.005260869860649109,0.005266221705824137,0.005272320471704006,0.005283753853291273,0.005292729940265417,0.005311280023306608,0.005335886962711811,0.005350509192794561,0.005367209669202566,0.005383113864809275,0.005383703391999006,0.005390457343310118,0.005440908018499613,0.005543293431401253,0.005568253807723522,0.005566929467022419,0.005530992988497019,0.0056428140960633755,0.0056043812073767185,0.005478275939822197,0.005473196040838957,0.005603970494121313,0.005890066735446453,0.006028736010193825,0.006275768391788006,0.006616868544369936,0.006962921936064959,0.007001039106398821,0.0072435918264091015,0.0069544450379908085,0.007431146688759327,0.008510340005159378,0.008579785004258156,0.008622952736914158,0.009180095046758652,0.009354224428534508,0.008418436162173748,0.009615425020456314,0.009231832809746265,0.007252634968608618,0.00771494023501873,0.0084441052749753,0.007965552620589733,0.007254280615597963,0.007966825738549232,0.009729074314236641,0.01132307667285204,0.011879177764058113,0.012705767527222633,0.01441824808716774,0.013286652974784374,0.01537023950368166,0.015561775304377079,0.016480665653944016,0.016413619741797447,0.013997708447277546,0.011632703244686127,0.0114755192771554,0.01241509709507227,0.013659773394465446,0.01575710065662861,0.01625308021903038,0.019123977050185204,0.017282025888562202,0.01229835581034422,0.008388364687561989,0.007238974794745445,0.007030529901385307,0.007045982871204615,0.006717396900057793,0.006109203211963177,0.0056798928417265415
