gmid,event_id,event_time,event_longitude,event_latitude,event_depth,magnitude,strike,dip,rake,rupture_width,depth_top_of_rupture,depth_bottom_of_rupture,azimuth,repi,rhypo,rjb,rrup,rx,ry0,rvolc,gc2t,gc2u,receiver,station_longitude,station_latitude,network,station_code,station_id,station_elevation,vs30,fpeak,vs30measured,slope,geology,xvf,region,z1,z2pt5,PGA,PGV,SA(0.010),SA(0.020),SA(0.022),SA(0.025),SA(0.029),SA(0.030),SA(0.032),SA(0.035),SA(0.036),SA(0.040),SA(0.042),SA(0.044),SA(0.045),SA(0.046),SA(0.048),SA(0.050),SA(0.055),SA(0.060),SA(0.065),SA(0.067),SA(0.070),SA(0.075),SA(0.080),SA(0.085),SA(0.090),SA(0.095),SA(0.100),SA(0.110),SA(0.120),SA(0.130),SA(0.133),SA(0.140),SA(0.150),SA(0.160),SA(0.170),SA(0.180),SA(0.190),SA(0.200),SA(0.220),SA(0.240),SA(0.250),SA(0.260),SA(0.280),SA(0.290),SA(0.300),SA(0.320),SA(0.340),SA(0.350),SA(0.360),SA(0.380),SA(0.400),SA(0.420),SA(0.440),SA(0.450),SA(0.460),SA(0.480),SA(0.500),SA(0.550),SA(0.600),SA(0.650),SA(0.667),SA(0.700),SA(0.750),SA(0.800),SA(0.850),SA(0.900),SA(0.950),SA(1.000),SA(1.100),SA(1.200),SA(1.300),SA(1.400),SA(1.500),SA(1.600),SA(1.700),SA(1.800),SA(1.900),SA(2.000),SA(2.200),SA(2.400),SA(2.500),SA(2.600),SA(2.800),SA(3.000),SA(3.200),SA(3.400),SA(3.500),SA(3.600),SA(3.800),SA(4.000),SA(4.200),SA(4.400),SA(4.600),SA(4.800),SA(5.000),SA(5.500),SA(6.000),SA(6.500),SA(7.000),SA(7.500),SA(8.000),SA(8.500),SA(9.000),SA(9.500),SA(10.000)
INT-20230206_0000008|UNK-00013-13037,INT-20230206_0000008,2023-02-06T01:17:36.000000Z,37.042,37.166,17.9,7.83,41.56393847190536,80.96893034637156,-1.0,37.334600782057684,1.6088008578412403,38.354447044592916,4.220645344167011,177.225808359429,178.12747443517256,21.386934004886225,21.444155765622934,-17.22958391453791,0.0,0.0,-17.22958391453791,324.92186301659075,00013-13037,38.42529999999973,38.32529999999984,UNK,00013-13037,UNK-00013-13037,,573.03784,0.0,False,0.06979054,CRETACEOUS,146.2666882645359,2,149.61263,0.8382081,0.04342917131491874,31.431404329002255,0.0434238538146019,0.0434287004172802,0.04342597723007202,0.043433357030153275,0.0434393547475338,0.04344082251191139,0.04344383627176285,0.043448593467473984,0.0434502549469471,0.04345728084445,0.043461039662361145,0.04346496984362602,0.043466996401548386,0.04346906393766403,0.04347333312034607,0.04347776994109154,0.04348962381482124,0.0435025617480278,0.04351658746600151,0.04352250322699547,0.04353170469403267,0.04354791343212128,0.04356522485613823,0.04358362406492233,0.043603017926216125,0.04362357780337334,0.04364500567317009,0.04368419200181961,0.04372961446642876,0.04377792403101921,0.04379411041736603,0.04384124279022217,0.043951671570539474,0.04395562782883644,0.04406818747520447,0.04416259005665779,0.04418492317199707,0.044286880642175674,0.044733840972185135,0.04532720893621445,0.04597479850053787,0.047038618475198746,0.04888549819588661,0.04926997050642967,0.04863053932785988,0.04757068306207657,0.04806433990597725,0.049560848623514175,0.05062492936849594,0.052321337163448334,0.05506299063563347,0.05906454846262932,0.06014762073755264,0.059678055346012115,0.05939294397830963,0.059093769639730453,0.05764176696538925,0.06205855682492256,0.07290413975715637,0.07546029984951019,0.07463952898979187,0.07015059888362885,0.07418666779994965,0.08779464662075043,0.09927388280630112,0.10859551280736923,0.11015494912862778,0.1024053692817688,0.10884598642587662,0.11019349843263626,0.11977781355381012,0.12720803916454315,0.1198946163058281,0.10494112223386765,0.10286818444728851,0.1084955707192421,0.12115877866744995,0.1237783208489418,0.09066672623157501,0.07483956962823868,0.07161210477352142,0.07293567061424255,0.08131373673677444,0.07775203138589859,0.07157087326049805,0.060936328023672104,0.06316270679235458,0.07003680616617203,0.07181406766176224,0.06122366338968277,0.05511859431862831,0.053555216640233994,0.0533381886780262,0.05308888480067253,0.05695997178554535,0.06116000562906265,0.05963192880153656,0.05555690824985504,0.0522398017346859,0.04981474578380585,0.04833613708615303,0.04591481015086174,0.043027639389038086,0.039670947939157486,0.03656256943941116
INT-20230206_0000008|UNK-00014-12234,INT-20230206_0000008,2023-02-06T01:17:36.000000Z,37.042,37.166,17.9,7.83,41.56393847190536,80.96893034637156,-1.0,37.334600782057684,1.6088008578412403,38.354447044592916,39.08498882474835,115.82383609298596,117.1988524145816,52.32026803337659,55.50064220734782,64.7680541781823,0.0,0.0,64.7680541781823,259.4208779033334,00014-12234,38.294900000000126,37.46960000000003,UNK,00014-12234,UNK-00014-12234,,463.9436,0.0,False,0.072016634,PLEISTOCENE,150.0,0,274.0242,1.0672777,0.013842102796026356,6.18048412709612,0.013839502818882465,0.013845881447196007,0.013859418220818043,0.013853034935891628,0.013853509910404682,0.013853959739208221,0.013855066150426865,0.013857108540832996,0.013857871294021606,0.013861258514225483,0.013863137923181057,0.013865129090845585,0.013866167515516281,0.013867231085896492,0.013869439251720905,0.013871751725673676,0.013877981342375278,0.013884837739169598,0.013892306946218014,0.013895465061068535,0.013900378718972206,0.01390902977436781,0.013918223790824413,0.013927868567407131,0.013937928713858128,0.013949014246463776,0.013959197327494621,0.013963520526885986,0.014004292897880077,0.014793038368225098,0.014991683885455132,0.01463201455771923,0.014189882203936577,0.015209253877401352,0.01592218317091465,0.01627248153090477,0.016515424475073814,0.016760777682065964,0.01931067183613777,0.022081682458519936,0.022987661883234978,0.023381022736430168,0.02229814976453781,0.02086545154452324,0.019154595211148262,0.019370947033166885,0.017321282997727394,0.0162300243973732,0.016314832493662834,0.015808844938874245,0.018087394535541534,0.018775679171085358,0.018497193232178688,0.018932001665234566,0.018930485472083092,0.018869565799832344,0.018914777785539627,0.02089599519968033,0.024185078218579292,0.025653088465332985,0.026663763448596,0.027461262419819832,0.024916114285588264,0.026457156985998154,0.030719317495822906,0.03525123745203018,0.035967763513326645,0.029981106519699097,0.03400978073477745,0.04002652317285538,0.03170635551214218,0.03300198167562485,0.032804809510707855,0.030233109369874,0.027109574526548386,0.02969094179570675,0.031011110171675682,0.028488025069236755,0.024230128154158592,0.031223734840750694,0.03360605239868164,0.03579699620604515,0.035518545657396317,0.03476428613066673,0.03370504453778267,0.035326287150382996,0.036068178713321686,0.03622308373451233,0.03391619026660919,0.02864903025329113,0.02415485680103302,0.020952139049768448,0.01852445676922798,0.016831278800964355,0.016119448468089104,0.015269896015524864,0.015265276655554771,0.014851304702460766,0.014351071789860725,0.013705983757972717,0.012537783943116665,0.011088929139077663,0.011083762161433697,0.010285546071827412,0.009531479328870773
INT-20230206_0000008|UNK-00015-07504,INT-20230206_0000008,2023-02-06T01:17:36.000000Z,37.042,37.166,17.9,7.83,41.56393847190536,80.96893034637156,-1.0,37.334600782057684,1.6088008578412403,38.354447044592916,206.00186660453443,130.77099018848762,131.99038553954423,70.96740271923669,70.97879924355345,-61.803132217671724,0.0,0.0,-61.803132217671724,52.996360448393695,00015-07504,35.63240000000028,36.82589999999997,UNK,00015-07504,UNK-00015-07504,,637.5281,0.0,False,0.16016553,PLEISTOCENE,46.185244454333485,2,97.88153,0.7419359,0.019688418860433966,12.704330874010385,0.019685884937644005,0.01968730427324772,0.019683564081788063,0.01968669332563877,0.01969072036445141,0.019691666588187218,0.01969354972243309,0.019696416333317757,0.01969739980995655,0.01970149576663971,0.019703663885593414,0.019705915823578835,0.019707076251506805,0.019708259031176567,0.01971069537103176,0.019713224843144417,0.019719969481229782,0.019727328792214394,0.01973530650138855,0.01973867230117321,0.019743910059332848,0.019753145053982735,0.019763007760047913,0.019773488864302635,0.019784575328230858,0.019796229898929596,0.019809279590845108,0.01983916386961937,0.019869264215230942,0.019891642034053802,0.01989150606095791,0.019873401150107384,0.019937293604016304,0.020036501809954643,0.019922923296689987,0.019845250993967056,0.019903458654880524,0.020084237679839134,0.020183835178613663,0.020461320877075195,0.02048896625638008,0.020490474998950958,0.020464671775698662,0.020402610301971436,0.020447758957743645,0.021257806569337845,0.02185637876391411,0.02206599898636341,0.022298386320471764,0.02285963110625744,0.023206893354654312,0.02338411472737789,0.024683378636837006,0.0256370697170496,0.026047799736261368,0.026991618797183037,0.028340401127934456,0.028730623424053192,0.03130526468157768,0.03397994115948677,0.03510946035385132,0.03639262169599533,0.0401315838098526,0.043372269719839096,0.044596102088689804,0.04588084667921066,0.049144674092531204,0.05024879053235054,0.05448426306247711,0.05190778896212578,0.05018327012658119,0.04980933293700218,0.044625282287597656,0.04021386802196503,0.03844589367508888,0.041347745805978775,0.04693426564335823,0.05108804255723953,0.054487194865942,0.05805031955242157,0.054960209876298904,0.049944277852773666,0.04498476907610893,0.040101516991853714,0.03485352545976639,0.03073062375187874,0.02772289700806141,0.02557552233338356,0.025788526982069016,0.03272604942321777,0.03948419913649559,0.04268108680844307,0.04263671487569809,0.038808323442935944,0.03396068885922432,0.02698802389204502,0.021028492599725723,0.01819840632379055,0.017382211983203888,0.017619026824831963,0.017557499930262566,0.016222452744841576,0.014514033682644367,0.013468332588672638,0.01232156716287136
INT-20230206_0000008|UNK-00016-04866,INT-20230206_0000008,2023-02-06T01:17:36.000000Z,37.042,37.166,17.9,7.83,41.56393847190536,80.96893034637156,-1.0,37.334600782057684,1.6088008578412403,38.354447044592916,140.32764161681456,43.742362733233044,47.26313888735845,37.45677619099653,39.84765178061197,47.569834216880814,0.0,0.0,47.569834216880814,113.34027089762398,00016-04866,37.075,36.773500000000006,UNK,00016-04866,UNK-00016-04866,,728.5421,0.0,False,0.1398662,PLEISTOCENE,149.33051997027013,2,51.698135,0.63689137,0.008774305909125295,6.323075438149033,0.008773433044552803,0.008774762973189354,0.008774206973612309,0.008778626099228859,0.008776064962148666,0.008776084519922733,0.008776336908340454,0.008777056820690632,0.008777361363172531,0.008779102936387062,0.008780186995863914,0.008781309239566326,0.008781884796917439,0.008782470598816872,0.008783676661550999,0.008784927427768707,0.008788264356553555,0.00879191979765892,0.008795995265245438,0.008798031136393547,0.008801236748695374,0.008807013742625713,0.008813426829874516,0.008820584043860435,0.008828719146549702,0.00883859395980835,0.008852530270814896,0.008869719691574574,0.008831491693854332,0.008963166736066341,0.008978363126516342,0.008913876488804817,0.008886708877980709,0.0088759521022439,0.008867839351296425,0.008906212635338306,0.00888790376484394,0.00992741622030735,0.01077238004654646,0.010797861963510513,0.011225372552871704,0.01095491647720337,0.010956809855997562,0.011270840652287006,0.011478587985038757,0.011617504060268402,0.012068216688930988,0.01170420367270708,0.01144466083496809,0.01108548603951931,0.011201562359929085,0.01124481949955225,0.01251655351370573,0.012769964523613453,0.013814277946949005,0.013749136589467525,0.01202149223536253,0.011827662587165833,0.011242033913731575,0.013364766724407673,0.014467665925621986,0.014640077948570251,0.014195386320352554,0.01636384427547455,0.016977587714791298,0.016087189316749573,0.01478752214461565,0.014573771506547928,0.015590966679155827,0.01814686506986618,0.019699493423104286,0.01938493736088276,0.01751421019434929,0.016776220872998238,0.014661174267530441,0.01395665667951107,0.013968548737466335,0.015722764655947685,0.019786449149250984,0.01776096597313881,0.017228834331035614,0.01573004014790058,0.015319048427045345,0.019992586225271225,0.021286550909280777,0.016394920647144318,0.01553651224821806,0.014477948658168316,0.014662777073681355,0.014038446359336376,0.013635572977364063,0.0137826232239604,0.014310656115412712,0.015575408935546875,0.016201214864850044,0.015569169074296951,0.01335771195590496,0.011712664738297462,0.011055799201130867,0.011101961135864258,0.0104172732681036,0.009698953479528427,0.009039387106895447,0.008112008683383465,0.0068927425891160965
INT-20230206_0000008|UNK-00017-06312,INT-20230206_0000008,2023-02-06T01:17:36.000000Z,37.042,37.166,17.9,7.83,41.56393847190536,80.96893034637156,-1.0,37.334600782057684,1.6088008578412403,38.354447044592916,249.47440127519877,220.08393565946827,220.8106626396492,193.7523386176018,193.72839058698656,-181.71418387287702,0.0,0.0,-181.71418387287702,101.78568709486981,00017-06312,34.776800000000506,37.999900000000395,UNK,00017-06312,UNK-00017-06312,,535.4635,0.0,False,0.06465719,PRECAMBRIAN,-92.47747153744533,4,187.8845,0.90582997,0.0030470495164132715,2.9871661557516913,0.0030468639452010393,0.0030470837373286486,0.003047212492674589,0.003047300036996603,0.003047463484108448,0.0030475081875920296,0.0030476015526801348,0.003047752194106579,0.003047805279493332,0.00304803135804832,0.0030481526628136635,0.0030482797883450985,0.0030483452137559652,0.0030484122689813375,0.003048550570383668,0.0030486946925520897,0.0030490790959447622,0.003049499122425914,0.0030499540735036135,0.0030501459259539843,0.0030504444148391485,0.003050969447940588,0.0030515289399772882,0.003052122425287962,0.003052748739719391,0.0030534074176102877,0.003054100088775158,0.0030556374695152044,0.003057450521737337,0.00305949617177248,0.003060815390199423,0.003064541146159172,0.0030667332466691732,0.0030688669066876173,0.003069707890972495,0.0030690478160977364,0.0030750285368412733,0.0030774055048823357,0.0030804325360804796,0.0030863643623888493,0.003085595089942217,0.0030852314084768295,0.003109029959887266,0.0031313933432102203,0.0031614801846444607,0.0031736965756863356,0.003198913997039199,0.0032280208542943,0.0032579742837697268,0.0033932789228856564,0.0034036755096167326,0.0036479413975030184,0.0037544816732406616,0.003727999050170183,0.003691397374495864,0.0035996860824525356,0.0037028638180345297,0.0041848658584058285,0.004118190612643957,0.0044296858832240105,0.004558606073260307,0.005097886547446251,0.005158312618732452,0.0047188326716423035,0.004694354720413685,0.005066967103630304,0.005138839595019817,0.005755932070314884,0.006068010348826647,0.0065435608848929405,0.006405900232493877,0.006709150038659573,0.006885448470711708,0.0076272981241345406,0.007002648897469044,0.0061066909693181515,0.006723486352711916,0.006715844850987196,0.006724496837705374,0.009504226967692375,0.010318731889128685,0.010773028247058392,0.011230487376451492,0.011410350911319256,0.009684422984719276,0.008938276208937168,0.00940685998648405,0.00921596959233284,0.00704592652618885,0.006316725630313158,0.005837281234562397,0.005722215864807367,0.0060149189084768295,0.007121000438928604,0.008299903012812138,0.009758461266756058,0.008074909448623657,0.006321283057332039,0.005275701638311148,0.004265820141881704,0.003911671228706837,0.003564488608390093,0.0035104630514979362,0.0033529417123645544,0.003402221016585827
INT-20230206_0000008|UNK-00018-03020,INT-20230206_0000008,2023-02-06T01:17:36.000000Z,37.042,37.166,17.9,7.83,41.56393847190536,80.96893034637156,-1.0,37.334600782057684,1.6088008578412403,38.354447044592916,271.623304308889,312.2810437162266,312.7936384655158,283.2644002213976,283.38930791957813,-273.74160189129077,0.0,0.0,-273.74160189129077,173.54137607351555,00018-03020,34.52830000000057,39.16160000000013,UNK,00018-03020,UNK-00018-03020,,509.1942,0.0,False,0.059004858,CENOZOIC,-150.0,4,217.86339,0.9594865,0.0019615413856520145,2.790991741639254,0.001961488276720047,0.0019614652264863253,0.0019614461343735456,0.0019614617340266705,0.001961534144356847,0.001961554167792201,0.0019615928176790476,0.0019616500940173864,0.0019616694189608097,0.0019617490470409393,0.0019617907237261534,0.001961834030225873,0.00196185614913702,0.001961878966540098,0.001961925532668829,0.0019619737286120653,0.0019621022511273623,0.0019622421823441982,0.001962393755093217,0.0019624577835202217,0.001962557202205062,0.001962734153494239,0.00196292856708169,0.001963135553523898,0.0019633546471595764,0.0019635858479887247,0.0019638289231806993,0.001964349066838622,0.001964897383004427,0.001965489238500595,0.0019656994845718145,0.001966155366972089,0.0019663823768496513,0.0019679663237184286,0.0019686571322381496,0.0019699656404554844,0.001971037359908223,0.001972018973901868,0.0019742115400731564,0.001977636944502592,0.0019803305622190237,0.0019826292991638184,0.001985599985346198,0.0019882379565387964,0.00199225009419024,0.002001845045015216,0.0020057931542396545,0.002010633936151862,0.002016764832660556,0.002023765118792653,0.0020238771103322506,0.002010884927585721,0.0020077629014849663,0.00201227143406868,0.0020147792529314756,0.002023404696956277,0.0020334022119641304,0.002059304155409336,0.0021953326649963856,0.0021418523974716663,0.0020927346777170897,0.0022258588578552008,0.002521430142223835,0.0027164018247276545,0.0027344473637640476,0.002722638426348567,0.002735656453296542,0.002770291641354561,0.0029679539147764444,0.0029068156145513058,0.0030969528015702963,0.0031773289665579796,0.003061646595597267,0.0032330863177776337,0.0034721193369477987,0.0035021628718823195,0.004029547795653343,0.003894515335559845,0.003480563871562481,0.004183389246463776,0.00447251508012414,0.0048920284025371075,0.004896784666925669,0.004348565824329853,0.004569399636238813,0.004844161216169596,0.005173623561859131,0.005287511274218559,0.005499533377587795,0.006097301375120878,0.005955512635409832,0.0067239184863865376,0.007468599826097488,0.007432025391608477,0.00672173872590065,0.005706272553652525,0.004417563322931528,0.004293162375688553,0.0038317141588777304,0.0029632668010890484,0.0031535434536635876,0.0034239445813000202,0.003677873406559229,0.00387019757181406,0.00398247828707099
