gmid,event_id,event_time,event_longitude,event_latitude,event_depth,magnitude,strike,dip,rake,rupture_width,depth_top_of_rupture,depth_bottom_of_rupture,azimuth,repi,rhypo,rjb,rrup,rx,ry0,rvolc,gc2t,gc2u,network,station_code,station_longitude,station_latitude,station_id,vs30,vs30measured,slope,geology,xvf,region,backarc,z1,z2pt5,fpeak,PGA,PGV,SA(0.010),SA(0.020),SA(0.022),SA(0.025),SA(0.029),SA(0.030),SA(0.032),SA(0.035),SA(0.036),SA(0.040),SA(0.042),SA(0.044),SA(0.045),SA(0.046),SA(0.048),SA(0.050),SA(0.055),SA(0.060),SA(0.065),SA(0.067),SA(0.070),SA(0.075),SA(0.080),SA(0.085),SA(0.090),SA(0.095),SA(0.100),SA(0.110),SA(0.120),SA(0.130),SA(0.133),SA(0.140),SA(0.150),SA(0.160),SA(0.170),SA(0.180),SA(0.190),SA(0.200),SA(0.220),SA(0.240),SA(0.250),SA(0.260),SA(0.280),SA(0.290),SA(0.300),SA(0.320),SA(0.340),SA(0.350),SA(0.360),SA(0.380),SA(0.400),SA(0.420),SA(0.440),SA(0.450),SA(0.460),SA(0.480),SA(0.500),SA(0.550),SA(0.600),SA(0.650),SA(0.667),SA(0.700),SA(0.750),SA(0.800),SA(0.850),SA(0.900),SA(0.950),SA(1.000),SA(1.100),SA(1.200),SA(1.300),SA(1.400),SA(1.500),SA(1.600),SA(1.700),SA(1.800),SA(1.900),SA(2.000),SA(2.200),SA(2.400),SA(2.500),SA(2.600),SA(2.800),SA(3.000),SA(3.200),SA(3.400),SA(3.500),SA(3.600),SA(3.800),SA(4.000),SA(4.200),SA(4.400),SA(4.600),SA(4.800),SA(5.000),SA(5.500),SA(6.000),SA(6.500),SA(7.000),SA(7.500),SA(8.000),SA(8.500),SA(9.000),SA(9.500),SA(10.000)
INT-20230206_0000008|TK-3144|HN|SEISSOL,INT-20230206_0000008,2023-02-06T01:17:36.000000Z,37.08,37.17,20.0,7.83,41.56393847190536,80.96893034637156,-1.0,37.33460078205768,1.6088008578412405,38.35444704459292,227.5412272785119,67.17016728134944,69.51432494532668,0.0,2.1271488321926304,1.259823873403039,0.0,0.0,1.259823873403039,83.0320631307035,TK,3144,36.485742,36.75691,TK-3144,485.0,True,0.09059662,PLEISTOCENE,111.27163158690853,2,False,247.34795497940436,1.014436888379958,0.0,0.41526669268021943,179.04974064302905,0.41478008,0.4153666,0.41577706,0.41683602,0.41767973,0.41772962,0.41860402,0.4187686,0.41874996,0.4218227,0.42188123,0.42311722,0.42280108,0.42233333,0.42229682,0.4234231,0.42732763,0.4347053,0.43700656,0.43489757,0.43505698,0.45623025,0.47817,0.49062473,0.4998777,0.50818485,0.5176672,0.5840598,0.6664885,0.7535604,0.76439047,0.7658561,0.78917974,0.8010837,0.83546174,0.8594301,0.8688998,0.80405337,0.5749598,0.5204323,0.519446,0.5340386,0.56981844,0.5527804,0.5279305,0.5981622,0.676882,0.67432255,0.67912817,0.7008459,0.6800379,0.68016946,0.64239246,0.6286073,0.6005991,0.5226011,0.45985195,0.46321398,0.43346202,0.4177681,0.419178,0.41163543,0.45710444,0.48161402,0.47395387,0.461232,0.43288806,0.43229052,0.45838347,0.5712447,0.694253,0.7223739,0.69510305,0.66897464,0.6531065,0.64004886,0.62318116,0.6027716,0.5628438,0.52718574,0.5102005,0.49450395,0.46732327,0.44589552,0.42657536,0.40803027,0.39895946,0.39308697,0.3859325,0.37805068,0.36822432,0.35655499,0.3452302,0.33056435,0.3136479,0.2726758,0.23785256,0.2081045,0.18188152,0.15975429,0.14111367,0.12678578,0.11408339,0.10273375,0.093010336
INT-20230206_0000008|TK-3145|HN|SEISSOL,INT-20230206_0000008,2023-02-06T01:17:36.000000Z,37.08,37.17,20.0,7.83,41.56393847190536,80.96893034637156,-1.0,37.33460078205768,1.6088008578412405,38.35444704459292,224.5008400435416,80.9029963801697,82.85954877556208,0.0,1.7734413896806909,0.0028523599688008,0.0,0.0,0.0028523599688008,68.77482738907234,TK,3145,36.4064,36.64536,TK-3145,533.0,True,0.23203146,PLEISTOCENE,113.2216324183526,2,False,190.59121292956655,0.910620986690454,0.0,0.1840384921390304,100.1817183054059,0.18395025,0.18374294,0.18444526,0.18620588,0.19099264,0.19173016,0.19265153,0.20004077,0.20260783,0.20909722,0.20989119,0.20928712,0.2090092,0.20798494,0.20564634,0.20804308,0.21020728,0.20791355,0.203985,0.20204057,0.20015432,0.1985684,0.19594863,0.2052992,0.2098901,0.20919833,0.21691556,0.23033278,0.23073938,0.23085639,0.23481764,0.2289108,0.22323735,0.20475854,0.20380753,0.19861148,0.20843685,0.23338813,0.24128357,0.21463943,0.20377052,0.20895156,0.20389417,0.20714647,0.20741887,0.20331295,0.23064971,0.23722288,0.23297158,0.23756494,0.2421319,0.25234595,0.29274833,0.30771035,0.31229022,0.2955534,0.30377308,0.31820944,0.41030213,0.41758987,0.40516767,0.38666505,0.36525917,0.37464958,0.46730033,0.5343741,0.53505886,0.49552396,0.43115205,0.39754465,0.3620329,0.34578806,0.35542512,0.34078112,0.32274085,0.32008,0.31908262,0.31490034,0.3002859,0.27908495,0.27641365,0.2746019,0.26228228,0.24459423,0.23717402,0.23342101,0.2319329,0.22986671,0.22882834,0.2428036,0.2500578,0.2524832,0.25384304,0.25200805,0.24722636,0.22604369,0.19809623,0.17381091,0.15472914,0.13725038,0.121471055,0.10727391,0.094665535,0.08340225,0.07386163
INT-20230206_0000008|TK-3302|HN|SEISSOL,INT-20230206_0000008,2023-02-06T01:17:36.000000Z,37.08,37.17,20.0,7.83,41.56393847190536,80.96893034637156,-1.0,37.33460078205768,1.6088008578412405,38.35444704459292,251.1735223945413,328.7057728808604,329.192793246152,225.11751791289095,225.09838402341924,-159.39326034817742,109.73112173346144,0.0,-159.39326034817742,-109.73112173346144,TK,3302,33.57584,36.1613,TK-3302,593.864990234375,False,0.10787733,PALEOZOIC,-2.222674383033448,2,True,130.9690040417288,0.8046644723468633,0.0,0.005729016910446785,5.214215706404438,0.005728841,0.0057128337,0.005763357,0.0057359426,0.0057246843,0.005723243,0.005721097,0.005719005,0.0057184985,0.005717049,0.0057165623,0.0057161823,0.005716025,0.005715885,0.0057156533,0.0057154745,0.0057152016,0.005715108,0.0057151397,0.0057151797,0.005715265,0.0057154633,0.0057157227,0.005716033,0.0057163876,0.0057167825,0.005717214,0.0057181767,0.005719258,0.005720445,0.005720821,0.0057217316,0.005723092,0.00572465,0.005726353,0.005728264,0.005730188,0.005732303,0.005736753,0.0057431455,0.0057456307,0.005747071,0.0057504633,0.0057560615,0.0057619894,0.0057700914,0.005779816,0.005794226,0.0058145756,0.005843897,0.005816248,0.0058731465,0.0058997124,0.0059683863,0.0060125752,0.006022513,0.006044674,0.00610945,0.00642851,0.006548138,0.0067968136,0.007100829,0.008709147,0.011990722,0.012081181,0.01082147,0.010875129,0.0122357,0.013799399,0.014696176,0.011816352,0.011748767,0.012030226,0.013480994,0.014785509,0.014731628,0.0139291305,0.014326508,0.014323592,0.014964986,0.015835125,0.016318493,0.016716622,0.015387605,0.017239014,0.020004313,0.021630788,0.02131584,0.018124014,0.015136908,0.013625987,0.01377702,0.015802968,0.016591849,0.015879765,0.011739457,0.0105773425,0.01228342,0.011706515,0.008996075,0.0067415694,0.005990362,0.005889262,0.005840753,0.0058010174
INT-20230206_0000008|TK-3304|HN|SEISSOL,INT-20230206_0000008,2023-02-06T01:17:36.000000Z,37.08,37.17,20.0,7.83,41.56393847190536,80.96893034637156,-1.0,37.33460078205768,1.6088008578412405,38.35444704459292,253.44503204550324,289.9736903415625,290.52564618343825,195.1028434504976,195.0873274294134,-148.790638757686,71.5737376600415,0.0,-148.790638757686,-71.5737376600415,TK,3304,33.93664,36.38226,TK-3304,273.09423828125,False,0.009037782,PLEISTOCENE,-16.456038071409814,2,True,477.5485598010452,1.9569153474207208,0.0,0.006524900535027309,4.718654778387146,0.0065244073,0.006523988,0.0065263803,0.006525064,0.0065249335,0.0065249777,0.0065252096,0.006525648,0.0065257945,0.006526399,0.0065267156,0.0065270434,0.006527212,0.006527383,0.006527736,0.006528102,0.0065290756,0.006530138,0.00653129,0.0065317764,0.006532533,0.0065338686,0.0065352973,0.0065368186,0.0065384344,0.006540144,0.0065419474,0.006545838,0.0065500997,0.00655473,0.006556164,0.006559508,0.006565685,0.0065729492,0.0065799137,0.0065856157,0.0065930295,0.006597571,0.0066120564,0.0066414108,0.006661138,0.006678279,0.0066950084,0.006707312,0.006699618,0.006713812,0.0067333383,0.006721181,0.0067175953,0.0067906557,0.0069183013,0.006970702,0.0070777806,0.0071929297,0.0072816154,0.007423965,0.007488573,0.007408407,0.008335259,0.008481291,0.008525947,0.009637514,0.010911458,0.009575134,0.00985147,0.010601968,0.011505088,0.011230273,0.010707259,0.012168836,0.012774303,0.013940958,0.016522637,0.018290203,0.01911704,0.018584391,0.01700146,0.015138284,0.012501979,0.0109214345,0.0122953905,0.013331855,0.016752997,0.018624041,0.017526984,0.018536752,0.018729098,0.019123368,0.021430904,0.021958634,0.020587454,0.018919498,0.015989058,0.013742234,0.012493372,0.0143769225,0.014911154,0.01349995,0.013319677,0.0113522345,0.009007183,0.008012963,0.007436696,0.006727157,0.006450839
INT-20230206_0000008|TK-3305|HN|SEISSOL,INT-20230206_0000008,2023-02-06T01:17:36.000000Z,37.08,37.17,20.0,7.83,41.56393847190536,80.96893034637156,-1.0,37.33460078205768,1.6088008578412405,38.35444704459292,262.5091526854481,192.13076246584552,192.9627940451401,134.745225140634,134.735395390509,-114.97941490613783,0.0,0.0,-114.97941490613783,24.725923422874143,TK,3305,34.89897,36.92142,TK-3305,362.0,True,0.0041909735,PLEISTOCENE,-12.261874778660736,4,True,400.27562419817485,1.4175910986377682,0.0,0.010917245765716068,7.45621850334015,0.0109166335,0.010916638,0.0109155355,0.010916076,0.010917244,0.0109174745,0.010917915,0.01091856,0.0109187765,0.010919667,0.010920133,0.010920615,0.010920864,0.010921115,0.010921634,0.01092217,0.0109236,0.010925158,0.010926848,0.010927562,0.010928674,0.010930635,0.010932736,0.010934978,0.010937362,0.01093989,0.010942561,0.010948337,0.010954788,0.010961064,0.010962906,0.0109682605,0.0109769795,0.010986454,0.010984005,0.010999917,0.011003018,0.011002021,0.011024031,0.011065273,0.011067441,0.011092674,0.011194932,0.011235891,0.011315508,0.011399437,0.011501269,0.011896919,0.012447413,0.013172025,0.013328891,0.0131256245,0.012796424,0.012869055,0.013003696,0.012475326,0.013198514,0.016056262,0.019917587,0.022063654,0.02237554,0.020156348,0.0232104,0.024652243,0.024689807,0.022173686,0.021318637,0.02385455,0.030026287,0.030553618,0.025817074,0.023883807,0.0224135,0.02192634,0.022565003,0.02250746,0.0223756,0.022071311,0.018987875,0.01935126,0.021934155,0.02715885,0.036605254,0.042088926,0.04138012,0.04262795,0.04489656,0.046403598,0.043439265,0.036267016,0.029156676,0.025028829,0.021744467,0.019447545,0.0182606,0.019476756,0.02286188,0.02058215,0.018147694,0.016340679,0.014264667,0.012429526,0.010834207,0.010215319,0.009969499
INT-20230206_0000008|TK-3306|HN|SEISSOL,INT-20230206_0000008,2023-02-06T01:17:36.000000Z,37.08,37.17,20.0,7.83,41.56393847190536,80.96893034637156,-1.0,37.33460078205768,1.6088008578412405,38.35444704459292,260.76971806986575,325.55671251404044,326.048436682266,244.425525628922,244.40413859766645,-195.0316131516556,75.29557645013095,0.0,-195.0316131516556,-75.29557645013095,TK,3306,33.43956,36.64169,TK-3306,343.8583679199219,False,0.011404051,CENOZOIC,-54.79677217175633,4,True,419.4619913782192,1.503471924681479,0.0,0.005345701336060595,4.736285807169132,0.005345391,0.005345623,0.005345792,0.005345986,0.0053462656,0.005346342,0.005346503,0.005346764,0.005346856,0.00534725,0.0053474624,0.0053476915,0.0053478116,0.005347934,0.0053481865,0.005348449,0.00534915,0.005349917,0.0053507495,0.0053511015,0.005351649,0.005352616,0.0053536515,0.005354755,0.0053559276,0.005357171,0.0053584855,0.0053613298,0.0053644706,0.0053679254,0.00536903,0.005371749,0.0053759012,0.005380427,0.005384482,0.00538966,0.0053949957,0.0054009752,0.0054146303,0.0054294346,0.0054357355,0.005434633,0.0054693106,0.0054852967,0.0054882457,0.0055070193,0.0055249725,0.0055436576,0.0055626337,0.0055837505,0.0056318697,0.0057129026,0.0056865243,0.0056589167,0.005650313,0.005700847,0.005803782,0.0059550856,0.0059625916,0.006533231,0.0066032032,0.0065483004,0.006663629,0.008295969,0.009229262,0.009167422,0.008754341,0.008407346,0.007361685,0.009062423,0.009461482,0.008827821,0.008135571,0.008526116,0.010680026,0.013215028,0.013083976,0.012455894,0.01106246,0.014298731,0.015790354,0.016989777,0.017357316,0.015067164,0.01245467,0.0099829575,0.009255673,0.009267269,0.011883601,0.014088074,0.013349026,0.0122195,0.01207066,0.011222277,0.012189959,0.013210946,0.011527021,0.010379441,0.009911798,0.009625306,0.009293124,0.0088603245,0.007476842,0.00668227,0.005918321
INT-20230206_0000008|TK-3307|HN|SEISSOL,INT-20230206_0000008,2023-02-06T01:17:36.000000Z,37.08,37.17,20.0,7.83,41.56393847190536,80.96893034637156,-1.0,37.33460078205768,1.6088008578412405,38.35444704459292,253.43110304943545,393.659667497984,394.0664205620967,290.97534253555926,290.9486835083086,-201.9052254856946,154.97371768337464,0.0,-201.9052254856946,-154.97371768337464,TK,3307,32.84224,36.08189,TK-3307,464.3147888183594,False,0.036951277,PLEISTOCENE,10.407620537643057,4,False,273.5484675263112,1.0663016059571906,0.0,0.0028169157657698144,3.802873175228301,0.0028166794,0.0028056388,0.002834975,0.002821137,0.0028118682,0.0028106936,0.0028089504,0.0028072654,0.002806862,0.0028057282,0.0028053606,0.0028050835,0.002804972,0.0028048763,0.0028047257,0.0028046204,0.0028045108,0.002804563,0.0028047329,0.0028048274,0.0028050446,0.002805498,0.0028060079,0.0028065697,0.0028071806,0.0028078384,0.002808564,0.002810186,0.0028119544,0.0028138726,0.002814478,0.0028159446,0.0028181726,0.0028205584,0.0028231048,0.002825814,0.002828688,0.0028317287,0.0028383208,0.0028456103,0.0028495248,0.0028536974,0.0028626602,0.0028674388,0.0028724223,0.0028830206,0.0028945142,0.0029006547,0.0029070845,0.0029207321,0.0029371073,0.0029552216,0.0029744278,0.0029845915,0.0029951322,0.0030169948,0.003041063,0.0031028395,0.0031706411,0.0032544911,0.003310109,0.0034482086,0.003641902,0.0038992404,0.0039890413,0.0040454045,0.0046626916,0.005138964,0.006082941,0.0069743763,0.007661557,0.007841039,0.008257907,0.008635637,0.008730327,0.0080976905,0.0073977043,0.0064708684,0.007695668,0.007871983,0.007448353,0.007423756,0.008729324,0.00941717,0.009107722,0.008312512,0.007929938,0.0076852194,0.0074335514,0.007020901,0.006370538,0.005611405,0.0048789987,0.0043155905,0.004011251,0.003938962,0.0033236826,0.0026744802,0.0023703713,0.0020895537,0.0017620154,0.0014087158,0.0013251364,0.0014757147,0.0015311182
INT-20230206_0000008|TK-3801|HN|SEISSOL,INT-20230206_0000008,2023-02-06T01:17:36.000000Z,37.08,37.17,20.0,7.83,41.56393847190536,80.96893034637156,-1.0,37.33460078205768,1.6088008578412405,38.35444704459292,321.8687402950485,216.78281734546948,217.520573501081,187.6818812776391,187.6733271129926,-180.3262162311155,0.0,0.0,-180.3262162311155,185.63037284101077,TK,3801,35.49986,38.68963,TK-3801,407.0,True,0.033175435,PLEISTOCENE,-84.0268637118921,4,True,347.01857601584504,1.239759880185546,0.0,0.002849067494600381,2.978406231541298,0.0028488531,0.002849095,0.002849293,0.0028494014,0.0028495719,0.0028496238,0.002849735,0.002849918,0.002849983,0.0028502624,0.0028504138,0.0028505728,0.0028506552,0.0028507395,0.002850914,0.0028510962,0.0028515856,0.0028521242,0.0028527125,0.002852962,0.0028533514,0.0028540415,0.0028547845,0.0028555812,0.0028564334,0.002857343,0.0028583142,0.0028604635,0.0028628462,0.0028666812,0.0028678305,0.0028696628,0.0028716542,0.00287606,0.0028824878,0.0028854914,0.0028865705,0.002890993,0.0029140702,0.0029399446,0.00296965,0.0030138278,0.0030259113,0.0030084688,0.002979344,0.0029648144,0.002974496,0.0029802904,0.0029842425,0.0030042161,0.0030110357,0.003023467,0.0031186345,0.0031279458,0.0031288874,0.0032422992,0.003463927,0.003885984,0.0039549577,0.0043538935,0.004546448,0.004625364,0.0051301853,0.0049062073,0.0045043733,0.004283264,0.0041913167,0.0038581218,0.00401595,0.004427558,0.0040188204,0.005066292,0.006080119,0.006339594,0.0065978095,0.0057564406,0.0050455886,0.0049741794,0.00478233,0.004740851,0.004480664,0.004746296,0.0061807483,0.00598746,0.0051463996,0.0057544666,0.0056185075,0.0052817343,0.0051270355,0.0051446753,0.005758634,0.0064053065,0.0066839396,0.0064620534,0.0063262484,0.0053292266,0.0050284197,0.0049602296,0.0048201033,0.0046683685,0.004648456,0.0046067173,0.0046666395,0.004734245,0.0047670263
INT-20230206_0000008|TK-3802|HN|SEISSOL,INT-20230206_0000008,2023-02-06T01:17:36.000000Z,37.08,37.17,20.0,7.83,41.56393847190536,80.96893034637156,-1.0,37.33460078205768,1.6088008578412405,38.35444704459292,342.20542394653177,153.3730982933756,154.41410971834617,120.52101280973076,120.51566405531722,-106.6467419109749,0.0,0.0,-106.6467419109749,217.9424970907999,TK,3802,36.50359,38.47812,TK-3802,305.0,True,0.036015984,CRETACEOUS,0.9055630912261452,4,False,454.836613412164,1.7245451379406145,0.0,0.0067926339476168,5.284527895504164,0.006791815,0.006792793,0.006795283,0.0067945146,0.0067946794,0.006794806,0.006795109,0.006795653,0.0067958534,0.006796734,0.0067972178,0.0067977295,0.006797995,0.006798267,0.0067988317,0.0067994217,0.00680101,0.006802778,0.006804722,0.0068055433,0.006806821,0.0068090744,0.0068114805,0.006814039,0.006816745,0.0068195947,0.006822582,0.0068289097,0.0068361303,0.006846306,0.0068501583,0.006862878,0.006878481,0.0069008106,0.0069253487,0.0069439244,0.006958135,0.0069763693,0.007051663,0.0070585716,0.007065637,0.0070913276,0.007112049,0.0070922826,0.0071760267,0.007304471,0.0074685263,0.0072855167,0.007161561,0.0072301966,0.0072348644,0.007544177,0.008424936,0.008704036,0.008748142,0.008275202,0.0073196096,0.009044856,0.010533244,0.011593281,0.011342695,0.010364004,0.010969871,0.013140656,0.012248313,0.010810049,0.010015724,0.012291133,0.011367068,0.010274702,0.010371506,0.0103928745,0.009284346,0.010035109,0.010985242,0.010793597,0.010694331,0.010054318,0.012434528,0.01223243,0.012595996,0.012132893,0.0107332915,0.009786839,0.010387735,0.00969242,0.0099931685,0.010350408,0.011212101,0.013264317,0.015339324,0.016548904,0.016993098,0.016675973,0.016237339,0.015774054,0.014196366,0.011291844,0.00826264,0.0058296327,0.005035042,0.0038697158,0.0034800305,0.0035323733,0.0032653785
INT-20230206_0000008|KO-ALAN|HN|SEISSOL,INT-20230206_0000008,2023-02-06T01:17:36.000000Z,37.08,37.17,20.0,7.83,41.56393847190536,80.96893034637156,-1.0,37.33460078205768,1.6088008578412405,38.35444704459292,262.8685534346894,450.7153967952608,451.0707027820688,366.3546848195834,366.3197836904038,-281.9557310551748,156.72113398918464,0.0,-281.9557310551748,-156.72113398918464,KO,ALAN,32.0327,36.557,KO-ALAN,713.1005859375,False,0.12948854,PLEISTOCENE,4.051543496194055,4,False,57.70305915534848,0.6526931798638519,0.0,0.00029849749406930413,0.634642135054075,0.00029848603,0.0002981665,0.0003000126,0.00029878254,0.00029837756,0.00029832884,0.0002982578,0.00029819118,0.0002981757,0.00029813385,0.00029812133,0.00029811257,0.00029810934,0.0002981068,0.00029810343,0.000298102,0.00029810515,0.00029811554,0.00029813134,0.0002981389,0.0002981515,0.00029817616,0.0002982088,0.00029824354,0.00029828039,0.00029831933,0.00029836036,0.00029844875,0.00029854543,0.00029865408,0.00029868825,0.00029877078,0.0002988954,0.00029902798,0.00029916843,0.00029931677,0.0002994729,0.00029963665,0.0002999868,0.00030036588,0.0003005657,0.00030077202,0.0003012027,0.00030142858,0.00030165943,0.00030213367,0.00030264098,0.00030291695,0.00030320522,0.0003038114,0.00030438034,0.00030497534,0.0003054671,0.00030552928,0.0003057104,0.0003071313,0.00030851824,0.0003075117,0.00031321205,0.0003234118,0.0003249041,0.00034532943,0.000371701,0.00038985477,0.0003893487,0.0004065449,0.00044924754,0.00044728737,0.00056586624,0.00058445404,0.0005958278,0.00059910875,0.0005748949,0.0004954297,0.00043454912,0.00039983212,0.00041790897,0.00046452935,0.0006272083,0.00070319156,0.00069000706,0.0006754298,0.00068027957,0.00053600164,0.0004000068,0.00042297877,0.0004834923,0.0005283536,0.00052266184,0.00045436117,0.00039069421,0.0004022672,0.00044848173,0.0005078825,0.00056735025,0.00058064004,0.00049677904,0.00038257218,0.00029640962,0.000270369,0.00028475217,0.00030741197,0.00032103967,0.00032671174,0.00032427054
