gmid,event_id,event_time,event_longitude,event_latitude,event_depth,magnitude,strike,dip,rake,rupture_width,depth_top_of_rupture,depth_bottom_of_rupture,azimuth,repi,rhypo,rjb,rrup,rx,ry0,rvolc,gc2t,gc2u,network,station_code,station_longitude,station_latitude,station_id,vs30,vs30measured,slope,geology,xvf,region,backarc,z1,z2pt5,fpeak,PGA,PGV,SA(0.010),SA(0.020),SA(0.022),SA(0.025),SA(0.029),SA(0.030),SA(0.032),SA(0.035),SA(0.036),SA(0.040),SA(0.042),SA(0.044),SA(0.045),SA(0.046),SA(0.048),SA(0.050),SA(0.055),SA(0.060),SA(0.065),SA(0.067),SA(0.070),SA(0.075),SA(0.080),SA(0.085),SA(0.090),SA(0.095),SA(0.100),SA(0.110),SA(0.120),SA(0.130),SA(0.133),SA(0.140),SA(0.150),SA(0.160),SA(0.170),SA(0.180),SA(0.190),SA(0.200),SA(0.220),SA(0.240),SA(0.250),SA(0.260),SA(0.280),SA(0.290),SA(0.300),SA(0.320),SA(0.340),SA(0.350),SA(0.360),SA(0.380),SA(0.400),SA(0.420),SA(0.440),SA(0.450),SA(0.460),SA(0.480),SA(0.500),SA(0.550),SA(0.600),SA(0.650),SA(0.667),SA(0.700),SA(0.750),SA(0.800),SA(0.850),SA(0.900),SA(0.950),SA(1.000),SA(1.100),SA(1.200),SA(1.300),SA(1.400),SA(1.500),SA(1.600),SA(1.700),SA(1.800),SA(1.900),SA(2.000),SA(2.200),SA(2.400),SA(2.500),SA(2.600),SA(2.800),SA(3.000),SA(3.200),SA(3.400),SA(3.500),SA(3.600),SA(3.800),SA(4.000),SA(4.200),SA(4.400),SA(4.600),SA(4.800),SA(5.000),SA(5.500),SA(6.000),SA(6.500),SA(7.000),SA(7.500),SA(8.000),SA(8.500),SA(9.000),SA(9.500),SA(10.000)
INT-20230206_0000008|TK-2309|HN,INT-20230206_0000008,2023-02-06T01:17:36.000000Z,37.08,37.17,20.0,7.83,41.56393847190536,80.96893034637156,-1.0,37.33460078205768,1.6088008578412405,38.35444704459292,38.60809331079406,234.0699374566991,234.7533719054596,62.939040616795786,63.21665131903091,-33.94927867935888,31.936010848530145,0.0,-33.94927867935888,374.2247397018059,TK,2309,38.72728,38.79913,TK-2309,653.7785034179688,False,0.05647132,PALEOZOIC,150.0,4,False,87.54153742052353,0.7208766091993025,0.0,0.035043327203512,6.797796406769694,0.0350585554944212,0.0361640412548534,0.0373660712802133,0.0365132814647164,0.0381765961137338,0.0383519375236297,0.039514236091331,0.0402313458210406,0.0402812881376916,0.0458041835367385,0.0462300356669097,0.0462507637094255,0.0483266541027363,0.0514567683336895,0.0565820139477141,0.0577718593216802,0.0625807059722797,0.0678858857455894,0.0670197610983112,0.0700911761129337,0.0765965180093158,0.0813651941390547,0.0919468821632048,0.1156159942271633,0.1227906903462948,0.1156139540640203,0.1036278209845185,0.0910353047346433,0.0883544674468569,0.0944067544505339,0.0887021901985326,0.0851846252022481,0.0835677123580267,0.0833464894313438,0.0747182258044861,0.0659593824014342,0.0688347408133994,0.0696721349514895,0.07428626954132,0.0597676194963239,0.0539711159570874,0.0540710655401095,0.0542949070855096,0.0536342798565692,0.0550930253021519,0.0541734665422817,0.0465106077911048,0.0462819099077871,0.0452841704074578,0.0472768929018103,0.0478867781472375,0.0535486812130596,0.0550762770809327,0.0532705698920533,0.0502762290821337,0.0510681168723193,0.0559313527121547,0.0492491308391167,0.0623063628553251,0.0653612195888537,0.0664884250427118,0.06389588896064,0.0475654387008673,0.0507574654333297,0.0611202330690041,0.0640428001355093,0.0490558467320113,0.0419109445024815,0.0402118063791855,0.037991681407953,0.0304405735856996,0.029924532998699,0.0397598281583269,0.0423539216544805,0.0418529899396749,0.0374144182772686,0.0329691231262478,0.0293673608328738,0.021384696997034,0.0190529548156387,0.0211834579739977,0.0219270044488766,0.0194588738261087,0.0172486404060384,0.0160962463880761,0.0142302358833183,0.0146004419636946,0.0150246881491532,0.0153718549158072,0.0161452881136527,0.0166532858013821,0.0172441952095434,0.016537541655237,0.0157088097937688,0.0142400124594793,0.014138773423023,0.0106166288227805,0.0086502998228208,0.0085404842401144,0.0079537869386127,0.0076741193813192,0.0071362497932172,0.0079263550089683,0.0076945511539579,0.0072906912859472
INT-20230206_0000008|TK-2310|HN,INT-20230206_0000008,2023-02-06T01:17:36.000000Z,37.08,37.17,20.0,7.83,41.56393847190536,80.96893034637156,-1.0,37.33460078205768,1.6088008578412405,38.35444704459292,44.465833687821714,221.2310897497968,221.9540607240216,38.941276214064885,39.327540556266,-14.608076148975131,25.318059408874944,0.0,-14.608076148975131,367.6067882621507,TK,2310,38.824528,38.57266,TK-2310,481.3999633789063,False,0.05252599,JURASSIC-TRIASSIC,150.0,2,False,251.85503673851431,1.023120196320683,0.0,0.0582977753043791,11.22776227582196,0.0582991053100238,0.0587649596905033,0.0590096365809362,0.0594405355584219,0.060218078443042,0.0601810141833151,0.0608326575864263,0.0605981722109257,0.0605919779450422,0.0632057700371697,0.0636384882557982,0.0637076397163905,0.0631990876133456,0.0624389172525689,0.0627287345842765,0.064913874253726,0.0640459592428763,0.0676772022164308,0.0730896519931093,0.0738703570515258,0.0736416782676898,0.0700048442789568,0.0706896353589134,0.0711681886025666,0.0699533709825657,0.0760168955104057,0.0790321318424888,0.0821845329011391,0.0829236927169783,0.0954773928256344,0.0953195607816175,0.0935797940955222,0.0992116649975782,0.108338608602007,0.1138561295762393,0.1049871295854771,0.1122892054019398,0.1157321563572023,0.117681219893131,0.1131225999290801,0.1214817309089578,0.1185008657791454,0.1195533254320433,0.1337035113488711,0.1427921408176614,0.1434790939481453,0.1492866207599863,0.1626598883566625,0.18241188722459,0.2224438635278651,0.2419874393402565,0.2656655798718251,0.2162004520002328,0.2031995109628268,0.2025799795288212,0.1863852979375597,0.1864675099421489,0.1640965211521772,0.1486640291976267,0.1201301716133278,0.1212232148459397,0.1167789304735304,0.0981897023035658,0.0819731495486183,0.0789717011386003,0.0687092749914463,0.074484172637686,0.0882410289689062,0.0779924298694313,0.0645858014888438,0.0566645794377883,0.0596091013327314,0.0576500277391751,0.0597986387978767,0.0530390904781563,0.0439879863718944,0.0460367585447024,0.0446863336019633,0.0332938528253003,0.0329313373818619,0.0354113209206871,0.0349063822250571,0.0301487639852389,0.024565789624719,0.0253922440305421,0.0270475446227653,0.0264363724839174,0.0253698618277018,0.0238822954949063,0.0219140502515191,0.0200347048880455,0.0170861632536868,0.0159832846882067,0.0175450837960996,0.0178528731715161,0.0176363625731074,0.0193070885301498,0.0181447457254576,0.0144951115203145,0.0120157979929112,0.0100315446603065,0.0092142982135491,0.0092641704878015,0.0094983483358169,0.0095027599885612
INT-20230206_0000008|TK-2401|HN,INT-20230206_0000008,2023-02-06T01:17:36.000000Z,37.08,37.17,20.0,7.83,41.56393847190536,80.96893034637156,-1.0,37.33460078205768,1.6088008578412405,38.35444704459292,36.13721461493037,358.12419393970845,358.57125970295766,181.3306156459541,181.72963153853252,-53.50598621098096,146.23801593887413,0.0,-53.50598621098096,488.5267447921499,TK,2401,39.51152,39.74183,TK-2401,314.0,True,0.017433792,PLEISTOCENE,150.0,4,False,447.3832382577916,1.668115296452196,0.0,0.0114740072347411,3.73963162237262,0.0114722822993831,0.0115203795006127,0.0115358033125498,0.0115762300333996,0.0116443095455213,0.0116464851711566,0.0116680914602767,0.0117026030382236,0.0117380937124245,0.012051543351237,0.0121498045660942,0.0122210917613209,0.0122160884022445,0.0121725991513175,0.0120517711130588,0.0119922662393896,0.0122658421961752,0.0124238897641745,0.0127121344062038,0.0128218461329892,0.0129207162864962,0.0145046061516563,0.0153481802460304,0.0146980672444399,0.0147806475548638,0.0158700892565492,0.0173644882962276,0.0183188187942408,0.0191707528911692,0.0208863192378007,0.0206313597806854,0.0213154722578022,0.0241802816260734,0.0240518626703975,0.02073138811364,0.0198533880166943,0.0176026146224558,0.017077212926009,0.0201848242057403,0.023413985493867,0.025233338339591,0.0254493868472666,0.0233089212164109,0.0207286874761777,0.0204185944924904,0.0181863806172098,0.0197636935499233,0.0193993035308306,0.0194385084482656,0.0182596330700919,0.0166145054149691,0.015223612814414,0.0147917729510707,0.0147012266797368,0.0142589098592395,0.0148268632751057,0.0157859655708034,0.01591591132044,0.0151513613565673,0.0154695158322889,0.0162905135620834,0.0180029871998768,0.0202222513852703,0.0203241269455032,0.0192970747460779,0.0221337580713243,0.0223397178061376,0.0238502067262487,0.0250741042898033,0.026803646493584,0.0245407737989341,0.0258399376326723,0.0285611426134567,0.0330985590456062,0.0336671560439937,0.0335130362729599,0.0328386284574323,0.0329505649645885,0.0351379155770667,0.0268483136440957,0.0237525555536204,0.0199623109189585,0.0179046674657508,0.0164048141681449,0.0184767373120638,0.0156433033291793,0.0140956694539261,0.0135296966853832,0.0117388555112657,0.0101292399285993,0.009266196002087,0.0099694107791372,0.010447837061822,0.0114534251557543,0.0127585585619107,0.0110087549954623,0.0116016088471896,0.0093306789029743,0.0068171082639462,0.006025515006817,0.0045782488407449,0.0029760077825653,0.0024089795436577,0.0023137144112487,0.002391277712465
INT-20230206_0000008|TK-2404|HN,INT-20230206_0000008,2023-02-06T01:17:36.000000Z,37.08,37.17,20.0,7.83,41.56393847190536,80.96893034637156,-1.0,37.33460078205768,1.6088008578412405,38.35444704459292,25.727611324872782,339.76234424743944,340.2335382770422,186.09842197757928,186.3553511789816,-104.21442426953568,110.57547485057148,0.0,-104.21442426953568,452.8642037038472,TK,2404,38.77056,39.90631,TK-2404,567.0,True,0.03517008,CENOZOIC,150.0,4,False,155.36634869206654,0.848427160117214,0.0,0.0086129784243221,5.865933280956252,0.0086120298538996,0.0089218790251607,0.0089556801245459,0.01022456984528,0.0102636881630601,0.0098258773920357,0.009336682623804,0.0099007144291988,0.0100916764453768,0.0103283828323958,0.010168153258263,0.0099902192052905,0.0100221394405547,0.0101014132601105,0.0103328062071493,0.0104489753272208,0.0107821248097763,0.0112801336819272,0.0108269370308894,0.0109427040979894,0.0113700187670265,0.0112508998944233,0.0105628260932421,0.0108573272937242,0.0108762868064741,0.010470102061698,0.009611534232644,0.0101122966670038,0.010706748744739,0.0098561480285235,0.0096358533269685,0.0096750672168853,0.0101180288036474,0.0102242808292246,0.0104144684137895,0.0101515782911922,0.0097106199947763,0.0092482554076217,0.0087629025100872,0.0093068373821982,0.0097497709187757,0.0098743098149927,0.0103951151903157,0.010017571682752,0.0102209700832267,0.0108092537315839,0.0097306306734336,0.0101702786371764,0.0107299767873062,0.0115185620069967,0.0114467976087206,0.0112336772667041,0.0119800229316583,0.012302052238683,0.012598800918161,0.0129155862349384,0.0126480907338704,0.0126594946741347,0.0139983770479983,0.0147477891646113,0.014740783578848,0.0159344835693738,0.0162208110353089,0.0175431456682119,0.019930121161523,0.0189714915727051,0.0170760388352115,0.0171474228222597,0.0208168958423881,0.0188421471083606,0.0174852731202685,0.018658871768251,0.0176133524679509,0.0177843772949996,0.019102859545109,0.0211382349529753,0.0219644219225065,0.0203156483444751,0.0156947649525634,0.0185448982972356,0.0183237816646044,0.018291979822248,0.0154665097949979,0.0133283105076453,0.0104153333768986,0.0106141431230196,0.0106702039391479,0.0103249718530481,0.0096059418928887,0.0105465919288077,0.0092330970569298,0.0088109787571605,0.0097548424347791,0.0105206923040075,0.0118243433314517,0.0137481167939154,0.0141536229255101,0.0158539881375244,0.0177385264977083,0.0177723009000502,0.0159463277379744,0.0136872897510309,0.011563683254498,0.0095168057624854,0.0080491528231231
INT-20230206_0000008|TK-2407|HN,INT-20230206_0000008,2023-02-06T01:17:36.000000Z,37.08,37.17,20.0,7.83,41.56393847190536,80.96893034637156,-1.0,37.33460078205768,1.6088008578412405,38.35444704459292,44.093353152831526,411.3685324832652,411.75779229716494,224.5610417729748,225.0337243273008,-5.239886734587113,204.6761794017008,0.0,-5.239886734587113,546.9649082549765,TK,2407,40.39108,39.77665,TK-2407,516.4157104492188,False,0.065076046,CENOZOIC,150.0,4,False,209.3871072433091,0.9441526491760824,0.0,0.0107775953010119,6.849749450995759,0.0107776903254267,0.0107999009260461,0.0108073616526091,0.010812767668964,0.0107688538196187,0.0107863372296443,0.0108216385210733,0.010847546185916,0.0108496180817067,0.0107784878465249,0.0108314325538441,0.0108476479003146,0.0108874138949509,0.0109614274723407,0.0110866208639047,0.0111330814077633,0.0110644713058487,0.0110158006948189,0.011110116184817,0.0111487758968681,0.0109905173246861,0.0111242985877899,0.0114583093667609,0.0120720079942918,0.0123233979643917,0.0122880754343354,0.0121343644724844,0.0126889730677996,0.0139374329679094,0.0139964601095444,0.0139061209266831,0.0133267720016902,0.0132545767431863,0.0152197383588495,0.0155594048239103,0.0149882262045089,0.0159261204821725,0.0172262829227981,0.019241804316227,0.0247436115676489,0.0227928472282382,0.0233744894329207,0.023827463013411,0.0236059539121319,0.0258520763866158,0.0239489901493817,0.0230316267039963,0.0237114161269052,0.0231274159990084,0.0250488326096873,0.0251233093139824,0.0265946323372848,0.0252976239050684,0.0242708117019752,0.02338694876977,0.02310674995516,0.0237285740104426,0.0250657390434527,0.022791184962282,0.0187172852122039,0.0188590214095364,0.0206194802759841,0.0239341129120631,0.023403041207699,0.0231048795193611,0.0212526878011001,0.021670716881954,0.0225418140187635,0.0191659537315626,0.0177485865120376,0.0167518425351818,0.0163968504541466,0.0165301901303302,0.0179476935530926,0.0205046658142788,0.019769567300907,0.0214553438686779,0.0268925547408127,0.0286058735603683,0.0234289587767487,0.020970688029351,0.0187200553760004,0.015479647968649,0.0138078293385918,0.015284433333042,0.0164778416324449,0.0169264328708767,0.0156160315603394,0.0136782028255745,0.0119185735520432,0.0105052787019596,0.0097499145728046,0.0097552917725266,0.0094369238899773,0.0102423326164456,0.0122728498928498,0.0130356881368608,0.012288356279476,0.0105706884308656,0.0102873259172454,0.0102910095447291,0.0092196420302919,0.0072651650938125,0.0066755602440901,0.006620810910904
INT-20230206_0000008|TK-2408|HN,INT-20230206_0000008,2023-02-06T01:17:36.000000Z,37.08,37.17,20.0,7.83,41.56393847190536,80.96893034637156,-1.0,37.33460078205768,1.6088008578412405,38.35444704459292,32.054133010963994,321.7302664499338,322.22782988119667,154.67885968715171,155.00573587329174,-70.06947804197986,105.7962715341709,0.0,-70.06947804197986,448.08500038744666,TK,2408,39.03454,39.60185,TK-2408,540.30859375,False,0.07617834,CRETACEOUS,150.0,4,False,182.6286150027074,0.8965433158379631,0.0,0.0282727462825689,7.039734486484701,0.0282733475902435,0.0283079925931926,0.0283178073205455,0.0283362288558583,0.0283506870405804,0.0283606547002838,0.0283738031810856,0.0283740979041042,0.028398346639449,0.0283611668732085,0.0284951622687803,0.0284318975897366,0.0283651386271438,0.0284742961755846,0.02864268540603,0.0285811785265449,0.0289014615545947,0.0286159086243532,0.0287641369479193,0.0289065175965648,0.0289743899080053,0.0286749971133793,0.0285799329512261,0.028659235609814,0.0284097692788461,0.0289511969125955,0.029077867455189,0.0291180839478752,0.0292277331833554,0.0297147317530951,0.0296228332244891,0.0299593676195039,0.0307108368806508,0.0319194200604043,0.0321629825495562,0.0327101565944958,0.0338755698758482,0.0328807721347335,0.0312643459359769,0.0343858515896159,0.035787377215229,0.0351695817274999,0.0382122722613611,0.0383764920354886,0.0372307485892742,0.0374157201488436,0.0399068164351275,0.0404135784284269,0.0393828789563553,0.0419736013838808,0.0444895843756936,0.045293140446905,0.0476607460129515,0.0507769283398344,0.0513050560070707,0.0473038025310707,0.0537407774313087,0.0643837912050946,0.0604116460438426,0.0597120257112083,0.0622721040403864,0.0609066600893438,0.0690984659269304,0.0844373582735668,0.0923214205648192,0.0932699807161161,0.107243505736612,0.1030050583516867,0.0736840176408305,0.0570196976116041,0.0657767042060796,0.0779859181320396,0.0670419193875365,0.0545824210212646,0.0416702494843147,0.0363387556427622,0.033323762593076,0.0330292478482647,0.0255044060270292,0.0226438877682883,0.0223837160516522,0.0233774710951214,0.020633179703302,0.0173927879731878,0.0189933828555162,0.0191805837947032,0.0184631567564342,0.0185916912455094,0.018026730385535,0.016709958344459,0.0145636768430709,0.0123196484698034,0.0126181457859692,0.0125106339553274,0.0139859567211686,0.0148374741898197,0.0134202199783807,0.0118872114631326,0.0122009860407092,0.0109901284221578,0.0097281526164425,0.0084897014362867,0.0072989860629806,0.0067121805972447,0.0063410565774423
INT-20230206_0000008|TK-2409|HN,INT-20230206_0000008,2023-02-06T01:17:36.000000Z,37.08,37.17,20.0,7.83,41.56393847190536,80.96893034637156,-1.0,37.33460078205768,1.6088008578412405,38.35444704459292,27.84812754571118,267.0510446309355,267.650276365398,118.09019814901636,118.26803529141084,-76.46066216658836,48.05343897406027,0.0,-76.46066216658836,390.342167827336,TK,2409,38.49109,39.2808,TK-2409,782.890625,False,0.3823567,PALEOZOIC,150.0,4,False,35.088002808478144,0.5865695746864391,0.0,0.0169448323429363,7.019358011537347,0.016945463077522,0.0169794195990773,0.0169740658286793,0.0170060875979432,0.0170702049709307,0.0170437613494492,0.0170619466969349,0.0174040914773962,0.017474536842056,0.0178646733563574,0.0179251536527642,0.0180120916632344,0.0181410205250857,0.0182278798403,0.0188621907009466,0.0189791201344761,0.0189825879052455,0.0189121041847564,0.0202250324581595,0.0201082427558934,0.0197427221796146,0.0203139981942495,0.0214917023577209,0.0233811754329388,0.0224003645716533,0.0205549989754789,0.0216898602842826,0.0235284372136684,0.02479512433411,0.0279659712079661,0.0277139352386221,0.0284303472906681,0.0323663278269104,0.0318818587041768,0.0337411449937446,0.0405859913780874,0.0433349324242465,0.0411469636011469,0.0417591894735678,0.0462513625494054,0.0477143972713978,0.0480172541126267,0.0609691797375987,0.05984961314099,0.0575649890741565,0.0543509551497765,0.0633597583154132,0.0654456395302498,0.0634661220048639,0.0551678296832629,0.0520977545503899,0.0460306898061712,0.0402533336514628,0.0394940844007107,0.0377792721502309,0.0386269768592555,0.0405894228793548,0.0361136446513598,0.0370662964501608,0.0379307216457437,0.0372456195469309,0.0342158722561671,0.0413593710330248,0.0369639072542329,0.0300331826492979,0.0237395762627883,0.0229484115114418,0.0233693237256531,0.0237553835156609,0.0197745325198913,0.017268080108677,0.0186630644935181,0.0187977539809607,0.0209365261179412,0.0201240266315262,0.0194649791087596,0.0227778361998098,0.0277299666050261,0.0253929890319394,0.0199911069587509,0.0175172102579885,0.014823967777646,0.0121489714980409,0.0112690192233582,0.0125661667324207,0.0123393803758278,0.0141056844959392,0.0156386232375042,0.0166271617380849,0.0157552946309648,0.014137706686353,0.0150433459339026,0.0148356954792747,0.0147905953468975,0.015506957280819,0.0179590131303189,0.0166014259475603,0.0147237589614939,0.014521121214543,0.0131419225798731,0.0121899048087652,0.0102352872180613,0.0078329667047123,0.0067943519869356,0.0070918761185759
