gmid,event_id,event_time,event_longitude,event_latitude,event_depth,magnitude,strike,dip,rake,rupture_width,depth_top_of_rupture,depth_bottom_of_rupture,azimuth,repi,rhypo,rjb,rrup,rx,ry0,rvolc,gc2t,gc2u,network,station_code,station_longitude,station_latitude,station_id,vs30,vs30measured,slope,geology,xvf,region,backarc,z1,z2pt5,fpeak,PGA,PGV,SA(0.010),SA(0.020),SA(0.022),SA(0.025),SA(0.029),SA(0.030),SA(0.032),SA(0.035),SA(0.036),SA(0.040),SA(0.042),SA(0.044),SA(0.045),SA(0.046),SA(0.048),SA(0.050),SA(0.055),SA(0.060),SA(0.065),SA(0.067),SA(0.070),SA(0.075),SA(0.080),SA(0.085),SA(0.090),SA(0.095),SA(0.100),SA(0.110),SA(0.120),SA(0.130),SA(0.133),SA(0.140),SA(0.150),SA(0.160),SA(0.170),SA(0.180),SA(0.190),SA(0.200),SA(0.220),SA(0.240),SA(0.250),SA(0.260),SA(0.280),SA(0.290),SA(0.300),SA(0.320),SA(0.340),SA(0.350),SA(0.360),SA(0.380),SA(0.400),SA(0.420),SA(0.440),SA(0.450),SA(0.460),SA(0.480),SA(0.500),SA(0.550),SA(0.600),SA(0.650),SA(0.667),SA(0.700),SA(0.750),SA(0.800),SA(0.850),SA(0.900),SA(0.950),SA(1.000),SA(1.100),SA(1.200),SA(1.300),SA(1.400),SA(1.500),SA(1.600),SA(1.700),SA(1.800),SA(1.900),SA(2.000),SA(2.200),SA(2.400),SA(2.500),SA(2.600),SA(2.800),SA(3.000),SA(3.200),SA(3.400),SA(3.500),SA(3.600),SA(3.800),SA(4.000),SA(4.200),SA(4.400),SA(4.600),SA(4.800),SA(5.000),SA(5.500),SA(6.000),SA(6.500),SA(7.000),SA(7.500),SA(8.000),SA(8.500),SA(9.000),SA(9.500),SA(10.000)
INT-20230206_0000008|TK-0127|HN,INT-20230206_0000008,2023-02-06T01:17:36.000000Z,37.08,37.17,20.0,7.83,41.56393847190536,80.96893034637156,-1.0,37.33460078205768,1.6088008578412405,38.35444704459292,306.4931113889774,122.54801999550428,123.84840412705574,94.61242486250588,94.66332579534308,-93.83722132591672,0.0,0.0,-93.83722132591672,144.42483239623374,TK,0127,35.92044,37.816183,TK-0127,583.0,True,0.10987928,PALEOZOIC,1.6253261945686115,4,False,140.46128729097092,0.8218428015662476,0.0,0.0591910720495523,6.069663256321013,0.0591862506791834,0.0594064411750228,0.059441999437666,0.0595301606154962,0.0597425107488484,0.0597467383278631,0.0600691560371519,0.0614676317222911,0.0617435312722324,0.0620994333497196,0.0626426947386571,0.0628413408997884,0.0628867391349338,0.063098697499924,0.0637161986801708,0.0664482037318895,0.0711793724072861,0.0769168110694785,0.0789736747335559,0.081790177978674,0.0877057094261087,0.0851524379690231,0.0829137030171412,0.0842076172326719,0.0886356318894602,0.0894335978462366,0.0899730917632729,0.0854312420562373,0.0955706149584631,0.1155255178587259,0.1155038682715462,0.1237727348216949,0.1267094527832975,0.1392437676092652,0.1491928325220237,0.1449585954249598,0.1477411054149515,0.170587377160138,0.1733435336814961,0.1794809756398434,0.191120874345171,0.1956660417474967,0.1895301109424022,0.171748229118943,0.1621921368385494,0.1554567066787921,0.1550528259267919,0.1728632747760179,0.1892839307435338,0.2133171646938991,0.2017072240624312,0.1989940577873,0.1706520561552895,0.1803741962462702,0.1814468714311478,0.1857493210179366,0.1653978029040644,0.1139441304407764,0.1100406500930384,0.1047165985318067,0.1084919650046363,0.1134895711534024,0.0948161064350325,0.0759292984248661,0.058221810771545,0.048658191089856,0.0474113638052529,0.0490954127029954,0.0454231144577514,0.0340567490650796,0.0285621482885746,0.0273556289702178,0.0321488293845539,0.0258111676622946,0.0269353626625052,0.0232396866506849,0.019095349985952,0.0168986865001541,0.0164844878055359,0.0132974810036398,0.0135096284447956,0.0124960768221747,0.011742108200798,0.0137742199293186,0.013948435245007,0.0129979594664246,0.0130630002406879,0.0129034238344365,0.0122263595619485,0.0116915905665012,0.0117283810964009,0.01108540989615,0.0104393953891246,0.0106417199762496,0.0110269958391739,0.0096704363718787,0.0087627716337767,0.0115244126357638,0.0122574513275867,0.011261063713068,0.010386302439759,0.0092485411968737,0.0072381537024604,0.0058108486727906,0.0041729114435065
INT-20230206_0000008|TK-0128|HN,INT-20230206_0000008,2023-02-06T01:17:36.000000Z,37.08,37.17,20.0,7.83,41.56393847190536,80.96893034637156,-1.0,37.33460078205768,1.6088008578412405,38.35444704459292,273.6588716110855,175.52722839193552,176.43757509939513,136.5506041426482,136.540518817017,-120.49982960936283,0.0,0.0,-120.49982960936283,59.95674775874684,TK,0128,35.062788,37.250287,TK-0128,494.0,True,0.04657889,CENOZOIC,-22.576687506050064,4,True,236.2040884014569,0.9933217675118952,0.0,0.0125892830319427,4.071877587116576,0.0125889136537647,0.0126355484420898,0.0126498870966696,0.0126771373105319,0.0127225084898547,0.0127296310598499,0.0127691661496916,0.0127931924481542,0.0127902581699572,0.0128377142178575,0.0129954410241025,0.0130405351978902,0.013041621869065,0.0130591127334696,0.0129773985611214,0.0129831096612499,0.0131769507824688,0.0137723078933635,0.0139714699034372,0.014440240201444,0.0149088718236943,0.0156662160304425,0.0159469829284506,0.0159443315569043,0.0159434385647694,0.0162381215738379,0.0179925601981121,0.017670536037075,0.0184428885922737,0.0204600324963212,0.0206574668030754,0.0188474418798926,0.0175327176558576,0.0193339243673232,0.0213739863116278,0.0246681895697482,0.0259263358476364,0.0247307058274222,0.0300049901547517,0.0284088820777091,0.0274328347262137,0.0259478235509863,0.0252575615999755,0.0257929129627346,0.0306911550653064,0.0293654428104927,0.0327254381709133,0.0339141805107216,0.032807530553275,0.0320218804492746,0.0324460942243754,0.0285966714008253,0.0277652931963138,0.0262053658634245,0.0253306679388809,0.0238749037444767,0.0268622269736872,0.0242578635087178,0.0273105060255387,0.0290510055455507,0.0295741000078283,0.0282127797954108,0.0298474751453561,0.0306499835789885,0.0318761660464562,0.03074743085134,0.0238058709204813,0.0233740968008555,0.0202360776102498,0.017659088447194,0.0189237765515899,0.0164469621253036,0.0143495593117709,0.0145272800152863,0.0145222988801479,0.0137663626887976,0.0124257723114155,0.0104228511842152,0.0102339845058948,0.0098967994962312,0.0096317707658146,0.0089569471340703,0.0081851448518617,0.0096855387794391,0.0101910956593313,0.0087247226973136,0.008451278842351,0.0081540589010032,0.0078607276507253,0.0076619441886492,0.0080861316095805,0.0084665193143136,0.0086143436673714,0.0082639706975747,0.0079234615170272,0.0080216279730591,0.0085213263562169,0.0076989293825347,0.006457038911619,0.0057295391460189,0.0053496196671503,0.0052092030915054,0.0053722062167918,0.0053945101219361,0.0048694078899889
INT-20230206_0000008|TK-0129|HN,INT-20230206_0000008,2023-02-06T01:17:36.000000Z,37.08,37.17,20.0,7.83,41.56393847190536,80.96893034637156,-1.0,37.33460078205768,1.6088008578412405,38.35444704459292,329.2285372535084,141.84858063109064,142.97352841367183,112.77886089956854,112.7736762545196,-106.41432960273858,0.0,0.0,-106.41432960273858,188.6992276185345,TK,0129,36.210863,38.259195,TK-0129,965.0,True,0.053165074,CRETACEOUS,-5.876756308347981,4,True,9.986690088617287,0.461757901520209,0.0,0.0482846271531129,9.245390061679949,0.0482610632481242,0.0490791462455752,0.0493261446355401,0.0497558325844306,0.050233348891714,0.0503267739537106,0.0508814132308422,0.0523738495333018,0.0526618632664671,0.0525879105210576,0.0533544130367735,0.0543545671437868,0.0554589815916137,0.0565552562295453,0.0588693505400962,0.0607059577372832,0.0690548297927266,0.0717317100469359,0.0736953053801832,0.0769927375180023,0.0834605174668394,0.0930322902886052,0.0972714268104517,0.1040841861292462,0.1033690076894263,0.1133394304300836,0.1060135923072021,0.1024574054165637,0.102901549452149,0.1035259665101245,0.1125689558811859,0.1212164952165562,0.136129374011703,0.1218991465327968,0.1294404218891101,0.1146656653403633,0.1264173032184974,0.1170594674232127,0.1234315074924247,0.1080359036023361,0.1143644618066964,0.1130249267264152,0.1166405430146641,0.1078171435281015,0.1109055186170822,0.1190864298866298,0.1098814658521058,0.1057666215827923,0.0968077300456296,0.0835060887424669,0.0822376602765936,0.074582214694943,0.0841360593572015,0.0818443841268559,0.0824409328022013,0.0715754171455035,0.067481753676767,0.0738161018397684,0.0647311063704013,0.0648381001485368,0.0592363337232955,0.0573732357924333,0.0495473111732852,0.0463700414106182,0.040931281547152,0.0387418811288911,0.0355755102788394,0.0469692048051831,0.042783887792957,0.041606462404372,0.0392467785893607,0.0431708233406629,0.0429058356442965,0.0424945084096183,0.035928176314373,0.0283909942793474,0.0292411276194964,0.0239321796289555,0.021211880771498,0.0183619558776758,0.0173693750834583,0.0151801434407437,0.0143325176168083,0.0143944606080031,0.0164278930414535,0.0163878184385238,0.0173014265066539,0.0172513057119249,0.0161926769664821,0.0162087737782956,0.0164970446505119,0.0152169835049468,0.0137833749274017,0.0121276074313729,0.0118712935276953,0.011543072971757,0.010426474014383,0.0119505694153785,0.0136524850037746,0.0143494668730314,0.014145637964835,0.0137432927060159,0.0126517798845073,0.0113834606000558,0.0105555073657792
INT-20230206_0000008|TK-0130|HN,INT-20230206_0000008,2023-02-06T01:17:36.000000Z,37.08,37.17,20.0,7.83,41.56393847190536,80.96893034637156,-1.0,37.33460078205768,1.6088008578412405,38.35444704459292,274.91052066000464,121.78538446256916,123.093825469419,87.64554327266046,87.65012198700049,-79.0446910127551,0.0,0.0,-79.0446910127551,90.6965330691591,TK,0130,35.67104,37.25186,TK-0130,265.4204406738281,False,0.006101241,PLEISTOCENE,20.373945542191336,4,False,482.15625126256725,2.021774281240164,0.0,0.0719633562008089,16.373291766907315,0.071958288711685,0.0722087076731602,0.0722820449550258,0.0723966201866722,0.0727909849906565,0.0728681755185192,0.0726748996434411,0.0725020476990728,0.0726064052399961,0.0730366304050234,0.0735227762419327,0.0736321210736914,0.0737436610930904,0.0739142873627782,0.0743124364240809,0.0744113938839763,0.0748584733626906,0.0761224453647589,0.078800222565544,0.0794863912621355,0.0799226121103942,0.0774976961584154,0.0845473962403949,0.0836320729471239,0.0864935898153472,0.0925597850498982,0.0916831803916411,0.0877401691304669,0.0830780363391481,0.0963354564947701,0.1029575683755811,0.1109552503927429,0.0961107731749875,0.0993445379442837,0.1110858322160015,0.1252965208946174,0.1551406238889063,0.1494975845753283,0.1317937047119034,0.1237712505448182,0.1210316968073348,0.1326289045763025,0.1545386483410583,0.1590601516368646,0.1629424775534738,0.1610991999190121,0.1603202573467679,0.1649587519937775,0.1731274639592875,0.1791353752249407,0.1725820441246198,0.1620395351872744,0.1691378226896143,0.1812137406379058,0.1911205406518228,0.1775739341191487,0.1695075367706831,0.1593418717355417,0.1291050823477544,0.1277993483196787,0.1175441642887771,0.114708810214611,0.1316252602442937,0.1401538002049066,0.1276082491184959,0.1375427872985528,0.1252972890823668,0.1209841089849428,0.0961672291393004,0.0976986290900382,0.0925766450638583,0.0989609631463194,0.1051735103439048,0.101509010778764,0.1017439648202087,0.1053505541560296,0.0966424483603933,0.0976384941021094,0.0966341722956297,0.0664222060988544,0.0624268699073944,0.0593765839527304,0.063419717767648,0.0620236504025901,0.0600668065098805,0.0567032421543992,0.0561970164745129,0.0581923999109256,0.0560011909667681,0.0574249173144631,0.0556079154266709,0.0509294400789278,0.0556709607130452,0.055683106505026,0.0508984002468638,0.0379012230053891,0.0253362640151062,0.0252177185630447,0.0233652285469081,0.0213993773614516,0.0185272410442367,0.0180679122775869,0.0162318742666471,0.0147245389776347,0.0139617729311214
INT-20230206_0000008|TK-0132|HN,INT-20230206_0000008,2023-02-06T01:17:36.000000Z,37.08,37.17,20.0,7.83,41.56393847190536,80.96893034637156,-1.0,37.33460078205768,1.6088008578412405,38.35444704459292,313.45133674853247,112.12473079258912,113.54455185217202,83.34015155113656,83.45937370287619,-83.73403654454799,0.0,0.0,-83.73403654454799,156.3179204940212,TK,0132,36.114868,37.855892,TK-0132,717.0115356445312,False,0.15296285,CRETACEOUS,13.065812139819624,4,False,56.120912780693,0.6486219996292794,0.0,0.0381398382583245,5.377331458481699,0.0381258751851873,0.0386077857621651,0.0387541242043383,0.0390585933301737,0.0392812662023632,0.0392727941780693,0.0399793973078903,0.0411332259995776,0.0408888687776743,0.0399117093869477,0.0420248772653316,0.0427872204129597,0.0431695621541474,0.0448086507495397,0.0468082896928842,0.0455958881759736,0.0523860951789531,0.0541973053477974,0.0560221773235719,0.0554692047015922,0.0569127384090595,0.0606682022431497,0.0653889538749436,0.0733530055086844,0.0799507475081275,0.0824210337707732,0.0847518062887207,0.08934834593196,0.0937080004156611,0.1006264959079432,0.0977851567762708,0.1011747087759384,0.0995808428782786,0.0953359763764031,0.0979727722572824,0.0950126751378804,0.1078142240902709,0.1068472607725912,0.0932239415380619,0.0817966999305919,0.0740356639089673,0.0782158343443545,0.085554090285376,0.0921122499683014,0.0941418845918238,0.0912607316407277,0.0994162351993822,0.1009231676104329,0.111983983794565,0.1064129461875477,0.0889259677547315,0.0803253805719657,0.0697834627950374,0.0669878274222612,0.0624119272616617,0.0621510542873927,0.065345141891533,0.0770118234768231,0.073492429527109,0.0700535326773861,0.068948469547858,0.0604636656625689,0.0583477354469918,0.0571365191407181,0.05102814561595,0.0450322016916137,0.039587458362735,0.0365978512771279,0.0361540599160397,0.027200581742028,0.0264011252282021,0.0231254116509186,0.0248954260389696,0.0256736267415998,0.028432460423682,0.027211138794011,0.027331161622616,0.0226067223390012,0.0193554209332378,0.017685546156433,0.0163275316365311,0.0154525543904621,0.0119255879281311,0.0092052270713103,0.0097845326735409,0.0094920775020871,0.0093911286998995,0.0095289407724542,0.0098231806947059,0.0098846361888888,0.009658493221972,0.0100532092864579,0.009882868706324,0.0090775650665838,0.0090786552427134,0.0103308112382911,0.0095805036948239,0.0099872635844039,0.0100399169793536,0.0104581733009121,0.0098325561622467,0.0087312349854548,0.0075732718363226,0.0063879255125513,0.0052060012018226
INT-20230206_0000008|TK-0133|HN,INT-20230206_0000008,2023-02-06T01:17:36.000000Z,37.08,37.17,20.0,7.83,41.56393847190536,80.96893034637156,-1.0,37.33460078205768,1.6088008578412405,38.35444704459292,302.14417629478856,122.32462546945077,123.62735941627726,95.19510504918772,95.20304070313924,-93.15319488334104,0.0,0.0,-93.15319488334104,136.7875079032003,TK,0133,35.864025,37.745495,TK-0133,548.7914428710938,False,0.10210633,PALEOZOIC,2.0685109436534668,4,False,173.64850087745717,0.8807072989562742,0.0,0.0724106838082112,6.083086828597629,0.0724039953340057,0.0726588390135017,0.0727456885151563,0.0729161382331605,0.0732754014435275,0.0733031230946777,0.0735061257725229,0.0738690870762426,0.0741510269889794,0.0742569511869651,0.074271588080624,0.0746815983879514,0.0748006654637798,0.0748246880042448,0.0744326349056146,0.0746565939008678,0.0767391800662953,0.0825237021206127,0.0857297492365764,0.0872763033507493,0.0905791577564935,0.0874206013877426,0.0904632171597941,0.0890647743489345,0.0995717998086988,0.1028944990630926,0.1105523091568692,0.1267944172941671,0.1369465131357017,0.1447553394236103,0.1447473605284056,0.1455721684370457,0.1512928798741379,0.1556362568037533,0.1731485154497071,0.1805069402638041,0.2014948647235759,0.1730912253764852,0.1770317797330122,0.1802850977358324,0.1749903996453063,0.1811145005361094,0.1854442205675821,0.1667609793330963,0.1702999155597708,0.1765997110672668,0.1765776633421945,0.1783656360900573,0.2002638921282927,0.2020618160031628,0.1768848314923271,0.1562166475305098,0.1560227646710737,0.1634829463645626,0.1658469923303181,0.1621948862349538,0.169122904565285,0.1509607227031189,0.1523944092000724,0.1174252285526977,0.1002534144815474,0.0869866582638873,0.0734179749473935,0.0673673028517489,0.0639321191232347,0.0521115690866651,0.0540178083891132,0.0504482676541874,0.052455041670722,0.0440844528969973,0.0420025971065358,0.0320393540591645,0.0301734335524334,0.026293772800094,0.0305440020887566,0.0280937778849909,0.0265401654180724,0.0259201055805189,0.0195632791073833,0.0177892959539269,0.0196816408409102,0.0188223263553144,0.0158918917853124,0.0180789581902449,0.0191475616732061,0.0175658996614243,0.0174333115487652,0.0165182256990188,0.0152305284311055,0.016490046427981,0.0149461122321238,0.0129528607904182,0.0117755471311689,0.0116883170461511,0.01170674565295,0.0116024909728414,0.0101950140899292,0.0106444623245669,0.0110233903671766,0.0112644051433024,0.0098121934204584,0.0086681726989192,0.0077102529511569,0.0063046599901236,0.0046604710547643
INT-20230206_0000008|TK-0134|HN,INT-20230206_0000008,2023-02-06T01:17:36.000000Z,37.08,37.17,20.0,7.83,41.56393847190536,80.96893034637156,-1.0,37.33460078205768,1.6088008578412405,38.35444704459292,302.09935717306985,122.2198751103454,123.5237138042264,95.1001955436346,95.10766391248016,-93.04730119614644,0.0,0.0,-93.04730119614644,136.7227247771606,TK,0134,35.864475,37.74427,TK-0134,548.7914428710938,False,0.10210633,PALEOZOIC,2.1789877964895794,4,False,173.64850087745717,0.8807072989562742,0.0,0.0587905787897902,6.571323700462429,0.058788444136051,0.0591331107695776,0.0592296507180694,0.0594086803225835,0.0595773079340216,0.0596645017877875,0.059791536980062,0.0600552496093016,0.0599965156789503,0.0604700174300646,0.0607306597696021,0.0605502146928038,0.060554685206018,0.0606792154198948,0.0612916838579239,0.0614843529587931,0.0611178350574146,0.0614640332299802,0.0620716801625846,0.0642576974413857,0.0679176773896861,0.0731833244470322,0.0719755938217574,0.0738620957779553,0.0713697046786994,0.0759894294911807,0.0865226056618081,0.0979906536846819,0.1050308942739014,0.1350832612410281,0.1415207886986372,0.1502783379225901,0.1526412580415729,0.1450484109140165,0.1674647496911153,0.1809674048838677,0.1420909431052761,0.1151149283737344,0.1228854568041974,0.1092621042550412,0.0966310693891439,0.100954046357242,0.1185138054867437,0.1255595310591416,0.136346963445746,0.1465772899385842,0.1460369647030421,0.1604365424026355,0.1652643492574901,0.1725786573802898,0.1526190625023636,0.1366797146023244,0.1289677918962402,0.1353651471396363,0.1365517100760995,0.1453678189926173,0.1431972274555769,0.1448487806170481,0.1491931441322271,0.1042357505213173,0.0876346853899944,0.0802379004698415,0.0806769243015671,0.0721258962982152,0.0621734086070004,0.0565530052173356,0.0571293347965571,0.0608719303587276,0.0605378843081619,0.0469782518386221,0.046199920889424,0.0355836034239583,0.0309481366065408,0.0261471209506036,0.0303945328638311,0.0286017911716128,0.0271944096391277,0.0266250113409126,0.0198446265118633,0.0177293787655943,0.0191967574112182,0.0185491884315441,0.0158463882641149,0.0182798819870259,0.019423281276669,0.0180539659435911,0.0179462539431872,0.0170238974751377,0.015812934832706,0.0171137382875466,0.0154090609325873,0.0135189294646601,0.0123351727082764,0.0119953096334001,0.0121142154667651,0.0120011823610706,0.0106659365536402,0.0111701082085407,0.0116035914307231,0.0114828404915541,0.0101782949905546,0.0090471462241909,0.0077874667090133,0.0064035540027706,0.004670695817613
