gmid,event_id,event_time,event_longitude,event_latitude,event_depth,magnitude,strike,dip,rake,rupture_width,depth_top_of_rupture,depth_bottom_of_rupture,azimuth,repi,rhypo,rjb,rrup,rx,ry0,rvolc,gc2t,gc2u,network,station_code,station_longitude,station_latitude,station_id,vs30,vs30measured,slope,geology,xvf,region,backarc,z1,z2pt5,fpeak,PGA,PGV,SA(0.010),SA(0.020),SA(0.022),SA(0.025),SA(0.029),SA(0.030),SA(0.032),SA(0.035),SA(0.036),SA(0.040),SA(0.042),SA(0.044),SA(0.045),SA(0.046),SA(0.048),SA(0.050),SA(0.055),SA(0.060),SA(0.065),SA(0.067),SA(0.070),SA(0.075),SA(0.080),SA(0.085),SA(0.090),SA(0.095),SA(0.100),SA(0.110),SA(0.120),SA(0.130),SA(0.133),SA(0.140),SA(0.150),SA(0.160),SA(0.170),SA(0.180),SA(0.190),SA(0.200),SA(0.220),SA(0.240),SA(0.250),SA(0.260),SA(0.280),SA(0.290),SA(0.300),SA(0.320),SA(0.340),SA(0.350),SA(0.360),SA(0.380),SA(0.400),SA(0.420),SA(0.440),SA(0.450),SA(0.460),SA(0.480),SA(0.500),SA(0.550),SA(0.600),SA(0.650),SA(0.667),SA(0.700),SA(0.750),SA(0.800),SA(0.850),SA(0.900),SA(0.950),SA(1.000),SA(1.100),SA(1.200),SA(1.300),SA(1.400),SA(1.500),SA(1.600),SA(1.700),SA(1.800),SA(1.900),SA(2.000),SA(2.200),SA(2.400),SA(2.500),SA(2.600),SA(2.800),SA(3.000),SA(3.200),SA(3.400),SA(3.500),SA(3.600),SA(3.800),SA(4.000),SA(4.200),SA(4.400),SA(4.600),SA(4.800),SA(5.000),SA(5.500),SA(6.000),SA(6.500),SA(7.000),SA(7.500),SA(8.000),SA(8.500),SA(9.000),SA(9.500),SA(10.000)
INT-20230206_0000008|TK-0634|HN,INT-20230206_0000008,2023-02-06T01:17:36.000000Z,37.08,37.17,20.0,7.83,41.56393847190536,80.96893034637156,-1.0,37.33460078205768,1.6088008578412405,38.35444704459292,317.18905482724324,453.87031065566094,454.2231487877585,424.7505000921043,424.8697389321896,-408.0342002282254,0.0,0.0,-408.0342002282254,190.8031595043935,TK,0634,33.415955,40.106133,TK-0634,373.0,True,0.029432913,CENOZOIC,-58.60231938773481,4,True,387.9234058545854,1.3698678672521256,0.0,0.005811649189218,3.6406948781755935,0.0058116047013804,0.0058130772061955,0.0058137839096126,0.0058164146704648,0.0058131819137773,0.0058128542702486,0.0058113079124764,0.005814863886711,0.0058167036426192,0.0058197809313915,0.0058188829181297,0.0058175284536553,0.0058154255288407,0.0058132428142866,0.0058157789511542,0.0058172531436542,0.0058169992750734,0.0058170129366332,0.0058169409251034,0.0058199629969587,0.005823102198555,0.0058253984448986,0.0058282130667797,0.0058289868508574,0.005831144193485,0.0058363995563235,0.005837487414766,0.0058454721251112,0.0058544281989788,0.0058474570677842,0.0058514233186178,0.0058651553790117,0.0058891073514685,0.0058930236774065,0.0058992506859906,0.0058834349965862,0.0058803311737445,0.0058780439313241,0.0058991013112748,0.0059848494338002,0.0060646605892888,0.0061806286896684,0.00620127787976,0.0062120273919656,0.0063029743992073,0.0063954536801389,0.0064618991651355,0.0064204602190732,0.0062864740081808,0.0063874003364218,0.0065555381534083,0.0065860940543111,0.006408603724964,0.0064079443006101,0.0064872604083952,0.0068252579386113,0.0071142775845117,0.0079430999010008,0.0082486394402212,0.0080087872100204,0.0079477831963489,0.0086971000035244,0.0094959840944985,0.0109484448906301,0.0111277202688136,0.0116688893679247,0.0120221516420741,0.0129180175949849,0.0131256728530337,0.014888125580113,0.0123721144876667,0.0142338240407503,0.0155048543051698,0.0174343256984179,0.0170803303500364,0.0156503079928485,0.0167257442118096,0.0210444111695337,0.0219715512728806,0.0206745309980724,0.015441739139858,0.0143303888236226,0.0168544489858206,0.0162754092390148,0.0169253297393741,0.0137383921748861,0.0128945314074531,0.0110514620204209,0.0085365798433625,0.0067438269898137,0.006183680394722,0.0058223056069709,0.0054554588266188,0.0048827729520787,0.0047541835790385,0.0044320708755341,0.0052505899178307,0.0050924290772352,0.005018023860776,0.0058018187899521,0.0064976749817034,0.0061612534314454,0.0057931295172221,0.0053803592618088,0.0050792951427326
INT-20230206_0000008|TK-0714|HN,INT-20230206_0000008,2023-02-06T01:17:36.000000Z,37.08,37.17,20.0,7.83,41.56393847190536,80.96893034637156,-1.0,37.33460078205768,1.6088008578412405,38.35444704459292,262.93880639051866,454.7927529197593,455.14487595526464,370.4134359907432,370.37809789936335,-284.8896658871597,159.2728095810719,0.0,-284.8896658871597,-159.2728095810719,TK,0714,31.98667,36.55547,TK-0714,566.0242309570312,False,0.08737379,PLEISTOCENE,6.50168182062876,4,False,156.31079965091908,0.8501005859725163,0.0,0.0024789604911538,1.859406857194608,0.0024788733644723,0.0024812732900301,0.0024819511466028,0.0024860949473626,0.0024913015342223,0.0024934367346673,0.002497753346531,0.0025020945597612,0.0024977590606643,0.0024997895368465,0.0025054702227141,0.0025046927073787,0.0025022662373325,0.0025006224169437,0.0025043719687896,0.0025154632473412,0.0025193540140081,0.0025575349982931,0.002566972126166,0.0025503570946349,0.0025398564646867,0.0026187412227168,0.0026839177810323,0.0026947011667269,0.0027414700873621,0.0027275129540283,0.0028111631716495,0.0028691547113133,0.002939380950089,0.0029154260251237,0.0029496561686357,0.0030166446218124,0.0032103741757884,0.0034103032247794,0.0032049585105716,0.0032453172228566,0.0031739064290916,0.0032970093441599,0.003439625102032,0.0038676646059866,0.0038297804570279,0.0037927087445772,0.0038060525404304,0.0041072209943168,0.0041608674537463,0.0052429151123965,0.0056530294614935,0.0057311387249284,0.0058166980828287,0.0063437615446989,0.0059009405861072,0.0057995884809535,0.0053214636189755,0.0055637732287304,0.005328458278395,0.0058485825596853,0.0059674944194403,0.0052209770336738,0.0060523544073705,0.0064574648715513,0.0061858889679821,0.006371715347232,0.006366612973821,0.0057502136570917,0.0046929115964454,0.0052716398735242,0.0048901039437876,0.0051355819454536,0.005821347329701,0.0051141615512802,0.0045273288888996,0.0041957688281889,0.0043764262909359,0.0051697761247292,0.0046385585093154,0.0041875804294632,0.0049250565560178,0.0057076291240796,0.005239884781103,0.0049539823973061,0.0049541134565661,0.0046475764997362,0.0045172121359332,0.0046864414390998,0.0050668422902611,0.0052477702305905,0.0046927536323199,0.0042272193532918,0.0040267430039442,0.0039059519706531,0.0042558333967735,0.0043947568775225,0.0042979427531518,0.0039630384328723,0.0033703793654532,0.0038610368333182,0.0043979127769879,0.0036461368648814,0.0027264238759518,0.002185648863081,0.0020600766647098,0.0023394987607193,0.0025479660420704,0.0027289390228659,0.0024888310977992
INT-20230206_0000008|TK-1911|HN,INT-20230206_0000008,2023-02-06T01:17:36.000000Z,37.08,37.17,20.0,7.83,41.56393847190536,80.96893034637156,-1.0,37.33460078205768,1.6088008578412405,38.35444704459292,336.35858279580424,378.63543104732406,379.0583063915008,346.81770814643903,346.72832228285745,-309.8586342175179,0.0,0.0,-309.8586342175179,290.50402774669016,TK,1911,35.25307,40.27218,TK-1911,477.4253234863281,False,0.03815263,CRETACEOUS,150.0,4,False,256.86015805169427,1.0328701969920946,0.0,0.0030354557992965,3.11828292697677,0.0030354789176461,0.0030360315441153,0.0030365201651226,0.0030381132298088,0.0030381064128981,0.0030387753470677,0.0030417021576883,0.0030417329725946,0.0030399771049876,0.0030479319236532,0.0030485378305747,0.0030469812582882,0.0030473479307017,0.0030464517832359,0.003045221951647,0.0030474271779094,0.003050143114364,0.0030518790504274,0.0030489691130734,0.0030510664807106,0.0030562753587525,0.0030608598987829,0.0030586715344922,0.0030627180213165,0.0030629009161662,0.0030673547051112,0.0030682330766153,0.0030805607272907,0.0030918152417896,0.0031069251073141,0.0031122815975218,0.0031084335618469,0.0031298077159394,0.0031447571594436,0.0031301190251196,0.0030894099771488,0.0030941988465655,0.0031985118800576,0.0032846758620168,0.0032233216302954,0.0032244292756972,0.0033022272535321,0.0033477778810213,0.0034539477248722,0.0034915627489304,0.0035067966954086,0.0035313395416267,0.0035674410638775,0.003692462179279,0.0040571001927074,0.0042749602715811,0.0041221280068808,0.0043091966712621,0.0044254258904256,0.004459477630873,0.0042759730280964,0.0041483614368938,0.0045588827223479,0.0043367240936455,0.0047520327778312,0.0048578261787301,0.0047804335606781,0.0047595660677569,0.0053172282441951,0.0052046034049617,0.0052698257145338,0.0057343826797093,0.0063248775304735,0.0062619670960813,0.0064557556450855,0.0062421683317152,0.0065155547742146,0.0068262841508894,0.005313580969105,0.0050374417060506,0.0052670592341151,0.0057208162520498,0.0052358762698223,0.0050262333551362,0.0050050399331049,0.005345968619999,0.00477955383694,0.0047394862698397,0.0052194505076667,0.005439507366122,0.004946673636285,0.0056481972086453,0.006449672686609,0.0058385048840659,0.0055405773757237,0.0060992760796267,0.0060420719416575,0.00501495651216,0.0045739778872671,0.0043523758157624,0.0042853721977928,0.004668209540635,0.0038625813474032,0.0038098294834344,0.0035290807118485,0.0030213466623353,0.0031724519308854,0.0034236089187387,0.00374415090246,0.0040079210220084
INT-20230206_0000008|TK-2101|HN,INT-20230206_0000008,2023-02-06T01:17:36.000000Z,37.08,37.17,20.0,7.83,41.56393847190536,80.96893034637156,-1.0,37.33460078205768,1.6088008578412405,38.35444704459292,72.0675727314815,291.32573476722627,291.8751338118139,132.27872085655537,134.54445465522343,131.0968490640492,71.50530355362486,0.0,131.0968490640492,413.7940324069006,TK,2101,40.20278,37.93088,TK-2101,519.0,True,0.00864109,PLEISTOCENE,150.0,0,False,206.3950408381044,0.93877631687522,0.0,0.0728195273214714,14.822188028606298,0.0728099448882391,0.0731404550797236,0.07323757772893,0.0733624865265008,0.0735698486849786,0.0736331488654682,0.0738532459078949,0.0743102828391491,0.0742974964110043,0.0731118191456353,0.0734678671743999,0.0753177230074797,0.0762498756641435,0.0775363747514763,0.0802781198941641,0.0807602333725918,0.0814134064561994,0.0839182667255342,0.0876281956010847,0.0861357127766545,0.0813943660588608,0.0851178291101038,0.0924450348487076,0.0917655436765085,0.0885218991706918,0.0899541005678545,0.0960275875413599,0.108183700680927,0.1230485476987087,0.1409200653187709,0.1391623008926871,0.141303175119463,0.1483199559277528,0.1797758438336586,0.1720513107456512,0.1432291591683199,0.129711527808269,0.1415038926112719,0.15172368647315,0.159787117528764,0.1607109338396962,0.1667919991574048,0.1854630780149365,0.1856827264732037,0.1844893959495547,0.144336546966417,0.1389285063441559,0.1361988154471158,0.1322955187839757,0.1411240667948961,0.132010962776235,0.1370395024985805,0.1266199681588348,0.1287264619378851,0.1308148287287729,0.1246462410956436,0.1251783245459826,0.1428473883831943,0.1697076126394302,0.1732940295470226,0.1848982886629287,0.1806686696515092,0.1438377023424488,0.1412244882090662,0.1808039036156814,0.1771739090124992,0.170752994260699,0.1659446708784012,0.1500038788031323,0.1320163043070887,0.1482579995089074,0.1107746207240342,0.0938739747970085,0.1180189561879946,0.1245186524586773,0.1226169121226675,0.1147781103413502,0.1256866629405949,0.0952111156494069,0.0704627928297904,0.0651975940502602,0.0577027868727456,0.0659830224379703,0.0734809799790085,0.0638951040107006,0.0464072748394227,0.0415179446265254,0.0370090643431052,0.029893198003626,0.0265720807176577,0.0228949333575374,0.025367182798938,0.0245716198324339,0.0245102785934676,0.0243670534438495,0.0183843334735197,0.0123939597730865,0.0121019763353618,0.0130888380030389,0.0133715297686225,0.0130655379548333,0.0140596837912567,0.0145784856633643,0.0137551592367983,0.0119265070440538
INT-20230206_0000008|TK-2103|HN,INT-20230206_0000008,2023-02-06T01:17:36.000000Z,37.08,37.17,20.0,7.83,41.56393847190536,80.96893034637156,-1.0,37.33460078205768,1.6088008578412405,38.35444704459292,72.30455665430134,301.00252546695293,301.5342938000314,141.33346868769888,143.52181048128847,136.9219551304222,78.90208238602094,0.0,136.9219551304222,421.1908112392967,TK,2103,40.31274,37.94406,TK-2103,365.8244934082031,False,0.022002041,PLEISTOCENE,149.99999999999997,0,False,396.0386190402239,1.4006496660183274,0.0,0.0500113273946045,13.760140086313196,0.0500143825643348,0.0501057502347032,0.0501284811029629,0.050155007683745,0.0501631650104544,0.0501758775998652,0.0501883673737448,0.0502751382715902,0.0502802608130208,0.0504195832233928,0.0505236881201998,0.0506115465507683,0.0506228990268518,0.0505965500562597,0.0506184942194381,0.0506723986901818,0.0508144300865396,0.051029638661295,0.0515137426928259,0.0516007422549001,0.051881328635919,0.0529521366102721,0.0533136479504573,0.0543899030145561,0.056329777004211,0.0590516767051265,0.0601144244004838,0.0598109755228711,0.0584963737047302,0.062136345701813,0.0636413580876918,0.0651822143401923,0.065944486848949,0.065448099139187,0.0672551448784314,0.0672721471245223,0.0684963532794445,0.0723307026418571,0.0720628184237386,0.0818676549831399,0.0933508246303019,0.0966304285737435,0.0917228664319318,0.0890007199006473,0.0886720928258686,0.1126720135083839,0.1081992420722511,0.114442869022719,0.1156795519936061,0.1216767640906213,0.1249161624057787,0.1082864129253649,0.1072780174053187,0.1115136184553124,0.1127945094415837,0.1120477539513811,0.1087089181610884,0.1159962646632671,0.1320046423988074,0.145888144374942,0.1324387441936745,0.1322699468605975,0.1132530577568297,0.108554037930163,0.1007973909365881,0.1161313492684388,0.1173061336961086,0.1192576099480498,0.1300791978994938,0.1111049690598764,0.1066019365076525,0.0945323380146681,0.0854506513956691,0.0951199672587283,0.1115034667379579,0.1258355559957153,0.1154006863808262,0.1172366108488924,0.0974175237597321,0.0811854513163492,0.0772554406009106,0.0744319512742788,0.0766567699950753,0.0756533383705045,0.0705237355445924,0.0584199834521722,0.0534855401263415,0.0482024203524412,0.0387145000342727,0.0351657897965074,0.0315064247682187,0.0294322646740632,0.0311592502530677,0.0311138786583296,0.030744624267991,0.0237185333365129,0.0190970346809256,0.0182207101529355,0.0190634983803742,0.0195629545382787,0.018179007881369,0.016664685281569,0.0158866839517296,0.0143736726199306,0.0125225841679241
INT-20230206_0000008|TK-2104|HN,INT-20230206_0000008,2023-02-06T01:17:36.000000Z,37.08,37.17,20.0,7.83,41.56393847190536,80.96893034637156,-1.0,37.33460078205768,1.6088008578412405,38.35444704459292,62.10436295019559,268.37654431264843,268.9728230457474,89.8139503223182,91.63588513648747,71.54676887200164,67.70864547354381,0.0,71.54676887200164,409.9973743268196,TK,2104,39.759,38.2644,TK-2104,481.0797729492188,False,0.047265366,CENOZOIC,150.00000000000003,2,False,252.25714775239152,1.0238992452572115,0.0,0.0919630352145362,17.160818605899905,0.0919570413460631,0.0980274122996416,0.0989939309453796,0.1066613796625583,0.1466132438142908,0.1510287260085439,0.190637437556061,0.1994425764849677,0.2069682467971587,0.2197979424731463,0.2091414144165404,0.1989136612837467,0.1958496398227283,0.1923677348514072,0.17933021728351,0.1707762102488255,0.1579757277042571,0.1317827287230938,0.1214792412756342,0.1251438484635063,0.1338929058812558,0.1442181207353277,0.1268661156375991,0.1147381296985598,0.1141649549749806,0.1120905672308485,0.1095028321275041,0.1341857113537687,0.1439048700377211,0.1644130212437686,0.1629298083604385,0.1697225332623512,0.1856298714951197,0.226995958884895,0.2252361598861996,0.2336372332705282,0.2120722566387269,0.2078424309542099,0.195897345752686,0.1565413594211847,0.1403144836163153,0.1269117018969345,0.1265339923614903,0.1254391068594142,0.1251928480535936,0.1431920698008084,0.1532433529185806,0.1632914234259813,0.1765019987108648,0.1920091471214323,0.1948826753906511,0.2110014766503336,0.2137812301693921,0.211855787498506,0.2050819598560987,0.1980179414246632,0.1933084184116544,0.1742112755159658,0.1228532792864542,0.1205573312900765,0.1139577151049685,0.1180012147846488,0.1096754082359907,0.1203944980575239,0.1191309947735525,0.1087946386996157,0.1230237226714397,0.1333524847355225,0.1155802640593705,0.115220283799651,0.1288310452559501,0.1454419538193774,0.1401310556925125,0.1209479857197609,0.1106178168510909,0.1191778062893659,0.1391417482844842,0.1354078860456879,0.0978076723933174,0.0695599125630485,0.0649865777059492,0.0612177614548058,0.0497549774130636,0.0494176551613888,0.0413944550432195,0.0336202512405205,0.0316694658131201,0.0285836751001053,0.0255807040446066,0.0232159019342316,0.0210816086749873,0.0195753075304822,0.0185433007824996,0.0177386627472077,0.017580915452031,0.0220139902433345,0.0240385082705987,0.0255634810868992,0.0253636489191638,0.022511099045554,0.0202909504900157,0.0193685894654501,0.0197771410487969,0.0195816914226013,0.0183155082709349
INT-20230206_0000008|TK-2106|HN,INT-20230206_0000008,2023-02-06T01:17:36.000000Z,37.08,37.17,20.0,7.83,41.56393847190536,80.96893034637156,-1.0,37.33460078205768,1.6088008578412405,38.35444704459292,64.44046657634527,347.8744202452426,348.3346412014798,169.28549548426446,170.6763224879297,112.79950811349237,134.21415313861274,0.0,112.79950811349237,476.5028819918885,TK,2106,40.647,38.4616,TK-2106,568.1028442382812,False,0.07921331,CENOZOIC,150.0,2,False,154.30377590976283,0.8465432201387215,0.0,0.0616690530695336,10.143437099809608,0.0616837158788981,0.0624169947524995,0.0626059551723986,0.0625344143412259,0.0635942238253869,0.0638381546681739,0.065338903326251,0.0673176534768223,0.0676392358495017,0.0714640320207419,0.0736664851248359,0.0740332460800627,0.0759692656159679,0.0775201145426219,0.0803916933383727,0.0789714263223973,0.0797865537100703,0.0825263231638096,0.097070951403195,0.0933183612079424,0.0964927342165359,0.1061622207610323,0.1106474449085477,0.1236703159366305,0.1338673991971061,0.1451123221755682,0.1477167913990428,0.1696441222679324,0.1591657390342814,0.1575357760748993,0.162015385499498,0.168454245716276,0.1788771041623689,0.1776995125414994,0.1768794770623857,0.1759789339870318,0.1869858528720306,0.2101714277971431,0.1799861003993307,0.1463030333365616,0.1619411559970715,0.1723710434448865,0.1773681509566458,0.1794090214731496,0.1867364290572845,0.1806158395286975,0.1542022942151355,0.1393013154828805,0.1391881942137192,0.1441619305672961,0.1585697204250808,0.129124735007497,0.1088214375934847,0.1012850975885481,0.0933067652113867,0.0867478770799781,0.0905091904910751,0.0928188216561502,0.1061706857839728,0.0948930117321888,0.0830120122205359,0.0778590369724588,0.0714117085135041,0.0647705314437932,0.0568819919837359,0.0621961712914798,0.06429164169969,0.0676142330267036,0.0713901742975459,0.065213886234527,0.0617352123035189,0.0628683382455485,0.046402339861863,0.0570467176586608,0.0634331076324368,0.0586068035347372,0.0482428235955321,0.0433398432418869,0.0399132855340049,0.034915607717562,0.0356291256727648,0.0323968201462203,0.0298250369849632,0.0252825606002403,0.0187531778368927,0.018052552076421,0.0172145508363693,0.0161957639946419,0.0143825790955336,0.0123095851678032,0.010850360786431,0.0105019427133108,0.0101859638470363,0.0093685631823603,0.0099886015635815,0.0109853858420526,0.0127491869100512,0.0133218733366949,0.0114260300362009,0.0109529832262768,0.0092037293919275,0.0078218924990792,0.0066241838708709,0.0061792867317613,0.0067044739657894
