gmid,event_id,event_time,event_longitude,event_latitude,event_depth,magnitude,strike,dip,rake,rupture_width,depth_top_of_rupture,depth_bottom_of_rupture,azimuth,repi,rhypo,rjb,rrup,rx,ry0,rvolc,gc2t,gc2u,network,station_code,station_longitude,station_latitude,station_id,vs30,vs30measured,slope,geology,xvf,region,backarc,z1,z2pt5,fpeak,PGA,PGV,SA(0.010),SA(0.020),SA(0.022),SA(0.025),SA(0.029),SA(0.030),SA(0.032),SA(0.035),SA(0.036),SA(0.040),SA(0.042),SA(0.044),SA(0.045),SA(0.046),SA(0.048),SA(0.050),SA(0.055),SA(0.060),SA(0.065),SA(0.067),SA(0.070),SA(0.075),SA(0.080),SA(0.085),SA(0.090),SA(0.095),SA(0.100),SA(0.110),SA(0.120),SA(0.130),SA(0.133),SA(0.140),SA(0.150),SA(0.160),SA(0.170),SA(0.180),SA(0.190),SA(0.200),SA(0.220),SA(0.240),SA(0.250),SA(0.260),SA(0.280),SA(0.290),SA(0.300),SA(0.320),SA(0.340),SA(0.350),SA(0.360),SA(0.380),SA(0.400),SA(0.420),SA(0.440),SA(0.450),SA(0.460),SA(0.480),SA(0.500),SA(0.550),SA(0.600),SA(0.650),SA(0.667),SA(0.700),SA(0.750),SA(0.800),SA(0.850),SA(0.900),SA(0.950),SA(1.000),SA(1.100),SA(1.200),SA(1.300),SA(1.400),SA(1.500),SA(1.600),SA(1.700),SA(1.800),SA(1.900),SA(2.000),SA(2.200),SA(2.400),SA(2.500),SA(2.600),SA(2.800),SA(3.000),SA(3.200),SA(3.400),SA(3.500),SA(3.600),SA(3.800),SA(4.000),SA(4.200),SA(4.400),SA(4.600),SA(4.800),SA(5.000),SA(5.500),SA(6.000),SA(6.500),SA(7.000),SA(7.500),SA(8.000),SA(8.500),SA(9.000),SA(9.500),SA(10.000)
INT-20230206_0000008|TK-2411|HN,INT-20230206_0000008,2023-02-06T01:17:36.000000Z,37.08,37.17,20.0,7.83,41.56393847190536,80.96893034637156,-1.0,37.33460078205768,1.6088008578412405,38.35444704459292,38.79236453239798,405.2797391460724,405.6748414214375,223.6047151412605,224.03856280832855,-40.56305666963151,194.3527579708472,0.0,-40.56305666963151,536.6414868241229,TK,2411,40.02086,39.97017,TK-2411,516.4166870117188,False,0.013988797,CENOZOIC,150.0,4,False,209.38597238387925,0.9441506066483714,0.0,0.0969994571452246,8.310700500386652,0.096991782950649,0.0974464087417559,0.0975210420061185,0.0977317179265779,0.0978786667903007,0.0979309102975055,0.0980319139323547,0.0986301938524065,0.0983303941578245,0.0973964448245658,0.098234996472865,0.1009045048743013,0.1017742623967603,0.1028961523190741,0.1033695860378211,0.1027874781663957,0.104927672024584,0.1084986432848907,0.1125309692467463,0.11227877008936,0.1108995582585574,0.1175920510073077,0.129330343609613,0.1307234575736187,0.1305035855221288,0.1399029529545225,0.1459297728617682,0.1631736878359723,0.1723651871951711,0.1599282067103525,0.1552619396867981,0.1584931680261182,0.1561351258062613,0.1674382825894047,0.1779318551733351,0.1876478995081667,0.2183440948756345,0.2355200901544469,0.2351117188230814,0.2993386875985463,0.3259902674404845,0.3580710347871139,0.3770324238293844,0.3710703269510948,0.359139342160474,0.3670396355587235,0.3799878522269562,0.3705188185180679,0.3440385540244214,0.3112644858776388,0.2884495243978764,0.2711699185150334,0.2383632382629861,0.2228097094566344,0.2110113495722688,0.1878722182236879,0.1611017204698732,0.1113746974982836,0.0825464180686997,0.0712731302127714,0.0641864727869214,0.0582898028225884,0.0505482508849294,0.043319857302879,0.040134442900513,0.0389874772860494,0.0320297731577976,0.0296415399691322,0.0247613898912826,0.0230246960524466,0.0209239538615259,0.0167963125408762,0.0146616488197262,0.0148427782719273,0.016971815164627,0.0174734789089186,0.0161341090165843,0.0156625907584096,0.01323093507206,0.0138572869154055,0.0141767794566581,0.0147396235235724,0.0164741488773116,0.015162190898678,0.0147178833895149,0.0150436696425226,0.0150503504788281,0.0148216310189449,0.0137451315393332,0.0123782783038463,0.0112290923714704,0.0100962227276755,0.0089569486610663,0.0080607914298701,0.0089552957596216,0.0098076864813155,0.0102545605562562,0.0097781665741852,0.0096469183900397,0.0087290514653249,0.0081955660174557,0.008066852756623,0.008026597859985,0.007785391971813,0.0074707515119191
INT-20230206_0000008|TK-2412|HN,INT-20230206_0000008,2023-02-06T01:17:36.000000Z,37.08,37.17,20.0,7.83,41.56393847190536,80.96893034637156,-1.0,37.33460078205768,1.6088008578412405,38.35444704459292,39.75940676896056,355.06992214794195,355.520828664293,173.09535711374448,173.5315989068182,-32.94023174716539,147.68289924249666,0.0,-32.94023174716539,489.9716280957724,TK,2412,39.69179,39.59168,TK-2412,955.0,True,0.0647764,CENOZOIC,150.0,4,False,10.670120858956729,0.4672934839047902,0.0,0.0080550497290101,5.366410293640856,0.0080544928281793,0.0080796809234625,0.0080887363876031,0.0081545283043868,0.0082832789935955,0.0083852105973977,0.0085593926964481,0.0083131280164338,0.0085510953194725,0.0091568517681224,0.0093081442480713,0.009528582938303,0.0097530276837785,0.0097780699229664,0.009591083489813,0.0099182038764108,0.0096354248051451,0.0106216263384207,0.0119095929439685,0.0121749329098137,0.0125144046510126,0.0155865561692581,0.0148818487132228,0.015130015400699,0.0146913156979194,0.0151123842211568,0.0164574402944998,0.0164691055419041,0.0170993259112739,0.0170169108049833,0.017546819078297,0.0182795633110321,0.0168981141446531,0.0158071866081157,0.0163378533539082,0.0177815860853229,0.0179816075442601,0.0179117837628879,0.0175375662639927,0.0182608400763851,0.0193329392048993,0.0186599487208118,0.0200053492728955,0.0203742755341607,0.0205642609407263,0.0202434432930258,0.0209316639449354,0.021489749400092,0.0228974833508101,0.0221068106251446,0.0168379461118666,0.0144157213061551,0.0148461738350618,0.0147381795807357,0.0142286732511641,0.0138708285952378,0.0136881571774808,0.0125955333179041,0.0129459525862523,0.0133370532189679,0.0134380000413742,0.0125163469621775,0.0119351423685428,0.0118397554648494,0.0132868709584822,0.0159209173061207,0.0162974965386221,0.0176570878981872,0.0153952932326416,0.0159382839092754,0.0181646662350755,0.0154152162893232,0.0144488201482397,0.01305298204728,0.0144538421916848,0.014159485372905,0.0141136610911144,0.014156620087577,0.0120040005502044,0.0108163850918488,0.0108083949908876,0.010733267162541,0.0097658981010408,0.0083937264183309,0.0091447130685307,0.0087605080584389,0.0087445828459823,0.0093018222835534,0.0091415745947475,0.0082653012484691,0.0073785899927677,0.0064302337668934,0.0065674096593163,0.0066893897943423,0.0069734403846844,0.0082909476050131,0.0097657672109944,0.0087482305571658,0.0080898849438602,0.0071629103032098,0.0065302124391252,0.0063414312191745,0.0062762064000245,0.0061084098085553,0.0061104400956308
INT-20230206_0000008|TK-2413|HN,INT-20230206_0000008,2023-02-06T01:17:36.000000Z,37.08,37.17,20.0,7.83,41.56393847190536,80.96893034637156,-1.0,37.33460078205768,1.6088008578412405,38.35444704459292,40.67789651542387,392.7711963856352,393.1788685957108,209.10658649441797,209.5552281195461,-28.07806619225737,184.43074077685665,0.0,-28.07806619225737,526.7194696301324,TK,2413,40.03856,39.80771,TK-2413,435.0,True,0.04158948,PRECAMBRIAN,150.0,4,False,311.349484087633,1.148899055096044,0.0,0.0639444664620029,5.525879424038989,0.0639536431874163,0.0644350970668878,0.0645685910342888,0.0648522160144654,0.0653030446527785,0.0652989485357551,0.0652800811226232,0.0655509096191721,0.0656012924774898,0.0658396292702053,0.06658472097889,0.0670874603754375,0.06703329454689,0.0671280149458923,0.0680751953056755,0.0691237332107164,0.0711420218901172,0.0753285581774621,0.0761484975266717,0.0748707996290464,0.0725046652646883,0.0752748207876681,0.0789393691376931,0.0787207868732532,0.0802101352941384,0.0806583863762295,0.083203317193446,0.0914638506888654,0.1177792072206037,0.1346895470810963,0.1364741995519567,0.1354835556946191,0.1358234253365284,0.1279194919402505,0.1273198011297444,0.135802115826311,0.1428055483089179,0.1521319428259321,0.1658124239716503,0.1971129357318354,0.2172579085496037,0.2289561398985832,0.2395771273288386,0.2473123686399818,0.268555205459723,0.2616628828488831,0.207879773482792,0.1930423342491244,0.1811313093714665,0.1695771220082551,0.1595600701784131,0.1403727595208514,0.117854639357126,0.107478880432022,0.0977245026135295,0.0923604978810621,0.092537982035269,0.0793401933606913,0.0705291149669293,0.0780485404432535,0.0816645622399347,0.0842587515392325,0.0813152874656863,0.0729079151014827,0.0629624527559223,0.0497148252694723,0.039905407439911,0.0365159961026613,0.0344085121583053,0.037438918893652,0.0336044378447944,0.0296212548291408,0.0294101713613551,0.0327641343851287,0.0320510787267256,0.0377121939163185,0.0383075736770498,0.0322770075564386,0.0288092494754982,0.028621095231238,0.0269374439921544,0.0220112294617902,0.0152117735970844,0.0127370829399866,0.0118321597289114,0.0110229390242075,0.010663012382694,0.0103265584982705,0.0090584067198345,0.0080666028309452,0.0073121792762801,0.0065586375557755,0.0065649150217637,0.0065271664863742,0.0070977343244213,0.0076814529336377,0.0070223967288515,0.0071792428781848,0.0065098351785388,0.0064014075884346,0.0061494806871262,0.0057969455217122,0.0058316476238909,0.0058073630121591,0.0056892592266229
INT-20230206_0000008|TK-2414|HN,INT-20230206_0000008,2023-02-06T01:17:36.000000Z,37.08,37.17,20.0,7.83,41.56393847190536,80.96893034637156,-1.0,37.33460078205768,1.6088008578412405,38.35444704459292,34.551951984871835,358.0974374583322,358.54453658398444,184.00285839889716,184.38388368980404,-62.2961698414917,143.93246861384256,0.0,-62.2961698414917,486.2211974671183,TK,2414,39.41862,39.79505,TK-2414,372.0,True,0.1312144,PLEISTOCENE,150.0,4,False,389.0668968417537,1.3740813939269525,0.0,0.0111449102797937,4.298265145695378,0.0111450350553243,0.0111568493907301,0.0111604197793891,0.0111683879756497,0.0111839271315044,0.0111962080243011,0.0111968827422484,0.0112190841705247,0.0112218578986027,0.011206089815973,0.0112608293044705,0.0112908273755777,0.0113119935271434,0.0113251193463341,0.0113438766444955,0.0114019910741312,0.0114152075702696,0.0112768026853713,0.0113567068106487,0.0114033931220829,0.0115295997844353,0.0115411113347143,0.0116266588784958,0.0123282615740994,0.0126749933597833,0.0126405571554213,0.0124330648085842,0.0131972814674574,0.0136433992955642,0.0155170068440176,0.0164703950259844,0.0206105868002746,0.0262109210628755,0.0266146919316626,0.0252370239200547,0.0220109967731158,0.0199768700813983,0.0196253869346827,0.0185080548114295,0.0177882888686567,0.0187479062610785,0.0184466801840214,0.0218717935643922,0.0225944162844894,0.0222841056902067,0.0237281928509757,0.0241921993894348,0.0249460681338888,0.0248519414389757,0.0271816836176493,0.026298305339021,0.0259337533865757,0.0273241076050992,0.0275141347624305,0.0260836094207945,0.027513139405028,0.0276606000439164,0.0229434131784408,0.0223371211241378,0.02481966266019,0.0237482749450143,0.0222842607765519,0.0238582774440487,0.0264207127061414,0.0276544849925439,0.0221482074757614,0.0211523407850384,0.0206418574321407,0.02022691055629,0.0242323530247018,0.0252939965712159,0.0226343753651845,0.0188232517839972,0.0218260225022181,0.021050768484401,0.0192752928440348,0.0205491187582026,0.0214784447914866,0.021910308791011,0.0192863494185316,0.0176501430973251,0.0161615798748937,0.014270305934958,0.0140209131008146,0.0152279762800468,0.0156455370570902,0.0153942502595008,0.0149311879765198,0.0148876702697766,0.0141219742038933,0.0140921825620434,0.0135662632069221,0.0126359994013985,0.0133625560838654,0.0134630024402675,0.0112327882864846,0.0093170046572884,0.0082394748451821,0.0077387122266387,0.0075349285021044,0.0066395815775468,0.0053702732058845,0.0042469387897414,0.0037993287787799,0.0034720620840719
INT-20230206_0000008|TK-2415|HN,INT-20230206_0000008,2023-02-06T01:17:36.000000Z,37.08,37.17,20.0,7.83,41.56393847190536,80.96893034637156,-1.0,37.33460078205768,1.6088008578412405,38.35444704459292,26.883720504956443,287.30108294765165,287.8581634466763,137.22760769783315,137.4331446014114,-85.26051400348511,64.91129222233616,0.0,-85.26051400348511,407.2000210756119,TK,2415,38.55493,39.46104,TK-2415,444.0,True,0.087507546,CENOZOIC,150.0,4,False,299.72871281350587,1.1222961275525754,0.0,0.0192038868152804,8.581245465519514,0.0192035910164843,0.0192244143142839,0.0192324309854538,0.0192441169000558,0.0192261829633914,0.0192268017832875,0.0192573392506868,0.0193179217395949,0.0193175237765197,0.0193095626634619,0.0193071863508045,0.0193189108332049,0.019308808698492,0.0193099833805732,0.0193312410033513,0.0193877491335848,0.0194818861143599,0.0195374670820198,0.0196425301536564,0.0196777939609841,0.0196645681877565,0.0199053203241048,0.0202607971233968,0.020233663181105,0.0198830508754567,0.0203141504378278,0.0206234981349815,0.0220241187508652,0.0225876790550545,0.0217346797706921,0.0219613840035533,0.0219175057285873,0.0232042741995417,0.0250751640382814,0.0241677882532999,0.0224017370517541,0.0224988638425538,0.024754531339867,0.0262168904780875,0.0281533252343016,0.0291221224781577,0.0307321051286988,0.0378702119357794,0.0364273747523089,0.0383833937164858,0.043307103598339,0.0466458190186039,0.0505750983669777,0.0492909351763054,0.0460333569042614,0.0435343876369174,0.0511335519277567,0.0546285115334007,0.0548518658131848,0.0518891486230405,0.0465366270264302,0.0458427057331942,0.0499777459035383,0.0505163456428571,0.0567383584521574,0.0579939379847186,0.0564944231649732,0.0531649250247625,0.052579024191252,0.0454119319805966,0.0474019239091018,0.0499245036326693,0.0466306584827284,0.0402248168025839,0.0440516409276219,0.0408157557279931,0.0407596702872908,0.0365300625891583,0.0348942221743089,0.0317755176053688,0.0333746840856792,0.0359036369496427,0.0344015547993156,0.0308768075750773,0.0263415109367513,0.0279692283384477,0.0288804959738591,0.022754260995873,0.0208455550903759,0.0198954827468891,0.0212066723834429,0.0218385348525629,0.0223077144023548,0.021010482993244,0.0186425643981713,0.0161302165177951,0.0151680675126395,0.0151269582965562,0.0144297108991372,0.0155658916489305,0.0203643844306724,0.0225167253499809,0.0206497528333632,0.0180208174715131,0.0154791857197962,0.013071277543261,0.0111826859767766,0.0087417119967286,0.007935433651851,0.0076397743529245
INT-20230206_0000008|TK-2506|HN,INT-20230206_0000008,2023-02-06T01:17:36.000000Z,37.08,37.17,20.0,7.83,41.56393847190536,80.96893034637156,-1.0,37.33460078205768,1.6088008578412405,38.35444704459292,44.85230877224535,440.1263740473155,440.490221380722,252.73179622925124,253.20696384843612,1.6259429297447114,232.36698971263436,0.0,1.6259429297447114,574.6557185659101,TK,2506,40.68134,39.91733,TK-2506,388.15960693359375,False,0.025765514,CENOZOIC,150.0,4,False,370.1330723915478,1.3088375732164543,0.0,0.0066871901802767,5.585388198568495,0.0066868994138593,0.0101910793232929,0.0103529133505542,0.0122142233988637,0.0111774564961061,0.0100763269681262,0.0093680679245428,0.0073601348547094,0.0071888410081701,0.006773336247698,0.0068136021627812,0.0067878926400726,0.0067794156962812,0.0067914869168017,0.0068584313234785,0.0068929921132299,0.0069709119868581,0.0069223988389032,0.0069941671630515,0.0070956701151021,0.0073033629037936,0.0074472390127063,0.0079064103535754,0.0077439421741688,0.0074788407845713,0.0077453590220028,0.0077949541854872,0.0078126162490054,0.0085398355397048,0.0091267502043294,0.0093973006966552,0.009428465205875,0.0087615684938287,0.007854359130448,0.0090678499985071,0.0095015042625159,0.0090878052944114,0.0086059859737777,0.0098167872401593,0.01061783785083,0.011183216977889,0.0111062084154383,0.0121355086168144,0.0124585551144981,0.0136984218105577,0.0158121146845985,0.0177544047223875,0.0180892870628999,0.018069941796646,0.0187942503033122,0.0171463558307589,0.0155458656457788,0.0166696223758939,0.0162803782826886,0.0155951834155692,0.0143299189214369,0.0145936684043589,0.0120396077870135,0.0114275773120163,0.009664485235683,0.0087155050151985,0.009104808139799,0.0074984952798229,0.0077378311350017,0.0079217981727578,0.0075888529959612,0.0073522109318466,0.0081725149384709,0.0086592080722893,0.0093636956699642,0.0113145786909411,0.0106748474924258,0.0106948154905967,0.0105436026534108,0.0089744360937712,0.0096816301779097,0.0100822821894452,0.009999138360802,0.0102787694192543,0.0099373138686246,0.0115618656009025,0.0124106819001407,0.0102994172886483,0.0082844706948411,0.0092205610527327,0.0091532829221653,0.0094456171590313,0.0094042758554488,0.0091765557227272,0.0098510023515682,0.0106719164594125,0.0109338540272334,0.0117493309870009,0.0108239919514493,0.009830180819682,0.0096609246140453,0.0095660666970285,0.0075778649162441,0.0070510867547255,0.006285722925981,0.0052466445263075,0.0052175017241362,0.0057159800521813,0.0060291119547582,0.0062138816307622
INT-20230206_0000008|TK-2508|HN,INT-20230206_0000008,2023-02-06T01:17:36.000000Z,37.08,37.17,20.0,7.83,41.56393847190536,80.96893034637156,-1.0,37.33460078205768,1.6088008578412405,38.35444704459292,47.62958028794958,469.4614822473114,469.8026110121597,280.822958855343,281.2917836279572,25.09452055762574,260.79816721426994,0.0,25.09452055762574,603.0868960675457,TK,2508,41.11017,39.94292,TK-2508,267.96612548828125,False,0.007537681,PLEISTOCENE,149.99999999999997,4,False,480.6636847187257,1.9998166514783235,0.0,0.0099072735630653,6.462394389791606,0.0099073395226846,0.0099155385321248,0.0099175283472007,0.0099212313542101,0.0099276360641745,0.0099273935374404,0.0099305218746975,0.0099356760397918,0.0099336686209459,0.0099579381378357,0.0099558138161508,0.0099571631651854,0.0099570707278381,0.0099718270282306,0.0099889880343537,0.0099806718211,0.0100005892485058,0.0099794513124538,0.0100206182652417,0.0100317536127171,0.0100538492110446,0.0100562937476019,0.0100592917341588,0.0102150580892469,0.0102117964908036,0.0102858446377825,0.0102577096399236,0.010103003591544,0.0105831285644414,0.0103625023952605,0.0105576784077639,0.0109814355188201,0.0113213266825701,0.011177223173461,0.0110401445566823,0.0116092974932818,0.0115925453791698,0.0116965642163271,0.0119666835691238,0.012336277945978,0.0117747393036867,0.0116631986586892,0.0121932307189801,0.0121832999981301,0.0128049029634928,0.012608210941259,0.0135386368886206,0.0139658071382865,0.0150038754199282,0.0166332865667547,0.0169855213394114,0.0179321078446998,0.0174832696781273,0.0190166304519034,0.0198429419897372,0.0194515398307457,0.0176462211858646,0.0148701455541838,0.0144511268515158,0.0148427638106649,0.0146126941760788,0.014588915645519,0.0169172794381615,0.0181935004198651,0.0188057992820304,0.0158545356643472,0.0162267337404243,0.0165627708817438,0.0183645787042232,0.0174200593580711,0.0197458685231417,0.0209068097265085,0.0225953680787379,0.0256893218537331,0.0243225438980449,0.0278405169574456,0.0300334858937789,0.0302266104391291,0.0353945262185433,0.0357885368460666,0.0337970461717034,0.0322103880992081,0.029892082900213,0.0266734128390854,0.026084938127796,0.021812324943172,0.0215288387000061,0.0202042648402608,0.0189139225068632,0.015334665648897,0.0133722282384145,0.0137740741990104,0.0126975479417551,0.0126746538860983,0.0132575151109248,0.0150921265484285,0.0144965991700309,0.0116169866484741,0.0093033657431128,0.0072987028711849,0.0067105641519339,0.0058673474091852,0.0050939424693842,0.0048999243807426,0.0048949651987963
