gmid,event_id,event_time,event_longitude,event_latitude,event_depth,magnitude,strike,dip,rake,rupture_width,depth_top_of_rupture,depth_bottom_of_rupture,azimuth,repi,rhypo,rjb,rrup,rx,ry0,rvolc,gc2t,gc2u,network,station_code,station_longitude,station_latitude,station_id,vs30,vs30measured,slope,geology,xvf,region,backarc,z1,z2pt5,fpeak,PGA,PGV,SA(0.010),SA(0.020),SA(0.022),SA(0.025),SA(0.029),SA(0.030),SA(0.032),SA(0.035),SA(0.036),SA(0.040),SA(0.042),SA(0.044),SA(0.045),SA(0.046),SA(0.048),SA(0.050),SA(0.055),SA(0.060),SA(0.065),SA(0.067),SA(0.070),SA(0.075),SA(0.080),SA(0.085),SA(0.090),SA(0.095),SA(0.100),SA(0.110),SA(0.120),SA(0.130),SA(0.133),SA(0.140),SA(0.150),SA(0.160),SA(0.170),SA(0.180),SA(0.190),SA(0.200),SA(0.220),SA(0.240),SA(0.250),SA(0.260),SA(0.280),SA(0.290),SA(0.300),SA(0.320),SA(0.340),SA(0.350),SA(0.360),SA(0.380),SA(0.400),SA(0.420),SA(0.440),SA(0.450),SA(0.460),SA(0.480),SA(0.500),SA(0.550),SA(0.600),SA(0.650),SA(0.667),SA(0.700),SA(0.750),SA(0.800),SA(0.850),SA(0.900),SA(0.950),SA(1.000),SA(1.100),SA(1.200),SA(1.300),SA(1.400),SA(1.500),SA(1.600),SA(1.700),SA(1.800),SA(1.900),SA(2.000),SA(2.200),SA(2.400),SA(2.500),SA(2.600),SA(2.800),SA(3.000),SA(3.200),SA(3.400),SA(3.500),SA(3.600),SA(3.800),SA(4.000),SA(4.200),SA(4.400),SA(4.600),SA(4.800),SA(5.000),SA(5.500),SA(6.000),SA(6.500),SA(7.000),SA(7.500),SA(8.000),SA(8.500),SA(9.000),SA(9.500),SA(10.000)
INT-20230206_0000008|TK-3124|HN|SEISSOL,INT-20230206_0000008,2023-02-06T01:17:36.000000Z,37.08,37.17,20.0,7.83,41.56393847190536,80.96893034637156,-1.0,37.33460078205768,1.6088008578412405,38.35444704459292,217.2052515551452,129.0133827365486,130.24923387539437,0.0,1.518344514869441,0.2621257285313149,0.0,0.0,0.2621257285313149,18.94538100343304,TK,3124,36.1722,36.2387,TK-3124,283.0,True,0.008531591,CENOZOIC,124.08181056700442,2,False,471.1154659154983,1.878753920976176,0.0,0.09084890820628352,35.89068334974465,0.09083669,0.090852395,0.09085874,0.09088067,0.090902984,0.09090873,0.09092079,0.09094034,0.09094725,0.090976804,0.09099275,0.09100945,0.0910181,0.09102694,0.09104518,0.0910642,0.09111514,0.091170914,0.09123391,0.09126197,0.09130566,0.091382764,0.091465354,0.09155344,0.09164721,0.09174662,0.091850564,0.09207627,0.09232926,0.092665374,0.092765376,0.092986606,0.093366265,0.093404286,0.09503848,0.09673029,0.09744908,0.09751248,0.103845045,0.10473952,0.1106779,0.11776197,0.12028288,0.11544232,0.1090901,0.10227973,0.11996826,0.12378328,0.12179261,0.11717687,0.12105727,0.12373663,0.1242413,0.12147499,0.12256884,0.13906461,0.14915065,0.14671387,0.17660004,0.1349259,0.14415537,0.16576454,0.1560777,0.13956456,0.15646172,0.15658438,0.14752494,0.1601322,0.16326608,0.15815987,0.1850837,0.21908596,0.19836242,0.17002676,0.19833116,0.2335362,0.28439552,0.27249295,0.20465803,0.19469018,0.19929829,0.19853295,0.18230343,0.16817018,0.16726826,0.16978598,0.16893256,0.16960841,0.16637658,0.15704697,0.14344311,0.1250798,0.11366154,0.10035592,0.08416417,0.06131682,0.048584677,0.044231188,0.039518613,0.034646682,0.03301251,0.031528976,0.029026527,0.026270915,0.02371899
INT-20230206_0000008|TK-3131|HN|SEISSOL,INT-20230206_0000008,2023-02-06T01:17:36.000000Z,37.08,37.17,20.0,7.83,41.56393847190536,80.96893034637156,-1.0,37.33460078205768,1.6088008578412405,38.35444704459292,216.1286683560159,133.74987942403916,134.94235897576792,0.0,2.269789907997413,1.9170498408265837,0.0,0.0,1.9170498408265837,13.860856205002715,TK,3131,36.16328,36.19121,TK-3131,567.0,True,0.17465495,CENOZOIC,126.6506407780128,2,False,155.36634869206654,0.848427160117214,0.0,0.1187942970453367,43.58190952305739,0.118768536,0.11873983,0.11903061,0.11881577,0.11875976,0.11876412,0.11878917,0.11882441,0.118835956,0.118882716,0.118906856,0.11893172,0.11894445,0.11895741,0.11898399,0.119011536,0.119084895,0.1191651,0.11925255,0.119289644,0.11934762,0.119450666,0.119562045,0.11968224,0.119812,0.11995074,0.12009831,0.12043033,0.12080265,0.12123908,0.12138041,0.12173791,0.12230282,0.12290901,0.123751394,0.12519616,0.1268396,0.1274105,0.13005455,0.13036814,0.1384548,0.14381187,0.13233633,0.12817575,0.13411838,0.14908291,0.1532171,0.14556392,0.13373291,0.13648196,0.15338995,0.17567684,0.18482305,0.18561654,0.18903975,0.19452558,0.19220223,0.14450365,0.13475455,0.14634618,0.15585873,0.1759689,0.21767396,0.23941775,0.23409282,0.21238928,0.20150548,0.18970641,0.21331641,0.1891347,0.13620749,0.1423116,0.1609172,0.18644044,0.23368677,0.2739215,0.27934706,0.2742852,0.21061091,0.20680062,0.22151007,0.23235923,0.23348299,0.22234417,0.21505369,0.21069463,0.20731246,0.20262754,0.19360676,0.18326707,0.17055315,0.1529516,0.13317211,0.114873864,0.100800686,0.07025622,0.047672126,0.0386832,0.03308942,0.028790206,0.02772178,0.027225515,0.025552334,0.023329305,0.021090724
INT-20230206_0000008|TK-3132|HN|SEISSOL,INT-20230206_0000008,2023-02-06T01:17:36.000000Z,37.08,37.17,20.0,7.83,41.56393847190536,80.96893034637156,-1.0,37.33460078205768,1.6088008578412405,38.35444704459292,216.30176473429847,131.91325081508634,133.1221835029905,0.0,2.240850279267116,1.8572087736562932,0.0,0.0,1.8572087736562932,15.738272283338372,TK,3132,36.17159,36.20673,TK-3132,377.0,True,0.17483744,CENOZOIC,126.19597920997262,2,False,383.3105127322804,1.3532532462673144,0.0,0.10933044423082543,41.797601457610014,0.10931318,0.10935204,0.10951841,0.10946175,0.10945495,0.10945805,0.10946717,0.10948604,0.10949338,0.10952704,0.109546125,0.109566584,0.10957731,0.10958837,0.10961143,0.10963576,0.10970205,0.10977615,0.1098582,0.10989331,0.10994844,0.11004716,0.1101547,0.11027131,0.110397026,0.11053323,0.110682756,0.11101602,0.111426316,0.11191044,0.11208124,0.11248964,0.1130152,0.11385848,0.11552861,0.117317624,0.11793434,0.12166965,0.12657726,0.13219728,0.12485073,0.12878248,0.15091582,0.15079692,0.14492528,0.12319379,0.12743343,0.13264018,0.1424825,0.15705799,0.15704921,0.16410586,0.14762524,0.13387223,0.12812991,0.12618299,0.13586016,0.14160027,0.1373483,0.13208066,0.14241622,0.15107946,0.18696484,0.21827279,0.23283516,0.21335824,0.18785019,0.16726948,0.20357333,0.20668979,0.16489068,0.1390071,0.13111638,0.14769329,0.20674154,0.26160517,0.29013115,0.28408393,0.22345634,0.21653375,0.2243718,0.22782482,0.21815105,0.20420231,0.19897158,0.19748594,0.19528675,0.19204527,0.18687747,0.17856936,0.16507326,0.14664385,0.12640393,0.11168098,0.09704919,0.06947738,0.047319807,0.039643504,0.034501594,0.0299009,0.027968364,0.027609557,0.025896478,0.023596069,0.021314882
INT-20230206_0000008|TK-3133|HN|SEISSOL,INT-20230206_0000008,2023-02-06T01:17:36.000000Z,37.08,37.17,20.0,7.83,41.56393847190536,80.96893034637156,-1.0,37.33460078205768,1.6088008578412405,38.35444704459292,202.2839519989269,110.7812702028253,112.21809046562583,22.847029757380728,31.88988918074377,36.37257564283309,0.0,0.0,36.37257564283309,37.03655611654507,TK,3133,36.5736,36.2432,TK-3133,377.0,True,0.016322406,UNKNOWN,149.55190975938854,2,False,383.3105127322804,1.3532532462673144,0.0,0.05170853585753444,24.24671072678089,0.051699273,0.05171152,0.051741358,0.051738445,0.051744312,0.05174668,0.051752064,0.051761385,0.05176478,0.05177959,0.051787708,0.051796284,0.051800735,0.051805303,0.051814765,0.051824663,0.051851835,0.051883314,0.051917646,0.051932197,0.051954996,0.05199624,0.052040473,0.052088823,0.05213871,0.052207023,0.0522111,0.052354123,0.052470695,0.052702505,0.052634407,0.052575104,0.05289843,0.05327934,0.053400483,0.05332265,0.053581823,0.054083403,0.054291442,0.05411565,0.054289304,0.054420978,0.05349758,0.05551312,0.05818134,0.06257341,0.06300108,0.06651764,0.06850164,0.07270857,0.07338145,0.07947922,0.08973797,0.09277909,0.09245182,0.09205836,0.10980475,0.14600722,0.15008336,0.12977225,0.11960899,0.110404246,0.10729159,0.11195227,0.11273709,0.13951197,0.12989603,0.10433325,0.10468076,0.10137692,0.10404743,0.10855456,0.12892593,0.116456315,0.1232649,0.13090858,0.110043444,0.10593931,0.12563094,0.10174521,0.093053184,0.08127038,0.06304282,0.06170074,0.06069601,0.061323702,0.06301234,0.06508546,0.070696704,0.074857414,0.07668996,0.076447405,0.075060144,0.07244351,0.0692904,0.059973426,0.049216937,0.041466944,0.03753312,0.03416542,0.030780565,0.02749361,0.024991918,0.022556756,0.02038857
INT-20230206_0000008|TK-3134|HN|SEISSOL,INT-20230206_0000008,2023-02-06T01:17:36.000000Z,37.08,37.17,20.0,7.83,41.56393847190536,80.96893034637156,-1.0,37.33460078205768,1.6088008578412405,38.35444704459292,243.4091372328727,83.32362553030335,85.2246242087005,24.81954614485054,24.87987947473404,-22.34934209631216,0.0,0.0,-22.34934209631216,78.91564856862848,TK,3134,36.20485,36.82763,TK-3134,374.0,True,0.014320345,UNKNOWN,86.63876549059944,2,False,386.77597661739526,1.3656784904702302,0.0,0.07386494484354231,32.96222908290768,0.07384204,0.07386682,0.07395304,0.07385161,0.07387772,0.07388597,0.07390265,0.073928274,0.07393706,0.07397631,0.07400032,0.07402532,0.0740382,0.07405134,0.07407844,0.074106656,0.074182265,0.07426541,0.07435645,0.07439514,0.07445568,0.0745634,0.07467986,0.07480581,0.07492248,0.07503278,0.07514915,0.07538424,0.07550663,0.07593757,0.076151885,0.07642528,0.07676686,0.0773708,0.077811144,0.07845492,0.07929149,0.08067987,0.083766155,0.08846343,0.09069191,0.09068164,0.088102065,0.091126256,0.0941988,0.101801656,0.10487369,0.10513056,0.10762882,0.11407077,0.12188789,0.12945765,0.12919153,0.12657404,0.1258686,0.12634344,0.12634431,0.15005913,0.1588604,0.18646535,0.20307273,0.23276405,0.26253003,0.27885932,0.28079095,0.26942986,0.25009674,0.2254221,0.2330134,0.2096468,0.15680028,0.1379967,0.1293126,0.10019335,0.07409225,0.07122348,0.07254207,0.0747321,0.083000965,0.085843384,0.08491613,0.08336996,0.08177071,0.07861608,0.07492123,0.0773864,0.07906326,0.08040509,0.08181655,0.08081101,0.078583986,0.07652782,0.07391317,0.071349956,0.0688283,0.06454659,0.061852034,0.058713485,0.05447051,0.049075264,0.04399842,0.040582247,0.03717026,0.034877382,0.03305043
INT-20230206_0000008|TK-3136|HN|SEISSOL,INT-20230206_0000008,2023-02-06T01:17:36.000000Z,37.08,37.17,20.0,7.83,41.56393847190536,80.96893034637156,-1.0,37.33460078205768,1.6088008578412405,38.35444704459292,211.5089169947277,136.60724166388576,137.77499219747858,2.3221652993366613,12.06112231768556,13.683689728107169,0.0,0.0,13.683689728107169,9.97491464684382,TK,3136,36.24722,36.11593,TK-3136,344.0,True,0.04401599,CENOZOIC,137.72209036864697,2,False,419.3183608254582,1.5027637968527092,0.0,0.07993238443049652,41.16222080133045,0.0799143,0.07993715,0.07997647,0.07997549,0.07998708,0.079991184,0.08000029,0.080015816,0.08002143,0.0800459,0.08005929,0.08006951,0.080071665,0.08007387,0.08007845,0.08008326,0.08009616,0.08011034,0.08012577,0.08013228,0.08014242,0.08018284,0.0802526,0.08032799,0.08040926,0.080496214,0.08058921,0.08080018,0.08103696,0.08110063,0.08119199,0.08142187,0.08186981,0.082174525,0.082681015,0.083765745,0.08429881,0.0851212,0.086323924,0.08696616,0.087324984,0.088471055,0.089659266,0.089450635,0.091435306,0.092705324,0.09236773,0.09520158,0.09746904,0.09925674,0.10601599,0.10954295,0.10457944,0.10323965,0.10351049,0.10008192,0.09483345,0.10920482,0.11509868,0.11494132,0.11257474,0.11007988,0.13117588,0.13785413,0.15544598,0.15111607,0.14526442,0.14501452,0.15452251,0.17820758,0.18066269,0.20361626,0.21743184,0.2000494,0.16932273,0.15589912,0.15359488,0.16522616,0.2018332,0.19563803,0.187853,0.18849657,0.19894557,0.22258142,0.22687906,0.2210709,0.21637781,0.21044365,0.19541919,0.18140443,0.17175546,0.15845588,0.14186904,0.12364414,0.104585886,0.07260685,0.056057792,0.04483592,0.036165465,0.031432565,0.027904145,0.026176343,0.025632842,0.023971131,0.021908298
INT-20230206_0000008|TK-3137|HN|SEISSOL,INT-20230206_0000008,2023-02-06T01:17:36.000000Z,37.08,37.17,20.0,7.83,41.56393847190536,80.96893034637156,-1.0,37.33460078205768,1.6088008578412405,38.35444704459292,223.2502668318637,72.02337636449369,74.21439714059198,0.0,4.763700136674324,4.797466659274936,0.0,0.0,4.797466659274936,76.797214079286,TK,3137,36.48852,36.69293,TK-3137,688.0,True,0.02586959,PLEISTOCENE,115.80518778428616,2,False,68.9246622215245,0.680005474169078,0.0,0.4097692941626503,165.16585174012909,0.40959227,0.40973988,0.40988597,0.4100194,0.41025296,0.41035247,0.4104605,0.41084525,0.41101354,0.41123578,0.41190642,0.41173914,0.41191056,0.41207767,0.41121876,0.41176683,0.41211486,0.4159966,0.41675216,0.4165999,0.41536322,0.41411296,0.41345373,0.4156303,0.41891855,0.4293389,0.42799956,0.42418402,0.4435796,0.44201115,0.4387087,0.43414658,0.4658426,0.46494526,0.44790488,0.44566715,0.43929985,0.45149025,0.47749168,0.5022469,0.5082717,0.49858215,0.4525896,0.44646218,0.46134096,0.49530217,0.52647233,0.54255474,0.5598866,0.57563883,0.56540745,0.56000197,0.5580469,0.5655427,0.57875,0.5886518,0.5414206,0.4950674,0.6059617,0.54442334,0.5377012,0.544336,0.5578914,0.6686622,0.7850544,0.8165141,0.7597801,0.6616407,0.54921997,0.62847763,0.6420098,0.7363617,0.7886278,0.7652312,0.7317687,0.7065748,0.6856176,0.66361547,0.61566705,0.57289475,0.55423284,0.5363356,0.50037056,0.4675294,0.43937746,0.41407815,0.40256673,0.39121673,0.36874086,0.35157531,0.34270632,0.33444667,0.3243857,0.31275728,0.299568,0.2615491,0.22185765,0.18911684,0.16212764,0.14204013,0.12574288,0.111420095,0.098587744,0.08710673,0.07709722
INT-20230206_0000008|TK-3138|HN|SEISSOL,INT-20230206_0000008,2023-02-06T01:17:36.000000Z,37.08,37.17,20.0,7.83,41.56393847190536,80.96893034637156,-1.0,37.33460078205768,1.6088008578412405,38.35444704459292,229.56315371632937,62.093024254173066,64.62161914583481,0.0,2.061456579202677,1.129420154819938,0.0,0.0,1.129420154819938,88.59200026982501,TK,3138,36.51119,36.80262,TK-3138,618.0,True,0.07820893,PLEISTOCENE,109.96825808223002,2,False,111.6954334302184,0.768816626244318,0.0,0.4049479742565962,182.25392962153637,0.40468436,0.40488482,0.4061355,0.40806916,0.40876302,0.408636,0.40934086,0.410436,0.41153327,0.41204157,0.41244873,0.41360623,0.41454074,0.41536087,0.41753682,0.4210293,0.42796224,0.42920834,0.43144435,0.43216902,0.4366683,0.44151598,0.45595783,0.4593897,0.44360596,0.46153513,0.5020796,0.6023037,0.64627856,0.6269218,0.6012091,0.5303169,0.50106907,0.5345516,0.558078,0.53849506,0.5877192,0.59258556,0.58702403,0.57303256,0.5864856,0.61670715,0.76730824,0.8571284,0.9113381,0.8545541,0.73748094,0.7091962,0.7030416,0.7008961,0.68885905,0.66180366,0.62000394,0.6106375,0.61481416,0.64797944,0.6719959,0.6130891,0.59506774,0.6511615,0.65950924,0.66399074,0.68006283,0.6740359,0.6296271,0.59371716,0.58990395,0.614792,0.7389219,0.87773484,0.9133648,0.8664858,0.8054087,0.7556697,0.7144542,0.6749496,0.6347286,0.5978752,0.5385779,0.49253553,0.47418585,0.45933568,0.4366208,0.41925237,0.4027015,0.393897,0.3901383,0.38602468,0.37762538,0.3682353,0.35692865,0.3447992,0.33045372,0.31433898,0.2990786,0.26270056,0.23170349,0.20423234,0.17943463,0.15807204,0.14118937,0.12775294,0.11575241,0.105145775,0.09583417
INT-20230206_0000008|TK-3139|HN|SEISSOL,INT-20230206_0000008,2023-02-06T01:17:36.000000Z,37.08,37.17,20.0,7.83,41.56393847190536,80.96893034637156,-1.0,37.33460078205768,1.6088008578412405,38.35444704459292,220.96272471016303,85.48094472596647,87.33499820371976,0.0,4.003013294671188,3.930343943082239,0.0,0.0,3.930343943082239,62.980472016758725,TK,3139,36.41439,36.58383,TK-3139,272.0,True,0.029230563,PLEISTOCENE,117.95393467053208,2,False,478.22549574605983,1.9659241422376248,0.0,0.26246138779416894,113.75855999385794,0.26239166,0.2624636,0.26250547,0.26249108,0.2625623,0.2625774,0.26261193,0.26266313,0.26268145,0.2627688,0.2628078,0.26285762,0.26288107,0.26290375,0.26296046,0.26301107,0.26316246,0.2633514,0.26332474,0.263389,0.26360342,0.26384345,0.26359627,0.26403344,0.264791,0.26536587,0.26581836,0.2655076,0.26672283,0.26703358,0.26666844,0.26783115,0.26766872,0.2682793,0.27895874,0.27791482,0.27217907,0.2761487,0.2795459,0.28628886,0.29988363,0.30893502,0.3386169,0.34496346,0.35137218,0.41048053,0.47660244,0.48051298,0.4507391,0.41820776,0.44319513,0.56043917,0.6217747,0.62899697,0.6187098,0.53968966,0.48459026,0.4704231,0.49386838,0.3836468,0.3532185,0.3414016,0.39629364,0.54206866,0.663449,0.6795025,0.61501974,0.5135704,0.39603344,0.40194428,0.39808807,0.5103629,0.5472736,0.5284906,0.5022608,0.4825765,0.46814713,0.45422876,0.4221421,0.40560198,0.39718512,0.38479522,0.34985083,0.30686432,0.28618833,0.26618195,0.2562568,0.24598943,0.22491452,0.20558937,0.18820593,0.17269127,0.1601105,0.15614395,0.15404084,0.15706997,0.14868143,0.13358918,0.116593,0.10064872,0.09144796,0.0826804,0.07423693,0.0661771,0.058998186
INT-20230206_0000008|TK-3142|HN|SEISSOL,INT-20230206_0000008,2023-02-06T01:17:36.000000Z,37.08,37.17,20.0,7.83,41.56393847190536,80.96893034637156,-1.0,37.33460078205768,1.6088008578412405,38.35444704459292,219.20370522474667,95.58268998793866,97.24433466958573,0.0,4.126450527968312,4.108293221300062,0.0,0.0,4.108293221300062,52.512086810200366,TK,3142,36.36612,36.49797,TK-3142,539.0,True,0.03224294,PLEISTOCENE,120.34581816361283,2,False,184.039207505826,0.8990338312567264,0.0,0.1637768514833334,76.20387052008365,0.16370541,0.16376525,0.16375661,0.16378987,0.16389124,0.16391206,0.16396005,0.1640195,0.16404404,0.16413936,0.16418065,0.16425689,0.16429849,0.16433667,0.16438957,0.16442254,0.16449507,0.16484933,0.16499051,0.16513559,0.16529353,0.16536145,0.16575098,0.16604117,0.16624156,0.16671732,0.16722012,0.16729507,0.16819894,0.16906856,0.1692919,0.17056096,0.17325571,0.17543288,0.17725301,0.17785311,0.1790371,0.1807585,0.18507966,0.18878235,0.19372636,0.19897231,0.20991078,0.21349674,0.22127245,0.25013965,0.2753921,0.27396563,0.26046386,0.2609222,0.30167273,0.35337603,0.3719741,0.36466157,0.3668728,0.35664794,0.37462115,0.37779057,0.35027298,0.29516718,0.29176426,0.28793532,0.29069164,0.36915675,0.44950318,0.47530785,0.44033736,0.3740603,0.29266727,0.2917504,0.29858664,0.32657182,0.38100314,0.35832608,0.32005545,0.29847285,0.2841161,0.2734093,0.2574572,0.27165028,0.3097822,0.3396897,0.36444807,0.34384593,0.29830545,0.24451664,0.21786666,0.19482683,0.17209578,0.1600023,0.15185331,0.14480758,0.13845272,0.13268842,0.1267164,0.11097445,0.10149299,0.09858316,0.09464962,0.08772702,0.07962511,0.07133954,0.063257754,0.057799686,0.05272647
INT-20230206_0000008|TK-3143|HN|SEISSOL,INT-20230206_0000008,2023-02-06T01:17:36.000000Z,37.08,37.17,20.0,7.83,41.56393847190536,80.96893034637156,-1.0,37.33460078205768,1.6088008578412405,38.35444704459292,230.83003824288485,55.64889442620432,58.4569025082482,0.0,3.1037485971445244,2.717126663474277,0.0,0.0,2.717126663474277,95.02254955623935,TK,3143,36.557138,36.848907,TK-3143,444.0,True,0.04272283,PLEISTOCENE,110.06785737796102,2,False,299.72871281350587,1.1222961275525754,0.0,0.3930144417545441,143.92615947622903,0.39269024,0.3929351,0.3930471,0.39368767,0.3944222,0.39450496,0.39475948,0.3954422,0.39559713,0.39615986,0.39617628,0.39669192,0.3975087,0.3984944,0.40050584,0.4018289,0.40478912,0.4061207,0.4141014,0.41592422,0.41929117,0.41898453,0.4180453,0.42637444,0.43106347,0.43830374,0.4554181,0.48181534,0.5188301,0.5493467,0.5601344,0.5771898,0.5692966,0.560243,0.5659441,0.5370753,0.48083532,0.4405248,0.470961,0.45090404,0.41103643,0.40218833,0.41702715,0.43038648,0.46566966,0.46986625,0.40757784,0.39342573,0.40129265,0.44749063,0.4791848,0.47132888,0.45380098,0.45242244,0.4587637,0.48393354,0.5300182,0.52067804,0.505956,0.5468009,0.5647065,0.5807043,0.5553159,0.47742105,0.49569842,0.5344574,0.561293,0.60667294,0.7911106,0.91571754,0.92431855,0.8519155,0.76555145,0.69502884,0.64056164,0.5946458,0.55421656,0.51943254,0.46693334,0.4305964,0.4149052,0.40049154,0.3747785,0.35258248,0.33319184,0.32560784,0.32405722,0.32435238,0.3215606,0.313327,0.30079952,0.28608608,0.27002275,0.25357872,0.23782317,0.20451105,0.17983891,0.15891616,0.1402092,0.12432268,0.110526845,0.0985669,0.08846125,0.07932171,0.07131776
