gmid,event_id,event_time,event_longitude,event_latitude,event_depth,magnitude,strike,dip,rake,rupture_width,depth_top_of_rupture,depth_bottom_of_rupture,azimuth,repi,rhypo,rjb,rrup,rx,ry0,rvolc,gc2t,gc2u,network,station_code,station_longitude,station_latitude,station_id,vs30,vs30measured,slope,geology,xvf,region,backarc,z1,z2pt5,fpeak,PGA,PGV,SA(0.010),SA(0.020),SA(0.022),SA(0.025),SA(0.029),SA(0.030),SA(0.032),SA(0.035),SA(0.036),SA(0.040),SA(0.042),SA(0.044),SA(0.045),SA(0.046),SA(0.048),SA(0.050),SA(0.055),SA(0.060),SA(0.065),SA(0.067),SA(0.070),SA(0.075),SA(0.080),SA(0.085),SA(0.090),SA(0.095),SA(0.100),SA(0.110),SA(0.120),SA(0.130),SA(0.133),SA(0.140),SA(0.150),SA(0.160),SA(0.170),SA(0.180),SA(0.190),SA(0.200),SA(0.220),SA(0.240),SA(0.250),SA(0.260),SA(0.280),SA(0.290),SA(0.300),SA(0.320),SA(0.340),SA(0.350),SA(0.360),SA(0.380),SA(0.400),SA(0.420),SA(0.440),SA(0.450),SA(0.460),SA(0.480),SA(0.500),SA(0.550),SA(0.600),SA(0.650),SA(0.667),SA(0.700),SA(0.750),SA(0.800),SA(0.850),SA(0.900),SA(0.950),SA(1.000),SA(1.100),SA(1.200),SA(1.300),SA(1.400),SA(1.500),SA(1.600),SA(1.700),SA(1.800),SA(1.900),SA(2.000),SA(2.200),SA(2.400),SA(2.500),SA(2.600),SA(2.800),SA(3.000),SA(3.200),SA(3.400),SA(3.500),SA(3.600),SA(3.800),SA(4.000),SA(4.200),SA(4.400),SA(4.600),SA(4.800),SA(5.000),SA(5.500),SA(6.000),SA(6.500),SA(7.000),SA(7.500),SA(8.000),SA(8.500),SA(9.000),SA(9.500),SA(10.000)
INT-20230206_0000008|TK-0604|HN|SEISSOL,INT-20230206_0000008,2023-02-06T01:17:36.000000Z,37.08,37.17,20.0,7.83,41.56393847190536,80.96893034637156,-1.0,37.33460078205768,1.6088008578412405,38.35444704459292,304.04274512935734,367.0481734981013,367.48438289033766,339.2368716057769,339.25932152373866,-325.0293994601139,0.0,0.0,-325.0293994601139,110.39225465286655,TK,0604,33.52402,38.96246,TK-0604,291.0,True,0.074973814,CENOZOIC,-150.0,4,True,465.51510114524814,1.8197846726450195,0.0,0.0017154625159715821,1.8597745901213034,0.0017153944,0.0017153088,0.0017159283,0.001715437,0.001715163,0.0017151341,0.0017151005,0.0017151457,0.0017151642,0.0017152451,0.001715289,0.0017153352,0.001715359,0.0017153835,0.0017154342,0.0017154871,0.0017156291,0.001715785,0.001715955,0.0017160268,0.0017161416,0.0017163459,0.001716563,0.0017167935,0.0017170373,0.001717295,0.0017175666,0.0017181521,0.0017187947,0.0017194955,0.0017197184,0.0017202552,0.001721073,0.0017219448,0.001722872,0.0017238675,0.0017249105,0.0017260975,0.0017280193,0.001729931,0.0017309062,0.0017322177,0.001734826,0.0017357267,0.0017382186,0.0017425928,0.0017463428,0.0017502888,0.0017544483,0.0017613873,0.0017656795,0.0017697426,0.0017767536,0.0017780436,0.0017797234,0.0017883928,0.0017977357,0.0018390248,0.0018851429,0.0018932513,0.0019171939,0.0019476943,0.0019850163,0.0020234112,0.0018957703,0.0018992124,0.001982771,0.0021813083,0.0024463797,0.0027969205,0.0028379508,0.0026264773,0.0025341052,0.0027779518,0.0026497052,0.0028402922,0.0030843187,0.0033654454,0.0031615268,0.003129107,0.0034237956,0.0035957654,0.0035955426,0.0033942712,0.0032544897,0.0033419887,0.003848826,0.0042214356,0.00450814,0.0043607876,0.0042591183,0.0042384923,0.004213242,0.003915738,0.0036231675,0.0041622333,0.00317141,0.0022324035,0.0019020461,0.0017705493,0.0018315702,0.0020449567,0.0022571278,0.0024063266,0.0025196355
INT-20230206_0000008|TK-0714|HN|SEISSOL,INT-20230206_0000008,2023-02-06T01:17:36.000000Z,37.08,37.17,20.0,7.83,41.56393847190536,80.96893034637156,-1.0,37.33460078205768,1.6088008578412405,38.35444704459292,262.93880639051866,454.7927529197593,455.14487595526464,370.4134359907432,370.37809789936335,-284.8896658871597,159.2728095810719,0.0,-284.8896658871597,-159.2728095810719,TK,0714,31.98667,36.55547,TK-0714,566.0242309570312,False,0.08737379,PLEISTOCENE,6.50168182062876,4,False,156.31079965091908,0.8501005859725163,0.0,0.0002293332656339597,0.4800408690208009,0.00022929281,0.00022211284,0.000245809,0.00023314885,0.00022707308,0.00022660507,0.00022573464,0.00022459777,0.00022431713,0.00022356847,0.00022338705,0.00022323891,0.0002231748,0.00022311627,0.00022301351,0.0002229266,0.00022276043,0.00022264472,0.00022256226,0.00022253612,0.00022250276,0.00022245028,0.00022239637,0.00022235738,0.00022233007,0.00022231217,0.000222302,0.0002223,0.00022231716,0.0002223492,0.0002223613,0.00022239347,0.0002224482,0.0002225122,0.00022258467,0.00022266823,0.00022276148,0.00022285817,0.0002230375,0.00022324982,0.00022336491,0.00022348612,0.00022374761,0.00022388833,0.00022403605,0.00022435356,0.00022470373,0.00022488985,0.00022508841,0.00022553695,0.00022612567,0.00022706419,0.00022801806,0.00022862779,0.00022924462,0.00022956844,0.00022900983,0.00023508765,0.00025287332,0.00026296274,0.00027009303,0.00027921953,0.0002952995,0.00029712083,0.00029820288,0.00032526895,0.00041538014,0.00044774404,0.0004434381,0.00050153676,0.00045793338,0.00038341817,0.0003629341,0.000383866,0.00035883134,0.00034076703,0.00034390244,0.00033186912,0.00039950036,0.00037335887,0.00033810717,0.0003749983,0.00039883543,0.00034704545,0.00028796727,0.00034710066,0.00039015705,0.00042091572,0.00041496413,0.00035614465,0.0003060703,0.00031281047,0.00034740154,0.00039361947,0.00043568717,0.0004646861,0.00041014637,0.00032901188,0.000260598,0.00023646768,0.000246232,0.00026615322,0.00027917942,0.0002865287,0.00028801692
INT-20230206_0000008|TK-2104|HN|SEISSOL,INT-20230206_0000008,2023-02-06T01:17:36.000000Z,37.08,37.17,20.0,7.83,41.56393847190536,80.96893034637156,-1.0,37.33460078205768,1.6088008578412405,38.35444704459292,62.10436295019559,268.37654431264843,268.9728230457474,89.8139503223182,91.63588513648747,71.54676887200164,67.70864547354381,0.0,71.54676887200164,409.9973743268196,TK,2104,39.759,38.2644,TK-2104,481.0797729492188,False,0.047265366,CENOZOIC,150.00000000000003,2,False,252.25714775239152,1.0238992452572115,0.0,0.019356824062307522,14.647041127339454,0.019355005,0.019357488,0.019359445,0.0193604,0.01936244,0.019363014,0.019364223,0.01936618,0.019366872,0.019369822,0.01937141,0.019373074,0.019373933,0.019374812,0.019376626,0.019378517,0.01938357,0.019389104,0.019395119,0.019397657,0.019401614,0.0194086,0.019416077,0.019424051,0.019432524,0.019441504,0.019450994,0.019471532,0.019494183,0.019519007,0.019526895,0.019546082,0.019575452,0.019607192,0.019641139,0.019677827,0.019717054,0.019759243,0.019854806,0.019963175,0.020024648,0.02009925,0.020261105,0.020344049,0.020472657,0.02077241,0.020671966,0.020668956,0.020691823,0.020410296,0.022023384,0.022921681,0.023070201,0.023348682,0.023553161,0.024497531,0.025878616,0.03124698,0.03889496,0.04719264,0.04743708,0.047553986,0.038854122,0.03433248,0.032111734,0.034000993,0.03418042,0.03636244,0.039867353,0.044385433,0.056280237,0.061989192,0.070755504,0.064828865,0.055174336,0.057152577,0.06590481,0.059690796,0.042391915,0.03238933,0.03221679,0.031736616,0.030716667,0.03682864,0.033969667,0.02945445,0.026585212,0.024674274,0.022751374,0.019062618,0.020470334,0.023619825,0.025938304,0.027058946,0.027962973,0.025161792,0.02484653,0.02640781,0.027440641,0.026420308,0.025185939,0.024311101,0.02330399,0.021891901,0.021042503
INT-20230206_0000008|TK-2107|HN|SEISSOL,INT-20230206_0000008,2023-02-06T01:17:36.000000Z,37.08,37.17,20.0,7.83,41.56393847190536,80.96893034637156,-1.0,37.33460078205768,1.6088008578412405,38.35444704459292,62.37672743022847,240.9848580198409,241.64873638163908,65.9706465454271,68.25179641153771,63.56510575481318,43.41721633289916,0.0,63.56510575481318,385.7059451861749,TK,2107,39.48379,38.14594,TK-2107,517.8364868164062,False,0.032791544,CRETACEOUS,150.0,2,False,207.73937865196723,0.9411897597157092,0.0,0.01954786251898563,13.389940194980262,0.019544436,0.019547448,0.019551033,0.019552663,0.019555205,0.019556006,0.019557748,0.01956066,0.019561704,0.019566217,0.019568726,0.019571368,0.019572731,0.019574124,0.019576995,0.01957998,0.019587964,0.0195967,0.01960625,0.019610332,0.019616706,0.019627998,0.019640133,0.019653125,0.019666987,0.01968173,0.019697368,0.019731402,0.019769253,0.019811021,0.019824257,0.019856988,0.01991868,0.019972924,0.02003428,0.020096822,0.020165209,0.020245198,0.020410901,0.02063684,0.020765156,0.020870287,0.02124807,0.021368694,0.021664483,0.022095405,0.023472453,0.02472486,0.025093172,0.02520219,0.02546667,0.029404186,0.032469146,0.031964455,0.030233497,0.03045639,0.036827207,0.0481707,0.04606965,0.042087708,0.040862836,0.04137271,0.03962107,0.041633278,0.048646975,0.055460714,0.060984433,0.057383988,0.058846507,0.04874046,0.060944863,0.06754135,0.065138236,0.059522707,0.06320233,0.048231483,0.0404825,0.04363568,0.035469573,0.028978439,0.03434926,0.034333814,0.02988391,0.03170311,0.02885805,0.028989874,0.028578643,0.027193038,0.025829548,0.027184669,0.02919873,0.029651543,0.028069077,0.026909973,0.026700145,0.027752168,0.027743416,0.027480587,0.02754045,0.025820544,0.023374321,0.02116377,0.020097716,0.019491123,0.018668545
INT-20230206_0000008|TK-2302|HN|SEISSOL,INT-20230206_0000008,2023-02-06T01:17:36.000000Z,37.08,37.17,20.0,7.83,41.56393847190536,80.96893034637156,-1.0,37.33460078205768,1.6088008578412405,38.35444704459292,58.692433233198926,268.6057806739587,269.20155165129864,84.74060253899765,86.12942870410055,54.82814844593539,70.66417759689415,0.0,54.82814844593539,412.9529064501699,TK,2302,39.67541,38.39231,TK-2302,907.0,True,0.13152272,CENOZOIC,150.0,2,False,14.736879411837409,0.4956907855301884,0.0,0.025472934702959818,17.07328752778031,0.025470614,0.025471622,0.025484137,0.025480941,0.025480457,0.02548065,0.02548124,0.02548248,0.025482964,0.025485186,0.025486447,0.025487792,0.0254885,0.025489224,0.025490735,0.025492322,0.02549662,0.025501372,0.025506573,0.025508774,0.025512213,0.025518293,0.025524812,0.025531769,0.025539165,0.025547002,0.025555283,0.025573183,0.02559289,0.025614426,0.025621247,0.025637856,0.025663247,0.025690615,0.025720084,0.025752205,0.025786554,0.0258226,0.025905872,0.025999801,0.026053827,0.026124338,0.026305044,0.02644511,0.026681485,0.027463613,0.027615309,0.027439874,0.02734364,0.026713971,0.027135935,0.02802815,0.028131273,0.028735565,0.029188931,0.029000735,0.030345943,0.028989205,0.0368528,0.04466354,0.044534422,0.041479748,0.038388006,0.047653526,0.053342316,0.046225082,0.050323844,0.059783958,0.06582441,0.06054786,0.056614656,0.05730171,0.06149754,0.061937954,0.050993357,0.046137836,0.040253606,0.034885906,0.034589075,0.03663361,0.038707357,0.03921816,0.040982444,0.044854794,0.041784994,0.03470201,0.034087107,0.033768386,0.035110883,0.031586982,0.027019478,0.02640864,0.030668935,0.03515996,0.03743023,0.038071297,0.039938536,0.04511128,0.04709073,0.044020873,0.042298935,0.040097374,0.0367771,0.032614276,0.030131532
INT-20230206_0000008|TK-2304|HN|SEISSOL,INT-20230206_0000008,2023-02-06T01:17:36.000000Z,37.08,37.17,20.0,7.83,41.56393847190536,80.96893034637156,-1.0,37.33460078205768,1.6088008578412405,38.35444704459292,54.186290915611096,301.78038971415305,302.3107897777155,113.66025993191067,114.23021376515116,40.653143899358575,102.80027763763258,0.0,40.653143899358575,445.08900649090833,TK,2304,39.86293,38.72096,TK-2304,539.834228515625,False,0.0847545,PLEISTOCENE,150.0,2,False,183.1391845994413,0.8974446320971882,0.0,0.020187395488584736,18.368648174407546,0.02018493,0.020187246,0.020188225,0.020189308,0.02019113,0.020191623,0.020192659,0.020194331,0.02019492,0.020197442,0.020198802,0.020200228,0.020200968,0.020201722,0.020203283,0.020204913,0.020209284,0.020214086,0.020219322,0.020221537,0.020224992,0.020231105,0.020237664,0.02024467,0.020252125,0.020260038,0.02026841,0.020286553,0.020306591,0.020328578,0.02033556,0.020350194,0.020366877,0.020384898,0.020404326,0.020425232,0.02044774,0.020472055,0.020536425,0.02062481,0.020678317,0.020730678,0.020921674,0.021058025,0.021224968,0.021484582,0.02182139,0.022146994,0.0225874,0.0234782,0.023783872,0.02374212,0.024657238,0.025731398,0.027035382,0.029409735,0.030826962,0.037042342,0.04186954,0.04096249,0.039989755,0.03931511,0.0411725,0.038969155,0.034083962,0.033480443,0.032438267,0.032549255,0.03846602,0.0425604,0.04551597,0.048054192,0.049057607,0.049957495,0.05232699,0.045260303,0.045313247,0.047450032,0.05058477,0.049855933,0.049015783,0.04835367,0.046273958,0.044018757,0.03821435,0.03402484,0.03274329,0.031208353,0.029086761,0.027520327,0.025260665,0.025826024,0.028059537,0.031780045,0.03406,0.035821933,0.032685734,0.032347303,0.033745456,0.034378998,0.03504941,0.03422285,0.032192722,0.029495519,0.027552655
INT-20230206_0000008|TK-2307|HN|SEISSOL,INT-20230206_0000008,2023-02-06T01:17:36.000000Z,37.08,37.17,20.0,7.83,41.56393847190536,80.96893034637156,-1.0,37.33460078205768,1.6088008578412405,38.35444704459292,55.25124688183496,305.2326616951039,305.7570731242006,117.64972148155196,118.3080507680056,47.11716453030967,105.5822404687147,0.0,47.11716453030967,447.87096932199046,TK,2307,39.93199,38.69583,TK-2307,508.096923828125,False,0.087393254,CRETACEOUS,150.0,2,False,219.16571260311684,0.9618574457208704,0.0,0.018052348900398026,16.671446355306593,0.018050777,0.018052297,0.0180555,0.018053744,0.018055132,0.018055627,0.01805663,0.018058194,0.018058734,0.01806102,0.018062238,0.01806351,0.018064164,0.018064834,0.018066213,0.018067649,0.018071484,0.018075677,0.018080236,0.01808216,0.01808516,0.018090459,0.018096132,0.018102188,0.018108629,0.018115459,0.018122686,0.018138343,0.018155664,0.018174969,0.018181106,0.018196065,0.018219026,0.018244006,0.018271161,0.018300258,0.018331548,0.01835954,0.018420769,0.018504601,0.018556548,0.018610632,0.018742083,0.018796582,0.018877693,0.019054549,0.019498505,0.019726103,0.019823246,0.019970046,0.020307979,0.020132853,0.020508528,0.020860828,0.021104325,0.022003463,0.023411999,0.02878451,0.031030213,0.030932141,0.031193286,0.03132795,0.030708538,0.029277088,0.027710946,0.026559314,0.027007617,0.03140268,0.036200926,0.034300324,0.0378406,0.04233524,0.042942815,0.04141863,0.040683884,0.041055437,0.03804612,0.040089663,0.042969506,0.043833893,0.04367425,0.04374754,0.042431302,0.0438674,0.039227363,0.032042187,0.030395415,0.029694242,0.029025022,0.028080126,0.026163151,0.025076533,0.025965448,0.02887978,0.03268778,0.03715225,0.03428298,0.033095043,0.034057308,0.03465357,0.035032813,0.034383334,0.032490097,0.029853703,0.027115755
INT-20230206_0000008|TK-2308|HN|SEISSOL,INT-20230206_0000008,2023-02-06T01:17:36.000000Z,37.08,37.17,20.0,7.83,41.56393847190536,80.96893034637156,-1.0,37.33460078205768,1.6088008578412405,38.35444704459292,53.67362326344335,245.16156045387336,245.81415891721576,57.11515822109248,57.82137557456684,25.17730381135489,51.156823754861136,0.0,25.17730381135489,393.4455526081369,TK,2308,39.3102,38.45063,TK-2308,600.0,False,0.015357924,HOLOCENE,150.0,2,False,125.83403858285288,0.7952589249703402,0.0,0.026959567408081003,25.196200623174477,0.026957426,0.02695925,0.026958905,0.026961168,0.026963351,0.026963903,0.026965039,0.026966846,0.026967479,0.02697017,0.026971618,0.026973134,0.026973918,0.026974717,0.026976375,0.0269781,0.026982728,0.026987813,0.02699336,0.02699571,0.026999375,0.027005866,0.027012842,0.027020307,0.027028274,0.027036749,0.027045747,0.027065413,0.027087398,0.02711173,0.027119651,0.02713902,0.027168367,0.027200306,0.027234532,0.027275702,0.0273199,0.027363885,0.02747535,0.027637627,0.027791835,0.027949791,0.02838006,0.028685072,0.02909083,0.030320253,0.03031893,0.029936459,0.029844174,0.030592145,0.03044532,0.030928941,0.03292446,0.03284323,0.032178294,0.03388906,0.034244355,0.037280995,0.034840062,0.037275054,0.038808662,0.038650036,0.04101787,0.04366929,0.04204276,0.039333362,0.04287697,0.05318045,0.0683142,0.05960685,0.05683987,0.06919373,0.08116661,0.07860726,0.06711448,0.054148603,0.05064008,0.048324943,0.05110862,0.061685115,0.06201217,0.05541611,0.045051638,0.044581365,0.04621167,0.042381946,0.040773157,0.040799074,0.04166752,0.042176906,0.044946983,0.04604671,0.046704657,0.048919417,0.053061962,0.064722806,0.07131691,0.06933097,0.065464534,0.059427314,0.052653737,0.048554044,0.04580918,0.04257115,0.038962115
INT-20230206_0000008|TK-2309|HN|SEISSOL,INT-20230206_0000008,2023-02-06T01:17:36.000000Z,37.08,37.17,20.0,7.83,41.56393847190536,80.96893034637156,-1.0,37.33460078205768,1.6088008578412405,38.35444704459292,38.60809331079406,234.0699374566991,234.7533719054596,62.939040616795786,63.21665131903091,-33.94927867935888,31.936010848530145,0.0,-33.94927867935888,374.2247397018059,TK,2309,38.72728,38.79913,TK-2309,653.7785034179688,False,0.05647132,PALEOZOIC,150.0,4,False,87.54153742052353,0.7208766091993025,0.0,0.014961248303654383,12.628412574436851,0.014959635,0.0149608925,0.014960675,0.014962032,0.014963506,0.0149638755,0.014964636,0.014965842,0.014966262,0.014968048,0.014969005,0.014970006,0.014970525,0.014971054,0.014972146,0.014973285,0.014976335,0.014979678,0.014983319,0.014984859,0.014987261,0.014991507,0.014996059,0.015000922,0.015006097,0.015011589,0.015017401,0.015030003,0.015043942,0.015059283,0.015064151,0.01507602,0.015094275,0.015113376,0.0151351765,0.015161314,0.015188807,0.01521889,0.015276065,0.015347251,0.0153883,0.0154655175,0.015583744,0.01564183,0.015685447,0.015899375,0.016036415,0.016139796,0.016184343,0.016316036,0.016315786,0.016169311,0.01579225,0.016101602,0.016587092,0.01671767,0.016356105,0.018352333,0.020077493,0.022010338,0.022569023,0.022876725,0.024459139,0.028219562,0.033750053,0.03717919,0.0374783,0.037504356,0.033663247,0.03851603,0.035328504,0.03193204,0.035016578,0.040794667,0.03765336,0.03653365,0.035555433,0.038655326,0.037854187,0.035028696,0.03812834,0.039456945,0.033894844,0.032175798,0.028870942,0.028915096,0.028794577,0.028464185,0.027347378,0.025958044,0.025541788,0.025837405,0.026891436,0.026843674,0.026376734,0.023801107,0.023277339,0.024372227,0.024483947,0.023435593,0.022770872,0.021421762,0.019633342,0.017841505,0.016482927
INT-20230206_0000008|TK-2310|HN|SEISSOL,INT-20230206_0000008,2023-02-06T01:17:36.000000Z,37.08,37.17,20.0,7.83,41.56393847190536,80.96893034637156,-1.0,37.33460078205768,1.6088008578412405,38.35444704459292,44.465833687821714,221.2310897497968,221.9540607240216,38.941276214064885,39.327540556266,-14.608076148975131,25.318059408874944,0.0,-14.608076148975131,367.6067882621507,TK,2310,38.824528,38.57266,TK-2310,481.3999633789063,False,0.05252599,JURASSIC-TRIASSIC,150.0,2,False,251.85503673851431,1.023120196320683,0.0,0.01607399228866469,13.245896568338669,0.01607178,0.01607394,0.016075745,0.01607733,0.016079186,0.016079746,0.016080918,0.016082793,0.016083451,0.01608625,0.016087754,0.016089328,0.016090142,0.016090972,0.01609269,0.01609448,0.016099276,0.01610453,0.016110249,0.016112667,0.016116433,0.016123079,0.016130185,0.016137745,0.016145723,0.016152935,0.016160559,0.016177544,0.01619722,0.016214637,0.016220676,0.016234048,0.016244175,0.016303254,0.016330818,0.01636786,0.01646041,0.016522976,0.016657954,0.016836924,0.016919656,0.016984755,0.017233007,0.017517343,0.017868344,0.01831807,0.018461108,0.01839543,0.018577801,0.019236946,0.018969575,0.019183366,0.019728327,0.019588813,0.019425502,0.019549266,0.020098114,0.025279662,0.029233322,0.030533323,0.03265228,0.03658269,0.03724003,0.03529779,0.03704073,0.03464895,0.038054638,0.034340084,0.0380626,0.04311206,0.04112958,0.043051917,0.053015955,0.057707988,0.060614586,0.051947698,0.040117532,0.032831088,0.035670176,0.03904546,0.04023703,0.04159982,0.038626697,0.038027786,0.039997343,0.037917104,0.03462067,0.03120559,0.02587092,0.025586935,0.024013229,0.025445698,0.024079114,0.024674974,0.024682011,0.022547876,0.020445671,0.01877686,0.017755553,0.017420352,0.016369727,0.015725367,0.015664274,0.015826553,0.016491516
