gmid,event_id,event_time,event_longitude,event_latitude,event_depth,magnitude,strike,dip,rake,rupture_width,depth_top_of_rupture,depth_bottom_of_rupture,azimuth,repi,rhypo,rjb,rrup,rx,ry0,rvolc,gc2t,gc2u,network,station_code,station_longitude,station_latitude,station_id,vs30,vs30measured,slope,geology,xvf,region,backarc,z1,z2pt5,fpeak,PGA,PGV,SA(0.010),SA(0.020),SA(0.022),SA(0.025),SA(0.029),SA(0.030),SA(0.032),SA(0.035),SA(0.036),SA(0.040),SA(0.042),SA(0.044),SA(0.045),SA(0.046),SA(0.048),SA(0.050),SA(0.055),SA(0.060),SA(0.065),SA(0.067),SA(0.070),SA(0.075),SA(0.080),SA(0.085),SA(0.090),SA(0.095),SA(0.100),SA(0.110),SA(0.120),SA(0.130),SA(0.133),SA(0.140),SA(0.150),SA(0.160),SA(0.170),SA(0.180),SA(0.190),SA(0.200),SA(0.220),SA(0.240),SA(0.250),SA(0.260),SA(0.280),SA(0.290),SA(0.300),SA(0.320),SA(0.340),SA(0.350),SA(0.360),SA(0.380),SA(0.400),SA(0.420),SA(0.440),SA(0.450),SA(0.460),SA(0.480),SA(0.500),SA(0.550),SA(0.600),SA(0.650),SA(0.667),SA(0.700),SA(0.750),SA(0.800),SA(0.850),SA(0.900),SA(0.950),SA(1.000),SA(1.100),SA(1.200),SA(1.300),SA(1.400),SA(1.500),SA(1.600),SA(1.700),SA(1.800),SA(1.900),SA(2.000),SA(2.200),SA(2.400),SA(2.500),SA(2.600),SA(2.800),SA(3.000),SA(3.200),SA(3.400),SA(3.500),SA(3.600),SA(3.800),SA(4.000),SA(4.200),SA(4.400),SA(4.600),SA(4.800),SA(5.000),SA(5.500),SA(6.000),SA(6.500),SA(7.000),SA(7.500),SA(8.000),SA(8.500),SA(9.000),SA(9.500),SA(10.000)
INT-20230206_0000008|TK-2107|HN,INT-20230206_0000008,2023-02-06T01:17:36.000000Z,37.08,37.17,20.0,7.83,41.56393847190536,80.96893034637156,-1.0,37.33460078205768,1.6088008578412405,38.35444704459292,62.37672743022847,240.9848580198409,241.64873638163908,65.9706465454271,68.25179641153771,63.56510575481318,43.41721633289916,0.0,63.56510575481318,385.7059451861749,TK,2107,39.48379,38.14594,TK-2107,517.8364868164062,False,0.032791544,CRETACEOUS,150.0,2,False,207.73937865196723,0.9411897597157092,0.0,0.0904572056423612,22.4557341892376,0.0904567937071924,0.0907829368332928,0.0909327135849382,0.0911112612179215,0.0914845837788247,0.0916330575787357,0.091765342573491,0.0923678094886818,0.0925922199396327,0.0930332902289839,0.0935490456093123,0.0939520309808101,0.0940052726557604,0.0942585817013375,0.0950376040401374,0.095022441897506,0.0967231900907562,0.0996045207282199,0.1023002041869,0.1032366771971399,0.1030087289749199,0.1035804316276574,0.1094407805060149,0.1096171916310573,0.1052665666005622,0.0999866318746651,0.1041778578400642,0.1099743329012404,0.1138646373542149,0.1282649463600313,0.1314341269291202,0.1493027043815864,0.1700282346087871,0.1670154040453456,0.1542762714349761,0.1528137772716518,0.1612273286037135,0.1662025875445627,0.2158662696662472,0.2333227671919998,0.2485056024491509,0.2614165524855643,0.3091140470782521,0.3020844780132334,0.3017632391650711,0.2723023697637742,0.2697919425895787,0.2719299224803503,0.291147268823727,0.2977513212920157,0.2787920771923299,0.2392921131433615,0.2181985386175048,0.2178494795865753,0.2163534712735615,0.2156744807762214,0.2011352271096408,0.1737681576414732,0.1829684524982917,0.1667898945729407,0.1661057810388394,0.1632111104557275,0.1710647908469957,0.2073232973102535,0.2268753922427891,0.2064261299334812,0.1717424544069119,0.1617885518234317,0.1763265949573089,0.1690169688832663,0.1374283051685086,0.1209650496823775,0.1351365267329137,0.11790073755541,0.1051405857003924,0.1033358146577227,0.099685053785247,0.0954972359047394,0.0797470915362929,0.0626349493771173,0.0503186685711026,0.0450574837834867,0.0414834689985301,0.0425634188655794,0.0466666421518832,0.0367577294918525,0.0343245445392629,0.0318140793604041,0.0291110054042946,0.0274908541313679,0.0270836165451005,0.0254023737128771,0.0249035683789701,0.0293298368556568,0.0300562558540079,0.0281848043034195,0.030770030347722,0.0340616234283161,0.0382938905640824,0.0359970600980986,0.0298228755193575,0.0231287500140639,0.0213936550192414,0.0196936859973389,0.0178739856712519
INT-20230206_0000008|TK-2108|HN,INT-20230206_0000008,2023-02-06T01:17:36.000000Z,37.08,37.17,20.0,7.83,41.56393847190536,80.96893034637156,-1.0,37.33460078205768,1.6088008578412405,38.35444704459292,65.88629931028765,377.5388150143242,377.9629172847782,200.27346346702356,201.6025937383829,133.21027353550994,157.25630471182615,0.0,133.21027353550994,499.5450335651019,TK,2108,41.002003,38.48776,TK-2108,474.1239929199219,False,0.021583695,CENOZOIC,150.0,0,False,261.0385118954743,1.0411018317574354,0.0,0.0202999583629236,6.20376745908675,0.0202973865767268,0.0204600483283694,0.0204969159400044,0.020601749861569,0.0207873907292473,0.0208667412980815,0.0207132645731251,0.0205233530908335,0.0205755752048122,0.0210539638082445,0.0215527728346055,0.0218939632882604,0.0221246252671391,0.0228140448325209,0.0239724695744556,0.0254582949933567,0.0342151905662035,0.0299208152614534,0.0297891039920776,0.0294179381012426,0.0292184955461336,0.0308322249429419,0.0311384352768468,0.0303887111613916,0.0279958598284743,0.0296833677784919,0.0315056731278524,0.0316388312245039,0.0381600525572974,0.0404358934988783,0.037366074673433,0.0371062544326076,0.0337918776139328,0.0340508663546421,0.0380063210200427,0.0402235425879492,0.0423052493610969,0.0408953017447638,0.0378474325911305,0.0473198556726275,0.0530775124898743,0.0595595065097575,0.0595878928023459,0.0550483656382492,0.0550882409982085,0.0501492278773959,0.0555831338463205,0.0626519191136206,0.0646447089682915,0.0597747047332428,0.0479222794293511,0.0386582594569511,0.0352301920509925,0.0345672237223101,0.0333723967874573,0.0312014177328561,0.0325730332321226,0.0269202493681372,0.0298479351740855,0.0271611301997452,0.0256122525690937,0.0256916264187881,0.0273051591708163,0.0278024663247725,0.0272373337533953,0.028586122596303,0.0314680238535333,0.02974845842696,0.0299775051464014,0.0230198117375388,0.0254457048587625,0.0253915551407717,0.0272495419520839,0.0245590515357937,0.0233034777761491,0.0231440405719959,0.0272441016871735,0.0261961580961063,0.0199501294360993,0.0197648528662449,0.0185800948537166,0.0160488552436013,0.0139494489067749,0.0144479104011782,0.0155337120710267,0.0179454403839507,0.0183679175800539,0.0181965250121754,0.0176981857457892,0.0159663856808162,0.0139088123472308,0.0113544914871409,0.0100626429729449,0.0087188215781369,0.0087010552757378,0.0096553961753292,0.0098010912280191,0.009069046159786,0.0077874363444431,0.0081332298353119,0.0070851306405341,0.0056916649596425,0.0047822572731419,0.0045426669126972,0.0045898495314852
INT-20230206_0000008|TK-2302|HN,INT-20230206_0000008,2023-02-06T01:17:36.000000Z,37.08,37.17,20.0,7.83,41.56393847190536,80.96893034637156,-1.0,37.33460078205768,1.6088008578412405,38.35444704459292,58.692433233198926,268.6057806739587,269.20155165129864,84.74060253899765,86.12942870410055,54.82814844593539,70.66417759689415,0.0,54.82814844593539,412.9529064501699,TK,2302,39.67541,38.39231,TK-2302,907.0,True,0.13152272,CENOZOIC,150.0,2,False,14.736879411837409,0.4956907855301884,0.0,0.231903751025785,14.10352067543064,0.231884045344404,0.2416589652294171,0.2435124849107349,0.2578935009727777,0.2635189941576149,0.2743647325604115,0.2979555988700199,0.3425373751312067,0.3553019984208645,0.3580293754820122,0.3391988728731171,0.3563973514271099,0.3700434118055716,0.3972298682275995,0.4219137663052808,0.4040547110091257,0.3610434596140877,0.3593883139988661,0.3505801264949003,0.3478531710098196,0.354430282339668,0.4169206826258655,0.4107615063292074,0.4505508765353848,0.5746269467145764,0.6217070081165604,0.5625935460282039,0.5421113338751041,0.581718824217078,0.5857076013981792,0.577478050803551,0.5736543610792383,0.5397210116465688,0.5884105458998324,0.5381318753801764,0.459421431016666,0.4135027050463962,0.4295821918373496,0.4624086493296943,0.4679800565887042,0.4624280687421517,0.4934552409234792,0.5126606481478774,0.4967753327129438,0.4706911540670226,0.3864263240261459,0.335890071409172,0.3190671312350598,0.3000484843532109,0.2566664758973441,0.2327227174475776,0.2271892989707147,0.235461217551626,0.2457185754397261,0.2469331751384449,0.2339222053717487,0.2168414811796974,0.1921775288916399,0.1687348014678893,0.1276954810021933,0.1157454129453884,0.1028439526420302,0.0935867395476126,0.0785008008782202,0.0551614662767852,0.0589434479915103,0.0516281789415759,0.0575103795154994,0.0589281481570921,0.0479231804155809,0.0441770613879924,0.044153839432259,0.0452054275057679,0.042818466677289,0.0428919855466013,0.0498138834008169,0.051287807097031,0.042328195642574,0.0350518101518324,0.0312853489268958,0.0275878704617662,0.0267691576702942,0.0251488483784281,0.0268282231445848,0.026128757829347,0.0224603976173036,0.0199862645276937,0.0192927180029733,0.019080754261126,0.0186467123750264,0.0184857189650719,0.0184357921897936,0.0177112010336155,0.0165072138396981,0.015855291229177,0.0151509386963169,0.0133381378956006,0.0150948800928442,0.0162152719485297,0.0149468579031391,0.0151977440309783,0.0159418550477626,0.015952919423109,0.0155396540952712,0.015042074288182
INT-20230206_0000008|TK-2304|HN,INT-20230206_0000008,2023-02-06T01:17:36.000000Z,37.08,37.17,20.0,7.83,41.56393847190536,80.96893034637156,-1.0,37.33460078205768,1.6088008578412405,38.35444704459292,54.186290915611096,301.78038971415305,302.3107897777155,113.66025993191067,114.23021376515116,40.653143899358575,102.80027763763258,0.0,40.653143899358575,445.08900649090833,TK,2304,39.86293,38.72096,TK-2304,539.834228515625,False,0.0847545,PLEISTOCENE,150.0,2,False,183.1391845994413,0.8974446320971882,0.0,0.0401549108334761,13.052831777088556,0.0401229418068463,0.041430913891792,0.0418346671949646,0.0424597925611067,0.0429013594563721,0.0430043524524931,0.0444049155564156,0.0494736068328785,0.0515915686470525,0.0583040402139312,0.0574387328863193,0.0641263672404104,0.0644993177385771,0.0661168106434036,0.0710382317187612,0.0765887567775064,0.0815545043561029,0.1085708324827895,0.1406694342372323,0.1455010761804635,0.1398358476867738,0.1203808273902475,0.1188341898544863,0.1468762788568245,0.137144351911068,0.1491308350528987,0.1618502277503142,0.2002262524006801,0.1833546225487555,0.143138253323007,0.1361337074301179,0.1106271592944126,0.0889873918247331,0.0842656518919439,0.0826761492792185,0.0732346491462222,0.071968740755576,0.0844349971530236,0.0894158419372754,0.0954573700669483,0.0898133934409875,0.0782161189372354,0.067635272884946,0.0645858150980198,0.0611370726441278,0.055212957126691,0.0564453337955993,0.0562088582857781,0.0543085093820742,0.0541330101340875,0.0455459485990647,0.0452226865223413,0.0414192202844003,0.0376958923800897,0.0362851040787306,0.0366742700519806,0.0373336089569439,0.0358632457850552,0.0331713535594358,0.0367270242184289,0.0336833200714331,0.0325329807735275,0.0322620329150011,0.0316220231030531,0.0344871585210846,0.034536334029328,0.0330474561664195,0.0298056501897822,0.0259462029429476,0.0264277466351236,0.0262079305554482,0.0341742771055609,0.0359064026567128,0.0329568553143464,0.031906463695955,0.0327379099832579,0.0327599762404583,0.0287712292771026,0.0271011443749147,0.0302184349241008,0.0325260481370563,0.0332399094209521,0.028970405635566,0.0270755395467016,0.0285543999538644,0.0278292007641552,0.0271178438171852,0.0267436330420992,0.0252482020210705,0.0221182580806165,0.0220936272814419,0.0206727144919441,0.0194539353724738,0.0191824875272416,0.0208448314285822,0.0238331555778643,0.0252446213759139,0.0239225832215167,0.020755392798915,0.020380782679594,0.0197415139412177,0.0179750068722701,0.0173011451920883,0.0166208158676709,0.0159159782204404
INT-20230206_0000008|TK-2305|HN,INT-20230206_0000008,2023-02-06T01:17:36.000000Z,37.08,37.17,20.0,7.83,41.56393847190536,80.96893034637156,-1.0,37.33460078205768,1.6088008578412405,38.35444704459292,56.39164519371917,321.72501321413506,322.22258475723794,134.72830378189434,135.47217824364003,57.49114445721951,120.04693612951183,0.0,57.49114445721951,462.3356649827876,TK,2305,40.13103,38.72778,TK-2305,767.6091918945312,False,0.11282271,CENOZOIC,150.0,2,False,39.12441054817543,0.599947477369787,0.0,0.0660744842374676,11.77589177166547,0.0660097398508154,0.0703021659927611,0.0719831808304239,0.0764552558034138,0.0871148560811897,0.0881403033189408,0.092780949198731,0.0985819949752829,0.1007917170561963,0.1103992445849415,0.113877032394892,0.1264656894580961,0.1337385033730064,0.1394646787479206,0.1501023992574083,0.1578047753060069,0.1539856398080742,0.1542440260566386,0.1590355909659339,0.1654638078509679,0.1757082026104472,0.1940588033509378,0.1938981256736296,0.1873521307635246,0.1643005225759716,0.1497758570025666,0.1304721951655424,0.1116126208614257,0.1072689076097204,0.0910590128453319,0.0888296331889919,0.0729366126341396,0.0836784807008135,0.0834137360398926,0.0866808842721648,0.0952847530142714,0.1028762206336451,0.0991111029642354,0.0722692819666466,0.0886288849581688,0.0933771340137219,0.0959919674036955,0.0980214517506534,0.0934483954776753,0.0859191987388061,0.0780153371556972,0.0639430567344294,0.0582934029747441,0.0559184754930754,0.0539314353646499,0.0544255270733917,0.0584887489959789,0.0618318242052034,0.0669492353804492,0.0708225294949679,0.072631091858641,0.0692827859487768,0.0548033513229972,0.0424886857058763,0.041503346630349,0.0388445746758735,0.034523689522857,0.0335476926355189,0.0301763560084239,0.0252396408891045,0.0256356952915436,0.0286767161376322,0.0268371308492549,0.0226033376065209,0.020312169791657,0.021358986948192,0.0230995025325314,0.0234567282919298,0.0230780592320751,0.024579555576847,0.0225901672626562,0.0231134335931313,0.0219081879087705,0.0255816620494375,0.0192312242186592,0.0180334233113741,0.0165477853780339,0.0183762074693597,0.0212983470207085,0.0214455308090599,0.0206536939156002,0.0204535801124097,0.0201266185078795,0.0187301426944189,0.0171079503945286,0.0156016704537436,0.0143292412716031,0.0132094294545674,0.0142649748704341,0.0149302378293698,0.0156376087594407,0.0152828621883149,0.0131018243873584,0.0139014717617862,0.0137055959732144,0.0140441468976141,0.0139698593349575,0.0138669125003996,0.0139720940460256,0.0139679797912497
INT-20230206_0000008|TK-2307|HN,INT-20230206_0000008,2023-02-06T01:17:36.000000Z,37.08,37.17,20.0,7.83,41.56393847190536,80.96893034637156,-1.0,37.33460078205768,1.6088008578412405,38.35444704459292,55.25124688183496,305.2326616951039,305.7570731242006,117.64972148155196,118.3080507680056,47.11716453030967,105.5822404687147,0.0,47.11716453030967,447.87096932199046,TK,2307,39.93199,38.69583,TK-2307,508.096923828125,False,0.087393254,CRETACEOUS,150.0,2,False,219.16571260311684,0.9618574457208704,0.0,0.0369421758645032,14.882420189245142,0.03694564852973,0.0372232843929875,0.0373385895584536,0.0375767598059953,0.0379690871070591,0.0381307382667535,0.0379612299884186,0.0378805084071953,0.0382287705072253,0.0392467917135305,0.0397393769075865,0.0399164895327571,0.0400059906681074,0.039960419175068,0.0393980542766654,0.0390924181733413,0.0413329904605523,0.0430573555302265,0.0429895738943135,0.0442399187590593,0.0435822148525812,0.0500093479675947,0.05836780994616,0.0700543886670188,0.0767771565684264,0.0877127642600969,0.074965954961019,0.0727799495818165,0.0845848593101707,0.0833729183413856,0.0784887980948139,0.065972146529052,0.0532590036385956,0.0528605624887611,0.0564094405050247,0.0550234503795421,0.0610232923485519,0.0609512010488198,0.0705932965284589,0.0726703267342661,0.0680747592393343,0.0675963623492593,0.0663483191877367,0.0683580097654349,0.0688227288631678,0.0739712543739114,0.0691552477262661,0.0691400756942869,0.0732549624795879,0.0717118935624358,0.0692348354479522,0.0819134270421941,0.0801897069750878,0.074858854110249,0.0687877164410074,0.0681149437620313,0.0725759457514913,0.0665076231620214,0.0769001272689703,0.0825503756528215,0.0837220857942505,0.0745068590588988,0.0721733380622776,0.0681118342648367,0.064324408686635,0.0576439982401351,0.0520527980466797,0.0526567543026937,0.0571440589670199,0.0625006121290981,0.0621179282495347,0.06338394177186,0.061885508991396,0.0556045768202688,0.0434205571382231,0.041136275238819,0.0426152180191294,0.0408022481240657,0.0443859508551617,0.0540570772160365,0.0559958370382981,0.0535230702047591,0.0476287384140205,0.0419742839189995,0.0369052485163202,0.0394691248328758,0.0416797702687735,0.0414682075830745,0.0381062254202117,0.0344864237219856,0.0345611904484058,0.0311520847359986,0.0263572340527798,0.0222003588255275,0.0197844297235191,0.0173510640242296,0.0166069782437206,0.0172038558386467,0.0190882015421017,0.019190810917341,0.0175236035540959,0.0166926011647622,0.0161723677925998,0.0154724393315944,0.0146443596823734
INT-20230206_0000008|TK-2308|HN,INT-20230206_0000008,2023-02-06T01:17:36.000000Z,37.08,37.17,20.0,7.83,41.56393847190536,80.96893034637156,-1.0,37.33460078205768,1.6088008578412405,38.35444704459292,53.67362326344335,245.16156045387336,245.81415891721576,57.11515822109248,57.82137557456684,25.17730381135489,51.156823754861136,0.0,25.17730381135489,393.4455526081369,TK,2308,39.3102,38.45063,TK-2308,600.0,False,0.015357924,HOLOCENE,150.0,2,False,125.83403858285288,0.7952589249703402,0.0,0.2676729247621708,33.44937495881542,0.267575102676935,0.2713334881257097,0.2753336943617733,0.2785136592064066,0.2827383153064384,0.2921051368114596,0.303070805645123,0.3136894974226982,0.3289501356257978,0.3466506828506731,0.3779348202249659,0.3963743898080956,0.3926448058149001,0.3980695075150477,0.3884648454930129,0.3910202711711618,0.3809297447577052,0.4226512162763101,0.4341529949484563,0.4600377537328377,0.4860108759804887,0.5009763789906967,0.4735803345776616,0.4375871875652652,0.4846582591644253,0.5237495211426986,0.5238137003285327,0.5359950002886428,0.5328744443410466,0.4891766460736378,0.4655266810906931,0.4251982512605071,0.4406522042273632,0.4303656941376383,0.4747250823053013,0.4212517742072124,0.3954744581234611,0.4711323046386505,0.4435361324607536,0.3726802524127131,0.3976003830909053,0.4414964023772704,0.552062875585829,0.5887406884684512,0.5809438067607929,0.5993620285196017,0.594447904282133,0.5941490053418579,0.5905670728474991,0.5877177649259376,0.5724920792805587,0.5804217400841581,0.55621885471862,0.5381298321928931,0.5349639946514032,0.5379727483019114,0.5273794313264052,0.4906192813931997,0.4684131597654225,0.4405680567382758,0.4438112702472072,0.4443865275250849,0.3922693135915429,0.3691189464090257,0.3731651810922721,0.3994069698297879,0.3855976948356847,0.33084689940048,0.2408723117624418,0.2262820702331714,0.2372122886462261,0.2032719496021766,0.2075175786173323,0.2383824980795387,0.2513861543716608,0.2169077570603743,0.174797839796355,0.1762008529457501,0.1420399869864194,0.1110589631941439,0.1031282630164616,0.0908183590176038,0.0702658202217206,0.0572686991053031,0.0550567845924478,0.0573489332049916,0.0589092530946508,0.0585353847850697,0.0532724638383513,0.0479010153789504,0.0423636394061198,0.0382819474540035,0.0344565843213069,0.0302278560046518,0.0294956313510996,0.0289896244238801,0.028316600784093,0.0300012696923864,0.0271605281029318,0.023010616512252,0.0218054697653555,0.0202738171038374,0.0184283914045426,0.0166295582182388,0.0151880067636274
