gmid,event_id,event_time,event_longitude,event_latitude,event_depth,magnitude,strike,dip,rake,rupture_width,depth_top_of_rupture,depth_bottom_of_rupture,azimuth,repi,rhypo,rjb,rrup,rx,ry0,rvolc,gc2t,gc2u,network,station_code,station_longitude,station_latitude,station_id,vs30,vs30measured,slope,geology,xvf,region,backarc,z1,z2pt5,fpeak,PGA,PGV,SA(0.010),SA(0.020),SA(0.022),SA(0.025),SA(0.029),SA(0.030),SA(0.032),SA(0.035),SA(0.036),SA(0.040),SA(0.042),SA(0.044),SA(0.045),SA(0.046),SA(0.048),SA(0.050),SA(0.055),SA(0.060),SA(0.065),SA(0.067),SA(0.070),SA(0.075),SA(0.080),SA(0.085),SA(0.090),SA(0.095),SA(0.100),SA(0.110),SA(0.120),SA(0.130),SA(0.133),SA(0.140),SA(0.150),SA(0.160),SA(0.170),SA(0.180),SA(0.190),SA(0.200),SA(0.220),SA(0.240),SA(0.250),SA(0.260),SA(0.280),SA(0.290),SA(0.300),SA(0.320),SA(0.340),SA(0.350),SA(0.360),SA(0.380),SA(0.400),SA(0.420),SA(0.440),SA(0.450),SA(0.460),SA(0.480),SA(0.500),SA(0.550),SA(0.600),SA(0.650),SA(0.667),SA(0.700),SA(0.750),SA(0.800),SA(0.850),SA(0.900),SA(0.950),SA(1.000),SA(1.100),SA(1.200),SA(1.300),SA(1.400),SA(1.500),SA(1.600),SA(1.700),SA(1.800),SA(1.900),SA(2.000),SA(2.200),SA(2.400),SA(2.500),SA(2.600),SA(2.800),SA(3.000),SA(3.200),SA(3.400),SA(3.500),SA(3.600),SA(3.800),SA(4.000),SA(4.200),SA(4.400),SA(4.600),SA(4.800),SA(5.000),SA(5.500),SA(6.000),SA(6.500),SA(7.000),SA(7.500),SA(8.000),SA(8.500),SA(9.000),SA(9.500),SA(10.000)
INT-20230206_0000008|TK-0506|HN,INT-20230206_0000008,2023-02-06T01:17:36.000000Z,37.08,37.17,20.0,7.83,41.56393847190536,80.96893034637156,-1.0,37.33460078205768,1.6088008578412405,38.35444704459292,344.90133247073413,401.2687663031687,401.6678140086246,357.6889453276072,357.59014043425327,-306.51605602563825,3.473648245264769,0.0,-306.51605602563825,345.7623770985405,TK,0506,35.80388,40.64382,TK-0506,632.46630859375,False,0.025534226,CRETACEOUS,150.0,4,False,101.3135671781918,0.7487327013098488,0.0,0.0034995552017301,4.078682201404652,0.003499533699985,0.003499978704986,0.0035000370212069,0.0034999011119058,0.0035004284862494,0.0035007991897274,0.0035012415556001,0.0035032059217659,0.0035034266387539,0.0035037597022036,0.0035041826730384,0.0035048018681944,0.0035050484494119,0.0035055131224151,0.0035072652724293,0.0035087990341147,0.0035108526709517,0.0035111038312957,0.0035105955986132,0.0035122408465163,0.0035160976350316,0.0035190236017091,0.0035220377819912,0.0035213807770569,0.0035261281024009,0.0035260692031864,0.0035295354833506,0.0035269788428805,0.0035201124539274,0.0035264820839302,0.0035359927655934,0.0035706002718526,0.0035827428279065,0.0035826634755996,0.0036816487444906,0.0038198784309779,0.0038260882933757,0.0038108845158218,0.0037926859451017,0.0039866612618692,0.0041797828135149,0.004142558332303,0.0040379994339103,0.0040563095352788,0.004213543215214,0.0046117747476514,0.0047561942200111,0.0049379703104997,0.0053775643456716,0.0058084612089608,0.006983175679255,0.0076143709772642,0.0083791941105172,0.0085628127871272,0.008269598806469,0.0086868064914206,0.0091334374940953,0.0097582105635785,0.0100346782983457,0.008517275479658,0.0086550227472581,0.0095827203850416,0.0090696069347918,0.0080706106655837,0.0064977712880437,0.0059849255504079,0.0055015243928962,0.0054023111001696,0.0058894718023612,0.0061314539761127,0.0057378653268901,0.0052668990860789,0.0053022964636347,0.005096169482878,0.0051679141282766,0.0054732565029418,0.0059545220025079,0.0064168396138674,0.0077552852372137,0.0071174617443067,0.0069640355060391,0.0066241258672551,0.0058914603321725,0.0056029760649532,0.0055288405829976,0.0056756841585874,0.0052951076014807,0.0046881717266314,0.0039149178605492,0.0038367767907183,0.0043596848496603,0.0049181686708592,0.00518772615275,0.0053607018438825,0.0061214312541991,0.0050922500429465,0.0047925460200007,0.0044619853749054,0.0041035239820075,0.0041003767145742,0.0050925174580645,0.0059150561260772,0.0063069911221244,0.0061809516913713,0.0057865492940292
INT-20230206_0000008|TK-0509|HN,INT-20230206_0000008,2023-02-06T01:17:36.000000Z,37.08,37.17,20.0,7.83,41.56393847190536,80.96893034637156,-1.0,37.33460078205768,1.6088008578412405,38.35444704459292,351.3718684442391,404.5565267492234,404.95233464618417,346.2172808284545,346.1303914360944,-287.4340767346991,38.44427554627134,0.0,-287.4340767346991,380.7330043995471,TK,0509,36.32186,40.76096,TK-0509,548.4796752929688,False,0.019935936,CRETACEOUS,150.0,4,False,173.97344646496222,0.8812800235085739,0.0,0.0058174382434667,5.075487487606607,0.0058174495882425,0.0058190297318954,0.0058194909503797,0.0058204679898568,0.0058260435323762,0.0058285661145844,0.0058316422496427,0.0058301549486603,0.005831202721505,0.0058383934070692,0.0058446762527109,0.0058473301295829,0.0058461184145904,0.0058422597141712,0.0058347573091313,0.0058351248459357,0.0058349965794635,0.0058264902537268,0.0058379491665852,0.0058356227241276,0.0058380280773297,0.0058400387581749,0.0058342508922605,0.0058327393753118,0.0058259359735437,0.0058302187625534,0.0058374658808855,0.0058372759443527,0.0058598947491335,0.0058709873577214,0.0058736307595568,0.0058754684144491,0.0058910953635191,0.0059014569098189,0.0059020241544967,0.0058856032345327,0.0059745200502475,0.0060260802251711,0.0060148852720662,0.0061814663346464,0.0062670924982331,0.0063327976684508,0.0063423155505851,0.0064366253259261,0.0064275296071582,0.0065446895553364,0.0065821226799206,0.0063827551510553,0.0060543165732441,0.006391930811615,0.0065277847598996,0.0070097794714931,0.0073708120558298,0.0078581537677714,0.008202266313476,0.0081656247421659,0.0079254072618972,0.0078882183949464,0.008500353776955,0.0082261548110003,0.0081131016193467,0.0081968602470161,0.0093579195591788,0.0105733926282344,0.0109052072469985,0.0111874129475511,0.0106021503845501,0.0117865738138975,0.0132805575785301,0.0136326533131313,0.0130651404246164,0.0155140157828885,0.0195252693554825,0.0212357136366421,0.018108934812344,0.0178961698223167,0.0170007830838328,0.0134454808594088,0.0152366404765126,0.0142277882685222,0.0133465720859164,0.0134808315839303,0.0142930964235412,0.0125744706481221,0.0102355197699754,0.008811030359182,0.0082360778485437,0.0076201657192704,0.0073418864505314,0.0067521155474244,0.0074105369384205,0.0072399765426176,0.0071392221376868,0.0079159735862601,0.0078228952202984,0.0072505311921698,0.0067337916567815,0.0081895377614153,0.0099585472041951,0.0113413631269464,0.0118448410607835,0.0114379937889078,0.0098155729303176,0.0075611423701899,0.0059436514165175
INT-20230206_0000008|TK-0510|HN,INT-20230206_0000008,2023-02-06T01:17:36.000000Z,37.08,37.17,20.0,7.83,41.56393847190536,80.96893034637156,-1.0,37.33460078205768,1.6088008578412405,38.35444704459292,339.54556070250595,442.5951189634045,442.9569384604221,406.6693402933124,406.5398585763149,-356.9266200357882,0.0,0.0,-356.9266200357882,334.8903824842843,TK,0510,35.203395,40.881525,TK-0510,374.54730224609375,False,0.020257019,CRETACEOUS,150.0,4,False,386.1463346773052,1.36339578784797,0.0,0.0040880460042382,3.3930902694284795,0.0040880747109008,0.0040889775299858,0.004089386357086,0.0040898230927348,0.004090733618428,0.0040909921054485,0.0040911811580998,0.0040909803432577,0.0040914611913857,0.0040945264400089,0.0040954610731071,0.0040957159921395,0.004095839285356,0.004095627974709,0.0040956336123411,0.004096058202546,0.0040996217401388,0.0040973710800673,0.0040987152640236,0.0040979442753384,0.0040973375711628,0.0040989040560008,0.0040986043366236,0.0041052825604066,0.0041094029246693,0.0041139916139105,0.004121018484972,0.0041198855999282,0.0041277221618348,0.0041513921415114,0.0041561896620614,0.0041591823941128,0.0041637952767832,0.0041920777188477,0.0042005190655964,0.0041911803046287,0.004173860667781,0.0041338548967416,0.0042563307432979,0.0043332977023098,0.004405610898844,0.0044571756274069,0.0043973707282342,0.0043688722008953,0.0043834360248137,0.0044022830493566,0.0048021016176092,0.0047184731859494,0.0047067491619702,0.0049161184029585,0.0051252534022942,0.0053262085872758,0.0050938974619669,0.0053504281629763,0.005608953536523,0.0061313515238019,0.0063628771406834,0.0076313543046759,0.0070857220423088,0.0082978217559153,0.0086113428865203,0.0076578353797542,0.0089260324491192,0.0094961683729113,0.0083098155512593,0.008986931855588,0.00962663019587,0.0092482828873586,0.0089011392129888,0.0110470997665259,0.0115454280520625,0.0100707353063615,0.0119334097707207,0.0102631281354596,0.0091127282461505,0.0094234380147339,0.0088187496936531,0.0089987402534356,0.010304800538043,0.0122081879501697,0.0105781436799975,0.0084480426436832,0.007397452494505,0.0059313943646314,0.006235250136209,0.0064112724423937,0.0065318404847053,0.0065477153253391,0.0058724539473812,0.0056373372252736,0.0055401067405751,0.0049514141030687,0.0047119774942524,0.0044720922525687,0.0043076004622553,0.0045644509480681,0.005752848954385,0.0059949634101818,0.0052494508780991,0.0044479214378039,0.0037514430319568,0.0037846200924631,0.004387519358895,0.0049686200412282,0.0052698108825496
INT-20230206_0000008|TK-0512|HN,INT-20230206_0000008,2023-02-06T01:17:36.000000Z,37.08,37.17,20.0,7.83,41.56393847190536,80.96893034637156,-1.0,37.33460078205768,1.6088008578412405,38.35444704459292,344.0642921360693,422.9100260235917,423.2886723162752,380.1494907750732,380.037284336276,-326.696426554441,9.846816894195229,0.0,-326.696426554441,352.135545747471,TK,0512,35.663114,40.815357,TK-0512,201.0,True,0.017973699,CENOZOIC,150.0,4,False,509.07398646308576,2.7788000148494323,0.0,0.0088842457354282,4.915348384457403,0.0088842236917911,0.0088880682657466,0.0088898071403366,0.0088985983752177,0.0089010814238605,0.0089018908819137,0.0089021615452734,0.0088940648093392,0.0088961928190079,0.0089010190112871,0.008893773865288,0.0088903961028625,0.0088920702248668,0.008890855423474,0.0088971824559275,0.0089112573562464,0.0089199702240859,0.0088990177529675,0.0088807366976797,0.0088838415776178,0.0088944818019044,0.0089017599524855,0.0089016370341248,0.0089064070518518,0.0089060772492663,0.0089057280194563,0.0089090637357067,0.0089313267320723,0.0089405992972042,0.0089544040436369,0.0089617074617985,0.0089740097468341,0.0089803960912746,0.0090020936832376,0.0090075445496167,0.0090018164831744,0.0089825089371797,0.0089568840785101,0.009117699257161,0.009169427996372,0.0091220064217846,0.0091002558022144,0.0091389084427187,0.0090262744988792,0.0091832739949403,0.0093844897660059,0.0095143018997815,0.0095114425122896,0.0093385647415779,0.0093922745996601,0.0094470677005722,0.0098401780063279,0.0101647046132199,0.0103359997737217,0.0103386766801513,0.0103895738770617,0.0103561309949498,0.0114936144934135,0.0126646534229804,0.0139477403033362,0.0149710489739558,0.017669483914272,0.0180183132247785,0.0197380616198949,0.0198708026639191,0.0169000380229199,0.0189214628403779,0.0206936617290865,0.0215830001159232,0.025672872145367,0.0293444016793736,0.0280718790372498,0.0310147773959271,0.0303331133259545,0.0287588379870633,0.0284620215060619,0.0276491447543765,0.0300430186237671,0.0256779581930288,0.022216087160581,0.022807627599928,0.0218439770940209,0.0194613393860301,0.0197925068868477,0.020597653385625,0.018280396942097,0.0178578908616859,0.0182176771923019,0.0172605675358055,0.0143021327348728,0.0144943550117138,0.0142594285171431,0.0142716414022401,0.0145510623146137,0.0133763113005612,0.0117152073963246,0.0100255092312363,0.0076283221653994,0.0057860623009914,0.0050267882593871,0.0059631898072254,0.0076473113597441,0.0086968465979366,0.0086288073906648,0.0077656389012559
INT-20230206_0000008|TK-0603|HN,INT-20230206_0000008,2023-02-06T01:17:36.000000Z,37.08,37.17,20.0,7.83,41.56393847190536,80.96893034637156,-1.0,37.33460078205768,1.6088008578412405,38.35444704459292,309.07522294200646,433.2587090803942,433.6283189483935,404.73332202680143,404.7910030094002,-390.125619359754,0.0,0.0,-390.125619359754,135.26125840453955,TK,0603,33.11857,39.55831,TK-0603,450.0,True,0.0914473,CENOZOIC,-150.0,4,True,291.9769524234738,1.1051938675390025,0.0,0.0034417883443802,3.7030916881365705,0.0034417521740367,0.0034430148666896,0.0034436989338096,0.0034451849969851,0.0034463696989971,0.0034479541311232,0.0034489538375007,0.0034546795082729,0.0034587114752179,0.0034476379966582,0.003448176872961,0.0034469972708991,0.0034459578633507,0.0034439432172391,0.0034427047935733,0.0034422649067977,0.0034408494174079,0.0034403732904533,0.0034430552144524,0.0034434588018461,0.0034441895121617,0.0034464474751253,0.003445275918942,0.0034448235629017,0.0034457793925064,0.003446865963268,0.0034462387812923,0.0034506314921118,0.0034568247229453,0.0034612089482072,0.0034622483634194,0.0034736449109603,0.0034962969688099,0.0034934381235761,0.0034923937198605,0.0034940963869892,0.0035596370664009,0.0035983986148512,0.0036363985757039,0.0036582642677489,0.0035979022048865,0.0035944705136337,0.0037422410624711,0.0037952104928419,0.0038162897080194,0.0037899609919745,0.0036188266844773,0.0035502282070514,0.003562781269642,0.0036327515535347,0.0037176094699668,0.0037787811580932,0.0038972222477684,0.0038860833426669,0.0038339207420975,0.003751804549627,0.0038979441822796,0.0039347199359449,0.0036957172272586,0.0039681600321916,0.0042873021372692,0.004755225481833,0.0046213854475734,0.004488927737615,0.0044551410725694,0.0046969102223673,0.0052730186359605,0.0051787994299008,0.0050432706462513,0.0049265140648257,0.0051332238195762,0.0054059942911331,0.0066005372935899,0.0063710342886705,0.0064067655480819,0.0058808978158038,0.0053947321306305,0.005470034591273,0.0052153636035221,0.0049035443405138,0.0048633846655768,0.00476637880843,0.0053431195785674,0.0052431047590359,0.0051646157270465,0.0042201331747565,0.0040096111945086,0.0045000188064429,0.0042174676563922,0.0034696843090562,0.0036779770908043,0.0039172334886128,0.0041884624376224,0.0045601875814785,0.0045569500181022,0.0052422264879872,0.0060762037657743,0.0068898054603834,0.0083322291177543,0.0089884587628984,0.0091876876640584,0.0090566763000288,0.0085163642044577,0.0078455568253391,0.006948062690256
INT-20230206_0000008|TK-0604|HN,INT-20230206_0000008,2023-02-06T01:17:36.000000Z,37.08,37.17,20.0,7.83,41.56393847190536,80.96893034637156,-1.0,37.33460078205768,1.6088008578412405,38.35444704459292,304.04274512935734,367.0481734981013,367.48438289033766,339.2368716057769,339.25932152373866,-325.0293994601139,0.0,0.0,-325.0293994601139,110.39225465286655,TK,0604,33.52402,38.96246,TK-0604,291.0,True,0.074973814,CENOZOIC,-150.0,4,True,465.51510114524814,1.8197846726450195,0.0,0.004873434725443,2.451801482424518,0.0048733987579589,0.0048824911425763,0.0048854246787878,0.0049022144546658,0.0049573298792683,0.004986988013574,0.0049489026883634,0.00489683017361,0.0048910081580949,0.0048922845176235,0.0048921404524078,0.0048849941861352,0.0048835554713654,0.0048833306102895,0.0048827441445572,0.0048822655808281,0.0048773419130855,0.0048799280325703,0.0048829732630922,0.0048795528593146,0.004877649999146,0.0048948166192351,0.0049075095432679,0.0049110183385351,0.0049017600481654,0.0048994334037616,0.0049077262705712,0.0049225805707976,0.0049242920955283,0.0048724015307952,0.0048772821365817,0.0049808446749954,0.0050626268831621,0.0050699104941916,0.0051212238438148,0.0051214867868284,0.0052875669742301,0.0054997878353322,0.0053693252424307,0.0056652582102972,0.0054989379899417,0.0055324675487854,0.0057835624788022,0.0059936390540161,0.0061396928896514,0.0058912211097468,0.0062131802698518,0.0064989008044308,0.0068268652622465,0.0070523430483686,0.0068349213435366,0.0064307303068377,0.0068043897265468,0.0070464245197951,0.0071541428870073,0.0077350606348475,0.0078175123917097,0.0085478723769478,0.0082236203921139,0.0088264802468596,0.0087241108473655,0.0088510437011944,0.0093261729227314,0.011625971041271,0.0129114998593265,0.0148299937048915,0.0124550516027941,0.0145231304510927,0.0179513543492631,0.0171246669777195,0.015833421544433,0.0148377687248062,0.0121563195143105,0.0118059432447352,0.0105497361149293,0.00970006840449,0.0091159278422029,0.0092821257089529,0.0092502522881741,0.0086552264390022,0.0099516399475771,0.0104058367126339,0.009041469984642,0.0083703850209273,0.0078955015186484,0.0072537814054176,0.0076346578371656,0.0078330321678244,0.0068539084950451,0.0060321178477026,0.0052376325920296,0.0054163037883211,0.0049509490650567,0.0051688097923941,0.0057470828141045,0.0048034552692242,0.0042791007151206,0.0046560704608787,0.0042516906070627,0.0042757713512027,0.0044438451748471,0.0035483375418818,0.0028546101270332,0.0027085064409974,0.0027957460127975
INT-20230206_0000008|TK-0633|HN,INT-20230206_0000008,2023-02-06T01:17:36.000000Z,37.08,37.17,20.0,7.83,41.56393847190536,80.96893034637156,-1.0,37.33460078205768,1.6088008578412405,38.35444704459292,313.8780577759319,451.6997277547117,452.0542600769079,422.7439778934056,422.8378908469545,-407.55583603876767,0.0,0.0,-407.55583603876767,167.72071436610474,TK,0633,33.224367,39.921437,TK-0633,473.0,True,0.019706644,PALEOZOIC,-150.0,4,True,262.4651331284344,1.0439325452726735,0.0,0.0026411936484129,3.1923683481575864,0.0026412005750207,0.0026416275769882,0.002641940058211,0.0026421535614562,0.0026461788361074,0.0026491726848094,0.002651250047586,0.002652856940757,0.0026531827167635,0.002659765116266,0.0026602830256938,0.0026538715103713,0.0026527032713354,0.00265223509729,0.0026524864051712,0.0026516392239116,0.0026465304910892,0.0026441203774829,0.0026442204694409,0.0026470403059291,0.0026490121893433,0.0026483309406341,0.0026496821621817,0.002649012534132,0.0026537083561677,0.0026562456164536,0.0026575365993018,0.0026540900217073,0.0026653037972485,0.0026732035015144,0.0026748299762875,0.0026787130964887,0.0026892553457519,0.0026929225772469,0.0026960822010167,0.0027100180575455,0.0027095904378773,0.0027060810968985,0.0027433188111849,0.0027354662613859,0.0027621009614549,0.0027781685113554,0.0027198235302097,0.0027505841364566,0.0027290437517114,0.0027837430513923,0.0028269451948683,0.0028966715882084,0.0029931478055592,0.0030381900260215,0.003152883259814,0.0032420058865958,0.003198200963384,0.003159833984316,0.0030719732611772,0.0030818838841962,0.0031407731528283,0.0034799310977444,0.0032187975185007,0.0038220390743188,0.0038316878933063,0.0038989230197961,0.0040958620209828,0.0042964127352131,0.0045900550876279,0.0047496240878256,0.0049863208537512,0.0043404554410672,0.0047054622099467,0.0050096828504347,0.0046558941721726,0.004403345158066,0.0047161695902799,0.0046116969002801,0.0055010663474357,0.0060155534652574,0.0056019008300361,0.005048604342857,0.0048692143987104,0.0046954770828655,0.0046999615694906,0.0042796975334998,0.003599652466677,0.0044027985819184,0.0040320623536679,0.0035912426685324,0.0034502925660313,0.0033430626160362,0.0033574120494495,0.003130957206887,0.0032712402235102,0.0036364688327112,0.0035503884586128,0.0037265439515344,0.0033956856014294,0.0036593834515564,0.0038495674824196,0.0042083533534424,0.0046179584267872,0.005158591471404,0.005913026558107,0.0063995206317936,0.006386202345531,0.0059963270276313,0.0055957133991555
