gmid,event_id,event_time,event_longitude,event_latitude,event_depth,magnitude,strike,dip,rake,rupture_width,depth_top_of_rupture,depth_bottom_of_rupture,azimuth,repi,rhypo,rjb,rrup,rx,ry0,rvolc,gc2t,gc2u,network,station_code,station_longitude,station_latitude,station_id,vs30,vs30measured,slope,geology,xvf,region,backarc,z1,z2pt5,fpeak,PGA,PGV,SA(0.010),SA(0.020),SA(0.022),SA(0.025),SA(0.029),SA(0.030),SA(0.032),SA(0.035),SA(0.036),SA(0.040),SA(0.042),SA(0.044),SA(0.045),SA(0.046),SA(0.048),SA(0.050),SA(0.055),SA(0.060),SA(0.065),SA(0.067),SA(0.070),SA(0.075),SA(0.080),SA(0.085),SA(0.090),SA(0.095),SA(0.100),SA(0.110),SA(0.120),SA(0.130),SA(0.133),SA(0.140),SA(0.150),SA(0.160),SA(0.170),SA(0.180),SA(0.190),SA(0.200),SA(0.220),SA(0.240),SA(0.250),SA(0.260),SA(0.280),SA(0.290),SA(0.300),SA(0.320),SA(0.340),SA(0.350),SA(0.360),SA(0.380),SA(0.400),SA(0.420),SA(0.440),SA(0.450),SA(0.460),SA(0.480),SA(0.500),SA(0.550),SA(0.600),SA(0.650),SA(0.667),SA(0.700),SA(0.750),SA(0.800),SA(0.850),SA(0.900),SA(0.950),SA(1.000),SA(1.100),SA(1.200),SA(1.300),SA(1.400),SA(1.500),SA(1.600),SA(1.700),SA(1.800),SA(1.900),SA(2.000),SA(2.200),SA(2.400),SA(2.500),SA(2.600),SA(2.800),SA(3.000),SA(3.200),SA(3.400),SA(3.500),SA(3.600),SA(3.800),SA(4.000),SA(4.200),SA(4.400),SA(4.600),SA(4.800),SA(5.000),SA(5.500),SA(6.000),SA(6.500),SA(7.000),SA(7.500),SA(8.000),SA(8.500),SA(9.000),SA(9.500),SA(10.000)
INT-20230206_0000008|TK-0137|HN,INT-20230206_0000008,2023-02-06T01:17:36.000000Z,37.08,37.17,20.0,7.83,41.56393847190536,80.96893034637156,-1.0,37.33460078205768,1.6088008578412405,38.35444704459292,297.63021854681574,130.94656172797582,132.16433720326592,104.52787226044096,104.52450290101191,-100.18124663758134,0.0,0.0,-100.18124663758134,127.13846189359764,TK,0137,35.723258,37.704858,TK-0137,629.2229614257812,False,0.061528355,PALEOZOIC,-5.496651488232221,4,True,103.56675970489744,0.7531494492318046,0.0,0.0426963397597622,5.019247992952396,0.0427097992496752,0.0432358486177928,0.0434061048862384,0.0436402878076659,0.0439154611694294,0.0443824714504905,0.0438884957325111,0.0455841339920067,0.0456101996883494,0.0459729102982963,0.0459481058907523,0.0459809745926617,0.0467601216295519,0.0474128452869342,0.0487544800172979,0.04974023096228,0.0497088611571113,0.0532112025737601,0.0523299952195466,0.0548907250140129,0.057072639349315,0.0630881548369333,0.0569740923856194,0.0620220512575168,0.073943817942338,0.0790431413494276,0.0810912454106196,0.0763685752629327,0.0836448296990047,0.0923459145695132,0.0946924485240648,0.1093176614035121,0.1211912114698834,0.1312743938382268,0.1489955691665617,0.2015882617324112,0.2318757884814302,0.2059808720046583,0.1493539785708255,0.1207897112367649,0.1101624317069229,0.1010975100209152,0.1090173048161928,0.1130618031408721,0.1180132584446642,0.1083849915927075,0.0945152052851687,0.0877156058372825,0.0874223594764818,0.0849619713091882,0.0770026383165622,0.0696140404408817,0.0651306480859191,0.0589750807753857,0.0573084057541905,0.0546016002756789,0.0484252421142817,0.0470138601903157,0.0375174523877863,0.0443046621316702,0.0413582704906386,0.0426300264527263,0.0395304857270427,0.0432867625134829,0.0390561280267138,0.0386438845044372,0.0333808164397475,0.0298305823476088,0.0306834137186925,0.0253535964179796,0.023390028302019,0.0167332479074289,0.0173898563147497,0.0185118644918102,0.0168184196762404,0.0175654950357338,0.0181769025720287,0.0191395052647456,0.0193100339445503,0.0179522282062819,0.0163012342609401,0.0151454138321422,0.0116969163865849,0.0095993302381001,0.00986269100916,0.0110257175753863,0.0125276764009989,0.0133005388248545,0.0128524247304635,0.0134953553723702,0.0134254194938173,0.0120739315963792,0.0107903896452251,0.0098937730691331,0.0090675757246253,0.0093891794215626,0.008032677765577,0.0081774096886432,0.0096298474956486,0.0093648467828832,0.008071856000443,0.0070694023269176,0.0062737170793063,0.0052805247174154,0.0043450500223858
INT-20230206_0000008|TK-0138|HN,INT-20230206_0000008,2023-02-06T01:17:36.000000Z,37.08,37.17,20.0,7.83,41.56393847190536,80.96893034637156,-1.0,37.33460078205768,1.6088008578412405,38.35444704459292,297.6319560608501,130.93871130979443,132.1565591239031,104.51988209121517,104.51651435998107,-100.17447001636928,0.0,0.0,-100.17447001636928,127.14330091257808,TK,0138,35.723358,37.704858,TK-0138,629.2229614257812,False,0.061528355,PALEOZOIC,-5.489433502807932,4,True,103.56675970489744,0.7531494492318046,0.0,0.0212475395530326,4.618272983709801,0.021247199000493,0.0213392499090515,0.0213638889043079,0.021414671899537,0.0215230786576089,0.0215297030394098,0.0215671345631629,0.0216638806797578,0.0215919837439227,0.0213975132700257,0.0217545770850577,0.0219858294913601,0.0219873421906297,0.0220688294136782,0.0224074398142002,0.022587123244906,0.0228327355127805,0.0231799572562752,0.0224966752699611,0.0223412136070996,0.0233534420475,0.0244748727588017,0.0245335932122467,0.0254618950318189,0.0262395439177869,0.025870604047715,0.0257762836791571,0.028404629435593,0.0312427663939101,0.029315359597148,0.0308546075589106,0.0325595832219349,0.0310073093944524,0.0352526718706813,0.0414041766023882,0.0399539831097231,0.041799790591106,0.0431906320110163,0.0444420480388596,0.0503994205215237,0.0496972005092493,0.0480138443774736,0.0537181013792416,0.0609991874780358,0.0640404773614027,0.0661641437481241,0.0670800759931298,0.0644044689947421,0.0641778816831818,0.0720236604904474,0.0759043105125239,0.0740673430219017,0.0619698539454889,0.0574882239881909,0.0563330507304127,0.0491302180527555,0.0468129545629157,0.0566997299538509,0.0494434378134748,0.0482921664692448,0.0474751497089313,0.0414736969599841,0.0332676251880039,0.033449034761571,0.031868025412828,0.0368497340982348,0.0302838593700696,0.0287213693330159,0.0288469046189664,0.0228624816366192,0.0211266014630477,0.0162403504136011,0.0163129293471348,0.0182241759582566,0.0168074464418566,0.0179004057764922,0.0186495244454781,0.0198252113346665,0.0196307574798613,0.0193994872477386,0.0173511923539527,0.0155555837670724,0.0119436382423432,0.0098624859943264,0.0096154705474997,0.0109041026197711,0.0124346813647718,0.0131945520904996,0.0130296857099624,0.0135269874818008,0.013596316333535,0.012299755613996,0.0110125929747312,0.0100630630620832,0.0092042002730821,0.0094560441979837,0.0079839223325767,0.0080993065269616,0.0095191201270446,0.0092716144746901,0.0080458054394034,0.0070410018511497,0.0062531238676044,0.0052732441699177,0.0043421442345984
INT-20230206_0000008|TK-0139|HN,INT-20230206_0000008,2023-02-06T01:17:36.000000Z,37.08,37.17,20.0,7.83,41.56393847190536,80.96893034637156,-1.0,37.33460078205768,1.6088008578412405,38.35444704459292,280.96068517712905,143.65484251865624,144.76575485611204,112.69819947665914,112.69457247885197,-102.21378860735146,0.0,0.0,-102.21378860735146,91.037590047148,TK,0139,35.445322,37.400943,TK-0139,491.6007690429688,False,0.07042271,PLEISTOCENE,-5.542546698342507,4,True,239.1563671755604,0.9988696576044672,0.0,0.0181271140773169,6.35230999127414,0.0181283128522804,0.0181955419720837,0.0182120123617962,0.0182298499804769,0.0182651022523458,0.0182815940351697,0.0183026155105523,0.018326423522923,0.0183512191651217,0.0184614910538842,0.0185132923971456,0.0185367140847091,0.0185827649422945,0.0186779132638151,0.0188405343004835,0.0189897700426098,0.0192809574452598,0.0192419716866608,0.0192648401587692,0.0195915947782061,0.0202534148298129,0.0203828100821022,0.0210079914478577,0.0215471023748402,0.0227194987106044,0.0227764315245616,0.0239157910572489,0.024472422393138,0.0267399288494466,0.02865652042043,0.0283475851599057,0.0286685153292322,0.0303697017963197,0.0306399296396394,0.0311080297338244,0.0337887325723259,0.0346367758829656,0.0381514942478448,0.0432317768205902,0.051018723293755,0.052022095189369,0.0527357428630081,0.0494062708751682,0.0499747545937933,0.0503060315909952,0.0534090889587094,0.0566924014335878,0.0584429232794649,0.059243221178429,0.0555324755637309,0.0521331245340605,0.0497408227877095,0.0519519840170286,0.0521277400697837,0.0517253152936141,0.0595273310910477,0.0639833552493737,0.0572542622367907,0.0510501867145772,0.0513543867546796,0.0534531352408066,0.0555715976350882,0.0575281742327562,0.0567982074136919,0.0563134263820298,0.0463097514498696,0.0425750286515408,0.0367983050390688,0.032566056412103,0.0293402130817099,0.0298876134329741,0.0303807861368536,0.0263708867462179,0.0227332354413059,0.0238826050197131,0.0201998089385616,0.018361418791843,0.0189772532694546,0.0170520165895662,0.0206529550417851,0.0207122085538178,0.02059387571777,0.0199864518718602,0.017684584816337,0.015384314288189,0.016109547550459,0.0173140895761048,0.0169117821887241,0.0178035298679659,0.0171797751772851,0.0145230632855206,0.0142845256767295,0.0153940756719313,0.0149549780106675,0.0135550840591284,0.0119685573628204,0.0105961341838718,0.0111409630665389,0.0102043349105752,0.0090465549137268,0.0082990305504296,0.0077855575100099,0.0077915815707648,0.0076545305525623,0.0076337306485716
INT-20230206_0000008|TK-0140|HN,INT-20230206_0000008,2023-02-06T01:17:36.000000Z,37.08,37.17,20.0,7.83,41.56393847190536,80.96893034637156,-1.0,37.33460078205768,1.6088008578412405,38.35444704459292,288.714076979452,140.77699972434226,141.9104423620315,113.44799835381411,113.44346973899512,-105.2103191546274,0.0,0.0,-105.2103191546274,107.33614960184045,TK,0140,35.52924,37.56261,TK-0140,730.3448486328125,False,0.049928673,CENOZOIC,-10.407741540196264,4,True,51.03822896096319,0.6350933774638048,0.0,0.0306894845897636,4.407470875883626,0.0306835838582446,0.0309052765982207,0.0309692901325305,0.0311010334928984,0.0312540124414819,0.0312688162617337,0.0314935916071745,0.0315782031608949,0.0314035449913262,0.032300836918805,0.0325661433554158,0.0324223113259859,0.0324742013621256,0.0322653792575757,0.0323016761302771,0.0330003588628765,0.0328658236531082,0.0354538230502604,0.0361194253970679,0.0355827294874394,0.0348812379272508,0.0356245603473799,0.0374218989615265,0.0386540204712756,0.0402647848983979,0.0452589395891809,0.0487608643674067,0.0526774190034354,0.0536535435616539,0.0573883110155992,0.0620309438853007,0.0674970630972324,0.0751057861313311,0.0832544327156149,0.1008789100441545,0.1002093805127286,0.1043453718680667,0.1019737904309978,0.1161318304379681,0.1342269109944715,0.1417384102577832,0.1384259625120555,0.1473192284029209,0.1473715217448544,0.1312160995089268,0.0832589426791536,0.0723820303189412,0.0642979048004492,0.0568350498369607,0.0493758053810721,0.0477350368231891,0.0499013905703949,0.0483829164360052,0.0448632698104515,0.0433202079998645,0.0445530809118964,0.0460329322933511,0.0397243366993722,0.036251195160567,0.0294727878635748,0.0283402964173553,0.0258135006712863,0.024709449273139,0.0256116209067672,0.029807322223146,0.0294198762572653,0.0239029183305879,0.021799239493912,0.0194179339420823,0.0168685960793103,0.0170917880038815,0.0217208497832736,0.0193233382059714,0.0155011995811349,0.0139946020904257,0.0136579078803621,0.0134145072408882,0.0129755526070097,0.0099125958622183,0.0098104659673446,0.009413909051837,0.0088995133211572,0.0079779993966397,0.0085739215937633,0.0074028167073318,0.0083260118670598,0.0079484560149939,0.0072783874499924,0.0071202761292035,0.0072406380542209,0.0071946335679547,0.0076174479478437,0.0082766873245128,0.0087507121175957,0.0092382359047492,0.0093588803010928,0.0089515746095984,0.0071726240071275,0.0066233425831699,0.0064245943733281,0.005903953080896,0.004597077191895,0.0042457490002528,0.0042142102958498,0.0043505894343792
INT-20230206_0000008|TK-0142|HN,INT-20230206_0000008,2023-02-06T01:17:36.000000Z,37.08,37.17,20.0,7.83,41.56393847190536,80.96893034637156,-1.0,37.33460078205768,1.6088008578412405,38.35444704459292,292.23498093998614,136.14089342565836,137.31260999171369,109.58316772084032,109.57924178609954,-102.89072843772804,0.0,0.0,-102.89072843772804,115.62123641179824,TK,0142,35.611148,37.62072,TK-0142,648.8258056640625,False,0.08349041,PALEOZOIC,-8.251065016636074,4,True,90.58531148647762,0.7271751329825629,0.0,0.0141700041013957,3.9055261491447215,0.0141692154839442,0.0143242915756139,0.0143691708281536,0.0146261526076616,0.0145035585779914,0.0145565233347472,0.0145914638646295,0.0145034032256492,0.0145800987221884,0.01496684228267,0.0151078529114252,0.015013892061424,0.0149042488128262,0.0150644534591539,0.0151176421653354,0.0152969487009768,0.0160305246040675,0.016071132255722,0.0165804679416291,0.0166156006462476,0.0161156480289701,0.0164433612713944,0.0178664142340837,0.0177609227398188,0.0171338971645995,0.0184561591292676,0.0201816102989664,0.0204312289465466,0.0207071289318365,0.0208139664577479,0.0210348437635024,0.020716284416086,0.020772070347935,0.0204365548885855,0.023922247700669,0.0236521187844295,0.0254641955184719,0.0279723730068875,0.031851848119804,0.0315225858461607,0.0356985232012463,0.036960416375098,0.0359717309761961,0.0337766005117604,0.0351235122911976,0.0299076405478413,0.0283614208046904,0.0274429839096513,0.0284636060303148,0.0265959838628975,0.0284832002187826,0.0334374199836175,0.0405592934244795,0.0418662207507527,0.0427389313937837,0.0451879655277008,0.0472185011199211,0.0359286632996012,0.0294390564584019,0.0272626080062757,0.0257963030944934,0.0227744807528234,0.0224761839565822,0.0246379763788688,0.0290611022719303,0.0346288869637907,0.0288503804325328,0.022364852594527,0.0222850681579041,0.0186914254990543,0.02138045575916,0.0211783378737537,0.0173948853552029,0.0146945892978078,0.0125178462551024,0.0117211231353536,0.0113930073477497,0.0131954784728615,0.0129733899415934,0.0102407200406768,0.0097351486516168,0.0088654039698858,0.0093351702310567,0.0090789534770543,0.0088634758861199,0.0068159825556524,0.0071602563742931,0.0078683019783499,0.0089975967709005,0.0092733837956721,0.0081164605683849,0.0086008166505337,0.008901927094739,0.0086536497926,0.0092086672415761,0.0089132834107007,0.0091290471939714,0.0090995485667412,0.0086782334879506,0.0085448570426422,0.0069981331794294,0.0059574138454729,0.0054341921752435,0.00489586686686,0.004408804254894
INT-20230206_0000008|TK-0143|HN,INT-20230206_0000008,2023-02-06T01:17:36.000000Z,37.08,37.17,20.0,7.83,41.56393847190536,80.96893034637156,-1.0,37.33460078205768,1.6088008578412405,38.35444704459292,292.2697148391002,136.1420889920214,137.31379535615304,109.589092901549,109.58516155011694,-102.90808235749743,0.0,0.0,-102.90808235749743,115.68786300149507,TK,0143,35.611477,37.621415,TK-0143,648.8258056640625,False,0.08349041,PALEOZOIC,-8.271388969957618,4,True,90.58531148647762,0.7271751329825629,0.0,0.0264288929209289,3.986829262991365,0.0264258508578853,0.0265294379481475,0.0265548294692642,0.0265849151439015,0.0267057503142282,0.0267496201910944,0.0267424821409675,0.0269213072152895,0.0270212381475005,0.0278370952088084,0.0280559858029569,0.0280342621306492,0.0279440204158575,0.0277709741270309,0.0277564482371627,0.0285402305177248,0.0288690681017019,0.0288221196584067,0.0306093725230544,0.0312471108984064,0.0314151965787984,0.0310559758066219,0.0286092183716971,0.0299874367992671,0.0318619275895421,0.0337103887310518,0.0392624186933377,0.0408351329640249,0.0491139642039673,0.0599722268016095,0.0615711503129706,0.063394801453764,0.0565212366599557,0.0563975637610819,0.05306074709054,0.0525223146688956,0.0618471183240809,0.0764744381638432,0.0858746903140001,0.1054714647067752,0.0978711566256815,0.0975752587853763,0.1035840364487636,0.0820908805359024,0.0731469845974443,0.0666253649028924,0.0582883757183349,0.0586767357569234,0.0571956369822537,0.0447733826595362,0.0450695382785123,0.0456834613782789,0.0501542815221444,0.0507179055778121,0.0495731692454934,0.0504401254962357,0.0556061590425786,0.0530005244738927,0.0347889595354644,0.0286355351260956,0.0288194120380016,0.0259640840962412,0.0279574414759107,0.033135104522663,0.0355624294335533,0.0424964112360877,0.0354804481729338,0.0263374288215662,0.0255664684859008,0.0217671504242601,0.0239485585153098,0.0243584202026778,0.0197780439650904,0.0164181671438097,0.0141420234450361,0.0124743337785631,0.0118015693117857,0.0136019688571115,0.0135255156405376,0.0107252323242622,0.0099251134900377,0.0091040580771754,0.0098973407631597,0.0095481390022931,0.0092183600113034,0.0071519250204616,0.0076140534349263,0.0082059724319518,0.0095442036482115,0.0097767175607662,0.0084978282516888,0.009020775109038,0.0093310454305911,0.0089503928195168,0.009547079299382,0.0094154070455004,0.0096422527590528,0.0095408255974982,0.009159764219895,0.0089781658058785,0.0073503017588735,0.0062207230888674,0.0056779509538211,0.0050756673709946,0.0046292303183397
INT-20230206_0000008|TK-0144|HN,INT-20230206_0000008,2023-02-06T01:17:36.000000Z,37.08,37.17,20.0,7.83,41.56393847190536,80.96893034637156,-1.0,37.33460078205768,1.6088008578412405,38.35444704459292,294.69718886675,153.1597416810741,154.2021934727692,126.81176848707238,126.80354573592868,-119.61166758272176,0.0,0.0,-119.61166758272176,116.16567311052624,TK,0144,35.45968,37.731023,TK-0144,821.2194213867188,False,0.0773528,UNKNOWN,-26.19564369368764,4,True,26.73753188986208,0.5553569920526543,0.0,0.0157963967967509,3.2692828012848847,0.0158019539377006,0.0159485171382085,0.0159885321608008,0.0160549377682198,0.0161791591619616,0.0162091240853368,0.0162966464834004,0.0163897056146838,0.0164402995836692,0.016652977854392,0.0166384149542075,0.0167106416477552,0.0168158856926464,0.0169711795775823,0.0172087868873945,0.017159593858307,0.0173356314469375,0.0180517817367824,0.0186006200722735,0.0189278080468053,0.0195831646697255,0.0200727950065213,0.0207753809613896,0.0215859115304724,0.0231406428594268,0.0256281199149177,0.0262704210636602,0.0285438560761067,0.0341697450953195,0.0399804723098463,0.0403275532534803,0.0417768995881278,0.0547502632815972,0.0593356274789076,0.0528425575844622,0.0519413047308273,0.0472680460044305,0.0359446587040736,0.0349842420323805,0.030618087865794,0.0273274858916706,0.0230181534601943,0.0174592932935698,0.0171247851297922,0.0173948453431159,0.0198302863069082,0.0183349739498956,0.0171294407465473,0.0163776453714086,0.0135390875168849,0.0123333297878216,0.0123272072852598,0.0132587286943576,0.0125544936797988,0.0121528971678567,0.0112169966116876,0.0108244156111951,0.0122079675681402,0.0139412199904345,0.0118620653969113,0.0116051946153012,0.0112923543884306,0.011199878082993,0.0104962087743932,0.0102432771368282,0.0111543669457018,0.0121311443125464,0.0118037819446,0.0104817755050986,0.0130995225414424,0.0145503863202552,0.0117272663305676,0.0097513053302266,0.0087922739924371,0.0088080035133044,0.0081163596888337,0.0079967262175204,0.0082603111998627,0.0075018768256452,0.0077049182137848,0.0076588660969436,0.0070065255989461,0.0070021662712302,0.0069368074448119,0.0066791352475016,0.0067642086330213,0.0070999238934319,0.0074705589815059,0.008555012022183,0.0089395759968344,0.0082402296900275,0.0075998712768221,0.0077740668371677,0.0076861497378462,0.0074170628473755,0.0072640485417014,0.0059021754391222,0.0063370587732844,0.0064639755800895,0.0056382141971993,0.0056372315796558,0.0050815978095873,0.0044197464142138,0.0037406606361424,0.003449696985618
